{
  "type": "FeatureCollection",
  "features": [
    {
      "type": "Feature",
      "id": "way/25704812",
      "properties": {
        "way_id": 25704812,
        "highway": "residential"
      },
      "geometry": {
        "type": "LineString",
        "coordinates": [
          [
            36.8457144,
            -1.2344529
          ],
          [
            36.8453363,
            -1.2345333
          ],
          [
            36.8452705,
            -1.2345762
          ],
          [
            36.8452188,
            -1.2346547
          ],
          [
            36.8451566,
            -1.2354052
          ],
          [
            36.8451337,
            -1.2357116
          ],
          [
            36.8451329,
            -1.2357386
          ],
          [
            36.8450823,
            -1.2361887
          ],
          [
            36.8450756,
            -1.2362482
          ],
          [
            36.8450502,
            -1.2365256
          ],
          [
            36.8450526,
            -1.2367047
          ],
          [
            36.8451051,
            -1.2371424
          ],
          [
            36.8451436,
            -1.2373808
          ],
          [
            36.8452341,
            -1.2381091
          ],
          [
            36.8452506,
            -1.2382753
          ]
        ]
      }
    },
    {
      "type": "Feature",
      "id": "way/25704820",
      "properties": {
        "way_id": 25704820,
        "highway": "residential",
        "name": "Countryside Villa"
      },
      "geometry": {
        "type": "LineString",
        "coordinates": [
          [
            36.8466299,
            -1.2346958
          ],
          [
            36.846616,
            -1.234716
          ],
          [
            36.8466059,
            -1.2347378
          ],
          [
            36.8464411,
            -1.2366602
          ],
          [
            36.8463479,
            -1.2376962
          ],
          [
            36.8462957,
            -1.2382667
          ],
          [
            36.84629,
            -1.2383285
          ]
        ]
      }
    },
    {
      "type": "Feature",
      "id": "way/25704821",
      "properties": {
        "way_id": 25704821,
        "highway": "residential"
      },
      "geometry": {
        "type": "LineString",
        "coordinates": [
          [
            36.8492134,
            -1.2367999
          ],
          [
            36.8491975,
            -1.2368108
          ],
          [
            36.8491794,
            -1.2368162
          ],
          [
            36.848354,
            -1.2367682
          ],
          [
            36.8479506,
            -1.2367477
          ],
          [
            36.8474903,
            -1.2367242
          ],
          [
            36.8464411,
            -1.2366602
          ]
        ]
      }
    },
    {
      "type": "Feature",
      "id": "way/25704823",
      "properties": {
        "way_id": 25704823,
        "highway": "residential",
        "name": "Countryside Villa"
      },
      "geometry": {
        "type": "LineString",
        "coordinates": [
          [
            36.8492134,
            -1.2367999
          ],
          [
            36.8492224,
            -1.2367842
          ],
          [
            36.8492295,
            -1.2367657
          ],
          [
            36.8493346,
            -1.2356555
          ],
          [
            36.8494032,
            -1.2349302
          ],
          [
            36.8494018,
            -1.234896
          ],
          [
            36.849394,
            -1.2348673
          ],
          [
            36.8493656,
            -1.2348518
          ],
          [
            36.8493374,
            -1.2348471
          ],
          [
            36.8485131,
            -1.2348112
          ],
          [
            36.847664,
            -1.2347481
          ],
          [
            36.8466864,
            -1.2346842
          ],
          [
            36.8466569,
            -1.2346852
          ],
          [
            36.8466299,
            -1.2346958
          ]
        ]
      }
    },
    {
      "type": "Feature",
      "id": "way/25704825",
      "properties": {
        "way_id": 25704825,
        "highway": "residential"
      },
      "geometry": {
        "type": "LineString",
        "coordinates": [
          [
            36.8485131,
            -1.2348112
          ],
          [
            36.848354,
            -1.2367682
          ]
        ]
      }
    },
    {
      "type": "Feature",
      "id": "way/25704829",
      "properties": {
        "way_id": 25704829,
        "highway": "residential"
      },
      "geometry": {
        "type": "LineString",
        "coordinates": [
          [
            36.8474903,
            -1.2367242
          ],
          [
            36.847664,
            -1.2347481
          ]
        ]
      }
    },
    {
      "type": "Feature",
      "id": "way/25704838",
      "properties": {
        "way_id": 25704838,
        "highway": "residential",
        "name": "Countryside Villa"
      },
      "geometry": {
        "type": "LineString",
        "coordinates": [
          [
            36.8493094,
            -1.237879
          ],
          [
            36.8463479,
            -1.2376962
          ]
        ]
      }
    },
    {
      "type": "Feature",
      "id": "way/40131548",
      "properties": {
        "way_id": 40131548,
        "highway": "residential",
        "name": "Coffee Garden Drive"
      },
      "geometry": {
        "type": "LineString",
        "coordinates": [
          [
            36.8439737,
            -1.2381856
          ],
          [
            36.8443749,
            -1.2382138
          ],
          [
            36.845144,
            -1.2382678
          ],
          [
            36.8452506,
            -1.2382753
          ],
          [
            36.84629,
            -1.2383285
          ],
          [
            36.8465394,
            -1.2383494
          ],
          [
            36.8490733,
            -1.2384406
          ],
          [
            36.8501255,
            -1.2385246
          ],
          [
            36.8510545,
            -1.2385606
          ],
          [
            36.8515922,
            -1.2385933
          ],
          [
            36.8518636,
            -1.2386054
          ],
          [
            36.8522429,
            -1.2386249
          ],
          [
            36.8524217,
            -1.2386266
          ]
        ]
      }
    },
    {
      "type": "Feature",
      "id": "way/59946877",
      "properties": {
        "way_id": 59946877,
        "highway": "path"
      },
      "geometry": {
        "type": "LineString",
        "coordinates": [
          [
            36.8438369,
            -1.2443534
          ],
          [
            36.8438031,
            -1.2436918
          ],
          [
            36.8437837,
            -1.24345
          ],
          [
            36.843899,
            -1.242724
          ],
          [
            36.8440283,
            -1.2426336
          ],
          [
            36.8441451,
            -1.2425369
          ],
          [
            36.8441815,
            -1.2423031
          ],
          [
            36.8440796,
            -1.2413803
          ],
          [
            36.8439972,
            -1.2407438
          ],
          [
            36.8439784,
            -1.2405234
          ],
          [
            36.8439356,
            -1.240238
          ],
          [
            36.8439156,
            -1.2400688
          ],
          [
            36.8439308,
            -1.2399944
          ],
          [
            36.8439562,
            -1.2399221
          ],
          [
            36.8439087,
            -1.2398552
          ]
        ]
      }
    },
    {
      "type": "Feature",
      "id": "way/59946878",
      "properties": {
        "way_id": 59946878,
        "highway": "track"
      },
      "geometry": {
        "type": "LineString",
        "coordinates": [
          [
            36.8441463,
            -1.2399503
          ],
          [
            36.8439732,
            -1.239881
          ],
          [
            36.8439087,
            -1.2398552
          ]
        ]
      }
    },
    {
      "type": "Feature",
      "id": "way/60200210",
      "properties": {
        "way_id": 60200210,
        "highway": "residential",
        "surface": "dirt"
      },
      "geometry": {
        "type": "LineString",
        "coordinates": [
          [
            36.8325244,
            -1.2420622
          ],
          [
            36.8322949,
            -1.2423438
          ],
          [
            36.8322194,
            -1.2424117
          ],
          [
            36.832467,
            -1.2431975
          ],
          [
            36.8327141,
            -1.2437442
          ],
          [
            36.832964,
            -1.2440494
          ],
          [
            36.8330424,
            -1.2440992
          ],
          [
            36.83299,
            -1.2441642
          ],
          [
            36.8328942,
            -1.2442306
          ],
          [
            36.8328191,
            -1.2443258
          ],
          [
            36.832687,
            -1.2446174
          ],
          [
            36.8327721,
            -1.2446832
          ],
          [
            36.8329874,
            -1.2446617
          ],
          [
            36.8330779,
            -1.2446409
          ],
          [
            36.8332174,
            -1.2445899
          ],
          [
            36.8333146,
            -1.2445236
          ],
          [
            36.8334534,
            -1.2444545
          ],
          [
            36.8335908,
            -1.2444458
          ],
          [
            36.8337163,
            -1.2443982
          ],
          [
            36.8339677,
            -1.2442849
          ],
          [
            36.8342292,
            -1.2442098
          ],
          [
            36.8345135,
            -1.2441656
          ],
          [
            36.8350151,
            -1.2439859
          ],
          [
            36.8350879,
            -1.2436536
          ]
        ]
      }
    },
    {
      "type": "Feature",
      "id": "way/60257635",
      "properties": {
        "way_id": 60257635,
        "highway": "path",
        "surface": "dirt"
      },
      "geometry": {
        "type": "LineString",
        "coordinates": [
          [
            36.8350879,
            -1.2436536
          ],
          [
            36.8352874,
            -1.2437539
          ],
          [
            36.836001,
            -1.2440719
          ],
          [
            36.8367093,
            -1.2439485
          ],
          [
            36.8368729,
            -1.2440303
          ],
          [
            36.8371613,
            -1.2441563
          ],
          [
            36.8371478,
            -1.2443521
          ],
          [
            36.8373302,
            -1.2447812
          ],
          [
            36.8375421,
            -1.2451753
          ],
          [
            36.838289,
            -1.245925
          ]
        ]
      }
    },
    {
      "type": "Feature",
      "id": "way/142776095",
      "properties": {
        "way_id": 142776095,
        "highway": "path",
        "surface": "dirt"
      },
      "geometry": {
        "type": "LineString",
        "coordinates": [
          [
            36.839299,
            -1.243434
          ],
          [
            36.839183,
            -1.243655
          ],
          [
            36.839096,
            -1.243858
          ],
          [
            36.839015,
            -1.244099
          ],
          [
            36.838849,
            -1.244467
          ],
          [
            36.838743,
            -1.244738
          ],
          [
            36.8385273,
            -1.2452705
          ],
          [
            36.838385,
            -1.245736
          ],
          [
            36.838289,
            -1.245925
          ]
        ]
      }
    },
    {
      "type": "Feature",
      "id": "way/142776097",
      "properties": {
        "way_id": 142776097,
        "highway": "footway",
        "surface": "dirt"
      },
      "geometry": {
        "type": "LineString",
        "coordinates": [
          [
            36.8417263,
            -1.242441
          ],
          [
            36.8416004,
            -1.2420979
          ],
          [
            36.8415427,
            -1.2419081
          ],
          [
            36.8415084,
            -1.2416795
          ],
          [
            36.8414382,
            -1.2415514
          ],
          [
            36.84147,
            -1.2412382
          ],
          [
            36.841275,
            -1.240967
          ],
          [
            36.841075,
            -1.240819
          ],
          [
            36.840904,
            -1.240764
          ],
          [
            36.840762,
            -1.240737
          ],
          [
            36.840559,
            -1.240663
          ],
          [
            36.84024,
            -1.240494
          ],
          [
            36.840163,
            -1.24042
          ],
          [
            36.840065,
            -1.240375
          ],
          [
            36.839958,
            -1.240279
          ],
          [
            36.839803,
            -1.240186
          ],
          [
            36.83942,
            -1.239989
          ],
          [
            36.839097,
            -1.23996
          ],
          [
            36.838809,
            -1.239953
          ],
          [
            36.838524,
            -1.239995
          ],
          [
            36.838322,
            -1.240067
          ],
          [
            36.838038,
            -1.240117
          ],
          [
            36.83793,
            -1.240123
          ],
          [
            36.837787,
            -1.240105
          ],
          [
            36.837607,
            -1.239985
          ],
          [
            36.837559,
            -1.239932
          ],
          [
            36.83711,
            -1.239571
          ],
          [
            36.836698,
            -1.239175
          ],
          [
            36.836656,
            -1.239117
          ],
          [
            36.836485,
            -1.238986
          ],
          [
            36.836116,
            -1.238763
          ],
          [
            36.835785,
            -1.238624
          ],
          [
            36.835595,
            -1.238522
          ],
          [
            36.835294,
            -1.238402
          ],
          [
            36.835119,
            -1.238356
          ],
          [
            36.834868,
            -1.238345
          ],
          [
            36.834546,
            -1.238303
          ],
          [
            36.834301,
            -1.238245
          ],
          [
            36.833835,
            -1.238257
          ],
          [
            36.833513,
            -1.238213
          ],
          [
            36.833406,
            -1.238218
          ],
          [
            36.833029,
            -1.238095
          ],
          [
            36.832679,
            -1.237911
          ],
          [
            36.832572,
            -1.237895
          ],
          [
            36.832279,
            -1.237756
          ],
          [
            36.831842,
            -1.237588
          ],
          [
            36.831467,
            -1.237466
          ],
          [
            36.831335,
            -1.237408
          ],
          [
            36.830623,
            -1.237311
          ],
          [
            36.830101,
            -1.237174
          ],
          [
            36.829816,
            -1.237133
          ],
          [
            36.829673,
            -1.237145
          ],
          [
            36.829566,
            -1.237129
          ],
          [
            36.82939,
            -1.237091
          ],
          [
            36.829256,
            -1.237042
          ]
        ]
      }
    },
    {
      "type": "Feature",
      "id": "way/142776560",
      "properties": {
        "way_id": 142776560,
        "highway": "track",
        "surface": "dirt"
      },
      "geometry": {
        "type": "LineString",
        "coordinates": [
          [
            36.8331427,
            -1.2423843
          ],
          [
            36.8335124,
            -1.2425208
          ],
          [
            36.8338567,
            -1.2426678
          ],
          [
            36.8340387,
            -1.2428171
          ],
          [
            36.8343016,
            -1.2430956
          ],
          [
            36.8345638,
            -1.243325
          ],
          [
            36.8347637,
            -1.2434983
          ],
          [
            36.8350879,
            -1.2436536
          ]
        ]
      }
    },
    {
      "type": "Feature",
      "id": "way/142777587",
      "properties": {
        "way_id": 142777587,
        "highway": "footway",
        "name": "Middle Track",
        "surface": "dirt"
      },
      "geometry": {
        "type": "LineString",
        "coordinates": [
          [
            36.819383,
            -1.238357
          ],
          [
            36.8202575,
            -1.2383025
          ],
          [
            36.821155,
            -1.2385236
          ],
          [
            36.8217089,
            -1.2385673
          ],
          [
            36.8232911,
            -1.2385826
          ],
          [
            36.8250104,
            -1.2387985
          ],
          [
            36.8267992,
            -1.2389588
          ],
          [
            36.8275042,
            -1.2390219
          ],
          [
            36.8285316,
            -1.2391186
          ],
          [
            36.8296896,
            -1.2393893
          ],
          [
            36.831305,
            -1.2398736
          ],
          [
            36.832441,
            -1.240147
          ],
          [
            36.8327423,
            -1.2402307
          ],
          [
            36.8333101,
            -1.2403091
          ],
          [
            36.8338343,
            -1.240306
          ],
          [
            36.835679,
            -1.240536
          ],
          [
            36.836384,
            -1.2407136
          ],
          [
            36.836988,
            -1.241021
          ],
          [
            36.837299,
            -1.241259
          ],
          [
            36.837763,
            -1.241535
          ],
          [
            36.838106,
            -1.241794
          ],
          [
            36.838434,
            -1.24207
          ],
          [
            36.838492,
            -1.24216
          ],
          [
            36.838645,
            -1.242255
          ],
          [
            36.83875,
            -1.242354
          ],
          [
            36.838865,
            -1.242492
          ],
          [
            36.838967,
            -1.242639
          ],
          [
            36.839069,
            -1.24283
          ],
          [
            36.839231,
            -1.243192
          ],
          [
            36.839299,
            -1.243434
          ],
          [
            36.839382,
            -1.243634
          ],
          [
            36.839676,
            -1.244251
          ],
          [
            36.839771,
            -1.244484
          ],
          [
            36.8399153,
            -1.2448482
          ],
          [
            36.8399304,
            -1.2448868
          ],
          [
            36.8405662,
            -1.2464909
          ],
          [
            36.8405875,
            -1.2468271
          ],
          [
            36.8399934,
            -1.2479522
          ]
        ]
      }
    },
    {
      "type": "Feature",
      "id": "way/244375144",
      "properties": {
        "way_id": 244375144,
        "highway": "service"
      },
      "geometry": {
        "type": "LineString",
        "coordinates": [
          [
            36.8484896,
            -1.2387347
          ],
          [
            36.8490743,
            -1.2387562
          ],
          [
            36.8490733,
            -1.2384406
          ]
        ]
      }
    },
    {
      "type": "Feature",
      "id": "way/244375145",
      "properties": {
        "way_id": 244375145,
        "highway": "service"
      },
      "geometry": {
        "type": "LineString",
        "coordinates": [
          [
            36.8495356,
            -1.2393971
          ],
          [
            36.8495464,
            -1.2392844
          ],
          [
            36.8495674,
            -1.238856
          ],
          [
            36.8495554,
            -1.2388131
          ],
          [
            36.8495236,
            -1.2387938
          ],
          [
            36.8490743,
            -1.2387562
          ]
        ]
      }
    },
    {
      "type": "Feature",
      "id": "way/258626222",
      "properties": {
        "way_id": 258626222,
        "highway": "service"
      },
      "geometry": {
        "type": "LineString",
        "coordinates": [
          [
            36.846098,
            -1.2407479
          ],
          [
            36.8461208,
            -1.2406969
          ],
          [
            36.8461248,
            -1.2407626
          ],
          [
            36.8461141,
            -1.2407962
          ],
          [
            36.8460819,
            -1.2408163
          ],
          [
            36.8456367,
            -1.2408029
          ],
          [
            36.8455213,
            -1.2407881
          ],
          [
            36.8454301,
            -1.2407693
          ],
          [
            36.8453912,
            -1.2407492
          ],
          [
            36.8453631,
            -1.240713
          ],
          [
            36.8453629,
            -1.240681
          ]
        ]
      }
    },
    {
      "type": "Feature",
      "id": "way/280720870",
      "properties": {
        "way_id": 280720870,
        "highway": "path"
      },
      "geometry": {
        "type": "LineString",
        "coordinates": [
          [
            36.833544,
            -1.247045
          ],
          [
            36.833711,
            -1.2468702
          ],
          [
            36.833965,
            -1.24664
          ],
          [
            36.834196,
            -1.246481
          ],
          [
            36.834324,
            -1.24643
          ],
          [
            36.834534,
            -1.246478
          ],
          [
            36.835262,
            -1.246781
          ],
          [
            36.836742,
            -1.247585
          ],
          [
            36.836883,
            -1.247618
          ],
          [
            36.836991,
            -1.247625
          ],
          [
            36.837271,
            -1.247552
          ],
          [
            36.837337,
            -1.247522
          ],
          [
            36.837453,
            -1.247439
          ],
          [
            36.837479,
            -1.247416
          ],
          [
            36.837529,
            -1.24732
          ],
          [
            36.837529,
            -1.247224
          ],
          [
            36.837451,
            -1.247062
          ],
          [
            36.83735,
            -1.246962
          ],
          [
            36.837299,
            -1.246866
          ],
          [
            36.83717,
            -1.24674
          ],
          [
            36.83711,
            -1.24665
          ],
          [
            36.837076,
            -1.246638
          ],
          [
            36.837003,
            -1.246561
          ],
          [
            36.836864,
            -1.246396
          ],
          [
            36.836753,
            -1.246307
          ],
          [
            36.836563,
            -1.24621
          ],
          [
            36.836294,
            -1.246031
          ],
          [
            36.836233,
            -1.245943
          ],
          [
            36.836061,
            -1.245812
          ],
          [
            36.836017,
            -1.245755
          ],
          [
            36.835969,
            -1.245659
          ],
          [
            36.835957,
            -1.245589
          ],
          [
            36.835844,
            -1.245286
          ],
          [
            36.835808,
            -1.245147
          ],
          [
            36.835696,
            -1.245011
          ],
          [
            36.835598,
            -1.24478
          ],
          [
            36.835476,
            -1.244558
          ],
          [
            36.835371,
            -1.244138
          ],
          [
            36.835358,
            -1.243887
          ],
          [
            36.8353574,
            -1.2438651
          ],
          [
            36.8352874,
            -1.2437539
          ]
        ]
      }
    },
    {
      "type": "Feature",
      "id": "way/280720871",
      "properties": {
        "way_id": 280720871,
        "highway": "path"
      },
      "geometry": {
        "type": "LineString",
        "coordinates": [
          [
            36.8419633,
            -1.2456582
          ],
          [
            36.841863,
            -1.245547
          ],
          [
            36.84182,
            -1.24537
          ],
          [
            36.841944,
            -1.245107
          ],
          [
            36.842099,
            -1.244906
          ],
          [
            36.842141,
            -1.244805
          ],
          [
            36.842222,
            -1.244741
          ],
          [
            36.842252,
            -1.244675
          ],
          [
            36.842378,
            -1.244496
          ],
          [
            36.842394,
            -1.244317
          ],
          [
            36.842279,
            -1.24405
          ],
          [
            36.842267,
            -1.243942
          ],
          [
            36.842114,
            -1.243656
          ],
          [
            36.842051,
            -1.243567
          ],
          [
            36.842008,
            -1.243466
          ],
          [
            36.841974,
            -1.243362
          ],
          [
            36.841993,
            -1.2431884
          ],
          [
            36.8418757,
            -1.2425031
          ],
          [
            36.8417263,
            -1.242441
          ]
        ]
      }
    },
    {
      "type": "Feature",
      "id": "way/280720872",
      "properties": {
        "way_id": 280720872,
        "highway": "path"
      },
      "geometry": {
        "type": "LineString",
        "coordinates": [
          [
            36.84147,
            -1.2412382
          ],
          [
            36.841766,
            -1.241211
          ],
          [
            36.842018,
            -1.24126
          ],
          [
            36.842372,
            -1.241514
          ],
          [
            36.842472,
            -1.241665
          ],
          [
            36.842647,
            -1.242065
          ],
          [
            36.842844,
            -1.242455
          ],
          [
            36.842969,
            -1.242636
          ],
          [
            36.843067,
            -1.242745
          ],
          [
            36.8431359,
            -1.2428569
          ],
          [
            36.8433585,
            -1.2429593
          ],
          [
            36.8436618,
            -1.2429776
          ],
          [
            36.8438468,
            -1.2429072
          ],
          [
            36.843899,
            -1.242724
          ]
        ]
      }
    },
    {
      "type": "Feature",
      "id": "way/280720874",
      "properties": {
        "way_id": 280720874,
        "bicycle": "yes",
        "highway": "path",
        "name": "Muhuga Trail",
        "surface": "dirt"
      },
      "geometry": {
        "type": "LineString",
        "coordinates": [
          [
            36.8434199,
            -1.2376245
          ],
          [
            36.8432069,
            -1.2376485
          ],
          [
            36.8430629,
            -1.2376405
          ],
          [
            36.8426659,
            -1.2376555
          ],
          [
            36.8422219,
            -1.2377965
          ],
          [
            36.842066,
            -1.237836
          ],
          [
            36.8418393,
            -1.2379139
          ],
          [
            36.8416026,
            -1.2379466
          ],
          [
            36.8412764,
            -1.2378659
          ],
          [
            36.8410279,
            -1.2377005
          ],
          [
            36.8408779,
            -1.2376015
          ],
          [
            36.8405699,
            -1.2375035
          ],
          [
            36.8404999,
            -1.2374955
          ],
          [
            36.8404422,
            -1.23741
          ],
          [
            36.8404001,
            -1.2373922
          ],
          [
            36.8402702,
            -1.2372916
          ],
          [
            36.8401613,
            -1.2372256
          ],
          [
            36.8399879,
            -1.2370635
          ],
          [
            36.8398439,
            -1.2369065
          ],
          [
            36.8397109,
            -1.2368535
          ],
          [
            36.8396229,
            -1.2367925
          ],
          [
            36.8395529,
            -1.2367735
          ],
          [
            36.8394279,
            -1.2367025
          ],
          [
            36.8392919,
            -1.2366535
          ],
          [
            36.8391819,
            -1.2365635
          ],
          [
            36.8390759,
            -1.2365425
          ],
          [
            36.8389449,
            -1.2364835
          ],
          [
            36.8386369,
            -1.2362955
          ],
          [
            36.8385389,
            -1.2361915
          ],
          [
            36.8383639,
            -1.2360635
          ],
          [
            36.8383039,
            -1.2359855
          ],
          [
            36.8382679,
            -1.2359865
          ],
          [
            36.8381739,
            -1.2359325
          ],
          [
            36.8381009,
            -1.2358535
          ],
          [
            36.8378389,
            -1.2356635
          ],
          [
            36.8376661,
            -1.2355053
          ],
          [
            36.8374949,
            -1.2353485
          ],
          [
            36.8374299,
            -1.2353185
          ],
          [
            36.8372919,
            -1.2352025
          ],
          [
            36.8371549,
            -1.2351565
          ],
          [
            36.8370029,
            -1.2350635
          ],
          [
            36.8366979,
            -1.2349545
          ],
          [
            36.8360599,
            -1.2348355
          ],
          [
            36.8358189,
            -1.2347715
          ],
          [
            36.8355709,
            -1.2347515
          ],
          [
            36.8347919,
            -1.2346055
          ],
          [
            36.8346259,
            -1.2345355
          ],
          [
            36.8343709,
            -1.2344005
          ],
          [
            36.8343379,
            -1.2343395
          ],
          [
            36.8342079,
            -1.2342815
          ],
          [
            36.8340039,
            -1.2341335
          ],
          [
            36.8337789,
            -1.2340205
          ],
          [
            36.8335979,
            -1.2339005
          ],
          [
            36.8333079,
            -1.2336325
          ],
          [
            36.8330499,
            -1.2333315
          ],
          [
            36.8329669,
            -1.2332145
          ],
          [
            36.8326519,
            -1.2328715
          ],
          [
            36.8324269,
            -1.2326925
          ],
          [
            36.8321879,
            -1.2325325
          ],
          [
            36.8320749,
            -1.2324515
          ],
          [
            36.8318989,
            -1.2322735
          ],
          [
            36.8317599,
            -1.2321575
          ],
          [
            36.8313549,
            -1.2316105
          ],
          [
            36.8312529,
            -1.2314195
          ],
          [
            36.8310789,
            -1.2309875
          ],
          [
            36.8308699,
            -1.2306955
          ],
          [
            36.8306829,
            -1.2305255
          ],
          [
            36.8305019,
            -1.2304095
          ],
          [
            36.8304269,
            -1.2303315
          ],
          [
            36.8301289,
            -1.2301285
          ],
          [
            36.8299979,
            -1.2300105
          ],
          [
            36.8298079,
            -1.2299075
          ],
          [
            36.8296739,
            -1.2298535
          ],
          [
            36.8293929,
            -1.2297885
          ],
          [
            36.8292489,
            -1.2297725
          ],
          [
            36.8289239,
            -1.2297715
          ],
          [
            36.8285638,
            -1.2298029
          ],
          [
            36.8277759,
            -1.2298715
          ],
          [
            36.8274879,
            -1.2298515
          ],
          [
            36.8273334,
            -1.2298323
          ],
          [
            36.8271996,
            -1.2298171
          ]
        ]
      }
    },
    {
      "type": "Feature",
      "id": "way/313840891",
      "properties": {
        "way_id": 313840891,
        "highway": "track",
        "name": "Wangari Maathai Track"
      },
      "geometry": {
        "type": "LineString",
        "coordinates": [
          [
            36.826647,
            -1.232239
          ],
          [
            36.8274955,
            -1.2326549
          ],
          [
            36.8283342,
            -1.2330413
          ],
          [
            36.8287243,
            -1.2332187
          ],
          [
            36.8302063,
            -1.2338863
          ],
          [
            36.8305243,
            -1.2340948
          ],
          [
            36.8307276,
            -1.2341901
          ],
          [
            36.8309167,
            -1.2342853
          ],
          [
            36.8321572,
            -1.2347277
          ],
          [
            36.8331409,
            -1.2351621
          ],
          [
            36.8334033,
            -1.2352663
          ],
          [
            36.833756,
            -1.235448
          ],
          [
            36.8368248,
            -1.236807
          ],
          [
            36.8392492,
            -1.2378987
          ]
        ]
      }
    },
    {
      "type": "Feature",
      "id": "way/553598633",
      "properties": {
        "way_id": 553598633,
        "highway": "service",
        "name": "Palm Villa"
      },
      "geometry": {
        "type": "LineString",
        "coordinates": [
          [
            36.8465394,
            -1.2383494
          ],
          [
            36.8465211,
            -1.2388441
          ],
          [
            36.8464563,
            -1.2396335
          ],
          [
            36.8464266,
            -1.2396981
          ],
          [
            36.8463676,
            -1.2397249
          ],
          [
            36.8462858,
            -1.2397302
          ],
          [
            36.8460926,
            -1.2397302
          ]
        ]
      }
    },
    {
      "type": "Feature",
      "id": "way/643633767",
      "properties": {
        "way_id": 643633767,
        "highway": "trunk",
        "name": "Kiambu Road",
        "oneway": "no",
        "ref": "B32",
        "source": "survey",
        "surface": "paved"
      },
      "geometry": {
        "type": "LineString",
        "coordinates": [
          [
            36.839154,
            -1.2259284
          ],
          [
            36.8393872,
            -1.2264493
          ],
          [
            36.8396004,
            -1.2268915
          ],
          [
            36.8397132,
            -1.2271136
          ],
          [
            36.8397892,
            -1.2272631
          ],
          [
            36.8399449,
            -1.2276015
          ],
          [
            36.8400362,
            -1.2277998
          ],
          [
            36.8400446,
            -1.2278168
          ],
          [
            36.8400814,
            -1.2278916
          ],
          [
            36.8401415,
            -1.2280157
          ],
          [
            36.8401705,
            -1.2280718
          ],
          [
            36.8402853,
            -1.228294
          ],
          [
            36.8403292,
            -1.2283791
          ],
          [
            36.8404262,
            -1.2285623
          ],
          [
            36.8404999,
            -1.2287014
          ],
          [
            36.8405636,
            -1.2288217
          ],
          [
            36.8406095,
            -1.2289182
          ],
          [
            36.8407054,
            -1.2291299
          ],
          [
            36.840796,
            -1.2292995
          ],
          [
            36.8408442,
            -1.2293941
          ],
          [
            36.8408925,
            -1.2294819
          ],
          [
            36.8410077,
            -1.2296613
          ],
          [
            36.8410367,
            -1.2297065
          ],
          [
            36.8410909,
            -1.2297861
          ],
          [
            36.8411453,
            -1.229866
          ],
          [
            36.8413146,
            -1.2301036
          ],
          [
            36.8413813,
            -1.2301932
          ],
          [
            36.8414004,
            -1.2302203
          ],
          [
            36.8414611,
            -1.2302921
          ],
          [
            36.8415384,
            -1.2303904
          ],
          [
            36.8415785,
            -1.2304385
          ],
          [
            36.8418749,
            -1.2307623
          ],
          [
            36.8420086,
            -1.2308935
          ],
          [
            36.8423334,
            -1.2312051
          ],
          [
            36.8423868,
            -1.2312597
          ],
          [
            36.8424142,
            -1.2312836
          ],
          [
            36.8426071,
            -1.2314562
          ],
          [
            36.8426916,
            -1.2315514
          ],
          [
            36.8428203,
            -1.2316922
          ],
          [
            36.8429008,
            -1.2317887
          ],
          [
            36.8429799,
            -1.2318879
          ],
          [
            36.8431288,
            -1.2321454
          ],
          [
            36.8432079,
            -1.2322942
          ],
          [
            36.8432683,
            -1.2324363
          ],
          [
            36.8432978,
            -1.2325248
          ],
          [
            36.8433407,
            -1.2326643
          ],
          [
            36.8433903,
            -1.2328694
          ],
          [
            36.8434131,
            -1.2330075
          ],
          [
            36.8434466,
            -1.2332663
          ],
          [
            36.8435539,
            -1.2342464
          ],
          [
            36.8437041,
            -1.235559
          ],
          [
            36.8437256,
            -1.2358808
          ],
          [
            36.8437596,
            -1.236215
          ],
          [
            36.8437766,
            -1.2363595
          ],
          [
            36.8437933,
            -1.2364991
          ],
          [
            36.8437977,
            -1.2365363
          ],
          [
            36.8438262,
            -1.2367751
          ],
          [
            36.8438546,
            -1.2370465
          ],
          [
            36.8439737,
            -1.2381856
          ],
          [
            36.8441038,
            -1.2392958
          ],
          [
            36.8441463,
            -1.2399503
          ],
          [
            36.8442232,
            -1.2406465
          ],
          [
            36.8443841,
            -1.2422616
          ],
          [
            36.8445316,
            -1.2434469
          ],
          [
            36.8445718,
            -1.2437151
          ],
          [
            36.8446617,
            -1.2440355
          ],
          [
            36.8447824,
            -1.2443667
          ],
          [
            36.8450492,
            -1.2449189
          ],
          [
            36.8455953,
            -1.2460742
          ],
          [
            36.8458164,
            -1.24652
          ],
          [
            36.846047,
            -1.246886
          ],
          [
            36.8462911,
            -1.2471998
          ],
          [
            36.8467395,
            -1.2476617
          ],
          [
            36.8468852,
            -1.2478179
          ],
          [
            36.8470227,
            -1.2480333
          ],
          [
            36.8471312,
            -1.2483149
          ],
          [
            36.8471897,
            -1.2485875
          ],
          [
            36.8471917,
            -1.2488088
          ],
          [
            36.8471736,
            -1.2490246
          ],
          [
            36.8471376,
            -1.2491708
          ],
          [
            36.8469943,
            -1.2494985
          ],
          [
            36.846799,
            -1.2498789
          ],
          [
            36.8465886,
            -1.2502659
          ],
          [
            36.8462793,
            -1.2508873
          ],
          [
            36.8462241,
            -1.2509805
          ],
          [
            36.8461232,
            -1.251167
          ],
          [
            36.8448743,
            -1.2533701
          ],
          [
            36.843783,
            -1.2553531
          ],
          [
            36.8434126,
            -1.2560564
          ],
          [
            36.8432797,
            -1.2563944
          ],
          [
            36.8431608,
            -1.2567372
          ],
          [
            36.8429905,
            -1.2572553
          ]
        ]
      }
    },
    {
      "type": "Feature",
      "id": "way/692748275",
      "properties": {
        "way_id": 692748275,
        "highway": "track",
        "name": "Wangari Maathai Trail"
      },
      "geometry": {
        "type": "LineString",
        "coordinates": [
          [
            36.8393955,
            -1.2379639
          ],
          [
            36.8397236,
            -1.2381014
          ],
          [
            36.8439087,
            -1.2398552
          ]
        ]
      }
    },
    {
      "type": "Feature",
      "id": "way/692748276",
      "properties": {
        "way_id": 692748276,
        "bridge": "yes",
        "highway": "track",
        "layer": "1",
        "name": "Wangari Maathai Trail"
      },
      "geometry": {
        "type": "LineString",
        "coordinates": [
          [
            36.8392492,
            -1.2378987
          ],
          [
            36.8393955,
            -1.2379639
          ]
        ]
      }
    },
    {
      "type": "Feature",
      "id": "way/692748283",
      "properties": {
        "way_id": 692748283,
        "highway": "footway"
      },
      "geometry": {
        "type": "LineString",
        "coordinates": [
          [
            36.8376661,
            -1.2355053
          ],
          [
            36.8368248,
            -1.236807
          ]
        ]
      }
    },
    {
      "type": "Feature",
      "id": "way/692748284",
      "properties": {
        "way_id": 692748284,
        "highway": "footway",
        "surface": "dirt"
      },
      "geometry": {
        "type": "LineString",
        "coordinates": [
          [
            36.8404999,
            -1.2374955
          ],
          [
            36.8397236,
            -1.2381014
          ]
        ]
      }
    },
    {
      "type": "Feature",
      "id": "way/692748285",
      "properties": {
        "way_id": 692748285,
        "highway": "path",
        "surface": "dirt"
      },
      "geometry": {
        "type": "LineString",
        "coordinates": [
          [
            36.8399153,
            -1.2448482
          ],
          [
            36.8401141,
            -1.2448933
          ],
          [
            36.8410136,
            -1.2445582
          ],
          [
            36.8412568,
            -1.2443887
          ],
          [
            36.8413532,
            -1.2442996
          ],
          [
            36.8414,
            -1.244192
          ],
          [
            36.841471,
            -1.244028
          ],
          [
            36.8417263,
            -1.242441
          ]
        ]
      }
    },
    {
      "type": "Feature",
      "id": "way/692748286",
      "properties": {
        "way_id": 692748286,
        "highway": "footway"
      },
      "geometry": {
        "type": "LineString",
        "coordinates": [
          [
            36.838434,
            -1.24207
          ],
          [
            36.8381039,
            -1.2420896
          ],
          [
            36.8377691,
            -1.2422685
          ]
        ]
      }
    },
    {
      "type": "Feature",
      "id": "way/786427342",
      "properties": {
        "way_id": 786427342,
        "highway": "service"
      },
      "geometry": {
        "type": "LineString",
        "coordinates": [
          [
            36.8479506,
            -1.2367477
          ],
          [
            36.8479232,
            -1.2370647
          ],
          [
            36.8479145,
            -1.237113
          ],
          [
            36.8479058,
            -1.2371298
          ],
          [
            36.8478917,
            -1.2371385
          ],
          [
            36.8477757,
            -1.2371304
          ]
        ]
      }
    },
    {
      "type": "Feature",
      "id": "way/831803355",
      "properties": {
        "way_id": 831803355,
        "highway": "residential",
        "source": "digitalglobe"
      },
      "geometry": {
        "type": "LineString",
        "coordinates": [
          [
            36.8451436,
            -1.2373808
          ],
          [
            36.8456019,
            -1.2373245
          ]
        ]
      }
    },
    {
      "type": "Feature",
      "id": "way/831803356",
      "properties": {
        "way_id": 831803356,
        "highway": "residential",
        "source": "digitalglobe"
      },
      "geometry": {
        "type": "LineString",
        "coordinates": [
          [
            36.8452477,
            -1.2396015
          ],
          [
            36.8452155,
            -1.2387729
          ],
          [
            36.8452249,
            -1.2385827
          ],
          [
            36.8452413,
            -1.2383863
          ],
          [
            36.8452506,
            -1.2382753
          ]
        ]
      }
    },
    {
      "type": "Feature",
      "id": "way/919077288",
      "properties": {
        "way_id": 919077288,
        "highway": "service"
      },
      "geometry": {
        "type": "LineString",
        "coordinates": [
          [
            36.8449017,
            -1.2406736
          ],
          [
            36.8449406,
            -1.2405951
          ]
        ]
      }
    },
    {
      "type": "Feature",
      "id": "way/919077289",
      "properties": {
        "way_id": 919077289,
        "highway": "service"
      },
      "geometry": {
        "type": "LineString",
        "coordinates": [
          [
            36.8453629,
            -1.240681
          ],
          [
            36.8453684,
            -1.2406661
          ]
        ]
      }
    },
    {
      "type": "Feature",
      "id": "way/919077290",
      "properties": {
        "way_id": 919077290,
        "highway": "service"
      },
      "geometry": {
        "type": "LineString",
        "coordinates": [
          [
            36.8453629,
            -1.240681
          ],
          [
            36.8449017,
            -1.2406736
          ],
          [
            36.8442232,
            -1.2406465
          ]
        ]
      }
    },
    {
      "type": "Feature",
      "id": "way/919077291",
      "properties": {
        "way_id": 919077291,
        "highway": "service"
      },
      "geometry": {
        "type": "LineString",
        "coordinates": [
          [
            36.8443156,
            -1.2400628
          ],
          [
            36.8443264,
            -1.2402733
          ],
          [
            36.8443572,
            -1.2405347
          ],
          [
            36.8443679,
            -1.2405575
          ],
          [
            36.8443934,
            -1.2405682
          ],
          [
            36.844836,
            -1.2405843
          ],
          [
            36.8449406,
            -1.2405951
          ],
          [
            36.845249,
            -1.2406393
          ],
          [
            36.8453134,
            -1.2406514
          ],
          [
            36.8453684,
            -1.2406661
          ],
          [
            36.8460524,
            -1.2407211
          ],
          [
            36.846098,
            -1.2407479
          ]
        ]
      }
    },
    {
      "type": "Feature",
      "id": "way/919077292",
      "properties": {
        "way_id": 919077292,
        "highway": "service"
      },
      "geometry": {
        "type": "LineString",
        "coordinates": [
          [
            36.8451592,
            -1.2385852
          ],
          [
            36.8449755,
            -1.2385865
          ],
          [
            36.8449782,
            -1.2386495
          ],
          [
            36.8449902,
            -1.2389928
          ],
          [
            36.8449808,
            -1.239021
          ],
          [
            36.8449513,
            -1.2390438
          ],
          [
            36.8449044,
            -1.2390478
          ],
          [
            36.8446268,
            -1.2390478
          ]
        ]
      }
    },
    {
      "type": "Feature",
      "id": "way/919077293",
      "properties": {
        "way_id": 919077293,
        "highway": "service"
      },
      "geometry": {
        "type": "LineString",
        "coordinates": [
          [
            36.8465211,
            -1.2388441
          ],
          [
            36.8458955,
            -1.2388078
          ],
          [
            36.845874,
            -1.2387997
          ],
          [
            36.8458392,
            -1.2387769
          ],
          [
            36.8457896,
            -1.2387287
          ]
        ]
      }
    },
    {
      "type": "Feature",
      "id": "way/919078398",
      "properties": {
        "way_id": 919078398,
        "highway": "service"
      },
      "geometry": {
        "type": "LineString",
        "coordinates": [
          [
            36.8460524,
            -1.2407211
          ],
          [
            36.8460417,
            -1.2404918
          ],
          [
            36.8460269,
            -1.2404395
          ],
          [
            36.8459626,
            -1.2403389
          ],
          [
            36.8459532,
            -1.2403121
          ],
          [
            36.8459814,
            -1.2402733
          ],
          [
            36.8459881,
            -1.240217
          ],
          [
            36.8460229,
            -1.2401177
          ]
        ]
      }
    },
    {
      "type": "Feature",
      "id": "way/920696760",
      "properties": {
        "way_id": 920696760,
        "highway": "service"
      },
      "geometry": {
        "type": "LineString",
        "coordinates": [
          [
            36.8449693,
            -1.2369593
          ],
          [
            36.8448319,
            -1.2369729
          ],
          [
            36.8444784,
            -1.237008
          ],
          [
            36.8441903,
            -1.2370366
          ],
          [
            36.844141,
            -1.2370624
          ],
          [
            36.8441098,
            -1.2370969
          ],
          [
            36.8440924,
            -1.2371593
          ],
          [
            36.8440997,
            -1.2372196
          ],
          [
            36.8441936,
            -1.2377593
          ],
          [
            36.8442178,
            -1.2378424
          ],
          [
            36.8443749,
            -1.2382138
          ]
        ]
      }
    },
    {
      "type": "Feature",
      "id": "way/920696761",
      "properties": {
        "way_id": 920696761,
        "highway": "service"
      },
      "geometry": {
        "type": "LineString",
        "coordinates": [
          [
            36.8449693,
            -1.2369593
          ],
          [
            36.8450697,
            -1.2379105
          ],
          [
            36.8450821,
            -1.2380144
          ]
        ]
      }
    },
    {
      "type": "Feature",
      "id": "way/920696762",
      "properties": {
        "way_id": 920696762,
        "highway": "service"
      },
      "geometry": {
        "type": "LineString",
        "coordinates": [
          [
            36.8437977,
            -1.2365363
          ],
          [
            36.8438841,
            -1.2365625
          ],
          [
            36.8439107,
            -1.236577
          ],
          [
            36.8439274,
            -1.2366022
          ],
          [
            36.8439576,
            -1.2367483
          ],
          [
            36.8439831,
            -1.2368931
          ],
          [
            36.8440019,
            -1.2369454
          ],
          [
            36.8440598,
            -1.2369933
          ]
        ]
      }
    },
    {
      "type": "Feature",
      "id": "way/920696768",
      "properties": {
        "way_id": 920696768,
        "highway": "service"
      },
      "geometry": {
        "type": "LineString",
        "coordinates": [
          [
            36.84426,
            -1.2363737
          ],
          [
            36.8443442,
            -1.2363578
          ],
          [
            36.8444102,
            -1.2363434
          ],
          [
            36.8444689,
            -1.2363337
          ],
          [
            36.8445541,
            -1.2363226
          ],
          [
            36.8445903,
            -1.2363226
          ],
          [
            36.8446191,
            -1.2363239
          ]
        ]
      }
    },
    {
      "type": "Feature",
      "id": "way/920696769",
      "properties": {
        "way_id": 920696769,
        "highway": "service"
      },
      "geometry": {
        "type": "LineString",
        "coordinates": [
          [
            36.8448414,
            -1.2362391
          ],
          [
            36.8448501,
            -1.2364286
          ]
        ]
      }
    },
    {
      "type": "Feature",
      "id": "way/920696770",
      "properties": {
        "way_id": 920696770,
        "highway": "service"
      },
      "geometry": {
        "type": "LineString",
        "coordinates": [
          [
            36.8437933,
            -1.2364991
          ],
          [
            36.8439308,
            -1.2364778
          ],
          [
            36.8439827,
            -1.2364614
          ],
          [
            36.8440243,
            -1.236447
          ],
          [
            36.8440958,
            -1.2364247
          ],
          [
            36.8441282,
            -1.2364135
          ],
          [
            36.84426,
            -1.2363737
          ]
        ]
      }
    },
    {
      "type": "Feature",
      "id": "way/1013539597",
      "properties": {
        "way_id": 1013539597,
        "bicycle": "yes",
        "highway": "footway",
        "name": "Fika Bikeshare",
        "surface": "dirt"
      },
      "geometry": {
        "type": "LineString",
        "coordinates": [
          [
            36.8439087,
            -1.2398552
          ],
          [
            36.843907,
            -1.239722
          ],
          [
            36.843909,
            -1.239578
          ],
          [
            36.843871,
            -1.239402
          ],
          [
            36.843845,
            -1.239043
          ],
          [
            36.843817,
            -1.238865
          ],
          [
            36.843825,
            -1.238794
          ],
          [
            36.843808,
            -1.238724
          ],
          [
            36.843802,
            -1.238435
          ],
          [
            36.843765,
            -1.238297
          ],
          [
            36.843707,
            -1.237909
          ],
          [
            36.8435946,
            -1.2377321
          ],
          [
            36.843502,
            -1.237624
          ],
          [
            36.8434199,
            -1.2376245
          ],
          [
            36.8433108,
            -1.2374484
          ],
          [
            36.8431164,
            -1.2373836
          ],
          [
            36.8430076,
            -1.2373141
          ],
          [
            36.8429395,
            -1.2372725
          ],
          [
            36.842866,
            -1.237199
          ],
          [
            36.842809,
            -1.237156
          ],
          [
            36.842692,
            -1.237019
          ],
          [
            36.842644,
            -1.236884
          ],
          [
            36.842645,
            -1.236631
          ],
          [
            36.842663,
            -1.236562
          ],
          [
            36.84269,
            -1.236277
          ],
          [
            36.842759,
            -1.23589
          ],
          [
            36.842896,
            -1.235598
          ],
          [
            36.842905,
            -1.235527
          ],
          [
            36.842881,
            -1.235459
          ],
          [
            36.842677,
            -1.2352874
          ]
        ]
      }
    },
    {
      "type": "Feature",
      "id": "way/1023251464",
      "properties": {
        "way_id": 1023251464,
        "highway": "service"
      },
      "geometry": {
        "type": "LineString",
        "coordinates": [
          [
            36.8437596,
            -1.236215
          ],
          [
            36.8439469,
            -1.2361926
          ],
          [
            36.8444746,
            -1.2361041
          ],
          [
            36.8445168,
            -1.2360926
          ],
          [
            36.8445993,
            -1.2360785
          ],
          [
            36.8449024,
            -1.236033
          ]
        ]
      }
    },
    {
      "type": "Feature",
      "id": "way/1046755371",
      "properties": {
        "way_id": 1046755371,
        "highway": "service"
      },
      "geometry": {
        "type": "LineString",
        "coordinates": [
          [
            36.8449755,
            -1.2385865
          ],
          [
            36.8446536,
            -1.2385892
          ]
        ]
      }
    },
    {
      "type": "Feature",
      "id": "way/1046756324",
      "properties": {
        "way_id": 1046756324,
        "highway": "service"
      },
      "geometry": {
        "type": "LineString",
        "coordinates": [
          [
            36.8448243,
            -1.2369194
          ],
          [
            36.8448319,
            -1.2369729
          ]
        ]
      }
    },
    {
      "type": "Feature",
      "id": "way/1046756325",
      "properties": {
        "way_id": 1046756325,
        "highway": "service"
      },
      "geometry": {
        "type": "LineString",
        "coordinates": [
          [
            36.8440598,
            -1.2369933
          ],
          [
            36.8441236,
            -1.2369987
          ],
          [
            36.8441843,
            -1.2369953
          ],
          [
            36.8442129,
            -1.2369919
          ],
          [
            36.8448243,
            -1.2369194
          ],
          [
            36.8449219,
            -1.2369078
          ],
          [
            36.8449433,
            -1.2369092
          ],
          [
            36.8449651,
            -1.2369283
          ],
          [
            36.8449693,
            -1.2369593
          ]
        ]
      }
    },
    {
      "type": "Feature",
      "id": "way/1426373448",
      "properties": {
        "way_id": 1426373448,
        "highway": "service"
      },
      "geometry": {
        "type": "LineString",
        "coordinates": [
          [
            36.8455015,
            -1.2362267
          ],
          [
            36.8450756,
            -1.2362482
          ]
        ]
      }
    },
    {
      "type": "Feature",
      "id": "way/1426373449",
      "properties": {
        "way_id": 1426373449,
        "highway": "service"
      },
      "geometry": {
        "type": "LineString",
        "coordinates": [
          [
            36.8450823,
            -1.2361887
          ],
          [
            36.8455401,
            -1.2361356
          ]
        ]
      }
    },
    {
      "type": "Feature",
      "id": "way/1426373450",
      "properties": {
        "way_id": 1426373450,
        "highway": "service"
      },
      "geometry": {
        "type": "LineString",
        "coordinates": [
          [
            36.8450697,
            -1.2379105
          ],
          [
            36.8450057,
            -1.2379336
          ],
          [
            36.8449266,
            -1.2379517
          ],
          [
            36.8446845,
            -1.2379738
          ],
          [
            36.8444367,
            -1.2379899
          ],
          [
            36.8444129,
            -1.2379681
          ],
          [
            36.8443831,
            -1.2379356
          ],
          [
            36.8443646,
            -1.2378749
          ],
          [
            36.8443606,
            -1.2376238
          ]
        ]
      }
    },
    {
      "type": "Feature",
      "id": "way/1426373451",
      "properties": {
        "way_id": 1426373451,
        "highway": "service"
      },
      "geometry": {
        "type": "LineString",
        "coordinates": [
          [
            36.844431,
            -1.2370989
          ],
          [
            36.8444488,
            -1.2371127
          ],
          [
            36.844498,
            -1.237534
          ],
          [
            36.8445014,
            -1.2375689
          ],
          [
            36.8444994,
            -1.2375863
          ],
          [
            36.8444887,
            -1.2376034
          ],
          [
            36.8444632,
            -1.2376135
          ],
          [
            36.8443606,
            -1.2376238
          ]
        ]
      }
    },
    {
      "type": "Feature",
      "id": "way/1426378326",
      "properties": {
        "way_id": 1426378326,
        "highway": "service"
      },
      "geometry": {
        "type": "LineString",
        "coordinates": [
          [
            36.8451565,
            -1.2383814
          ],
          [
            36.8452413,
            -1.2383863
          ]
        ]
      }
    },
    {
      "type": "Feature",
      "id": "way/1426378327",
      "properties": {
        "way_id": 1426378327,
        "highway": "service"
      },
      "geometry": {
        "type": "LineString",
        "coordinates": [
          [
            36.8451552,
            -1.2392248
          ],
          [
            36.8451592,
            -1.2385852
          ],
          [
            36.8451565,
            -1.2383814
          ],
          [
            36.845144,
            -1.2382678
          ]
        ]
      }
    },
    {
      "type": "Feature",
      "id": "way/1426378328",
      "properties": {
        "way_id": 1426378328,
        "highway": "service"
      },
      "geometry": {
        "type": "LineString",
        "coordinates": [
          [
            36.8446949,
            -1.2362083
          ],
          [
            36.844771,
            -1.2362251
          ],
          [
            36.8448092,
            -1.2362341
          ],
          [
            36.8448414,
            -1.2362391
          ],
          [
            36.844886,
            -1.2362392
          ],
          [
            36.8450756,
            -1.2362482
          ]
        ]
      }
    },
    {
      "type": "Feature",
      "id": "way/1432226519",
      "properties": {
        "way_id": 1432226519,
        "highway": "service"
      },
      "geometry": {
        "type": "LineString",
        "coordinates": [
          [
            36.8444367,
            -1.2379899
          ],
          [
            36.8445812,
            -1.2381213
          ],
          [
            36.8446295,
            -1.238132
          ],
          [
            36.8446979,
            -1.2381307
          ],
          [
            36.8449795,
            -1.2381106
          ],
          [
            36.8450426,
            -1.2380945
          ],
          [
            36.8450721,
            -1.2380529
          ],
          [
            36.8450821,
            -1.2380144
          ]
        ]
      }
    },
    {
      "type": "Feature",
      "id": "way/1432226520",
      "properties": {
        "way_id": 1432226520,
        "highway": "service"
      },
      "geometry": {
        "type": "LineString",
        "coordinates": [
          [
            36.8443606,
            -1.2376238
          ],
          [
            36.8443224,
            -1.2371375
          ],
          [
            36.8443318,
            -1.237115
          ],
          [
            36.8443542,
            -1.2371019
          ],
          [
            36.8444069,
            -1.2370959
          ],
          [
            36.844431,
            -1.2370989
          ]
        ]
      }
    },
    {
      "type": "Feature",
      "id": "way/1432226521",
      "properties": {
        "way_id": 1432226521,
        "highway": "service"
      },
      "geometry": {
        "type": "LineString",
        "coordinates": [
          [
            36.8444784,
            -1.237008
          ],
          [
            36.8445477,
            -1.2370895
          ],
          [
            36.8445658,
            -1.2371244
          ],
          [
            36.8445732,
            -1.2371673
          ],
          [
            36.8445873,
            -1.2374643
          ],
          [
            36.8445839,
            -1.2374898
          ],
          [
            36.8445691,
            -1.2375059
          ],
          [
            36.844498,
            -1.237534
          ]
        ]
      }
    }
  ]
}
