{
  "type": "FeatureCollection",
  "features": [
    {
      "type": "Feature",
      "id": "way/25704812",
      "properties": {
        "way_id": 25704812,
        "way_version": 9,
        "node_ids": [
          13112200529,
          13112200530,
          13112200531,
          280251003,
          8548505473,
          13112125588,
          8548505480,
          13112125591,
          8548505503,
          280251007,
          6159112295,
          280251574,
          7765770103,
          280251011,
          280251569
        ],
        "highway": "residential"
      },
      "geometry": {
        "type": "LineString",
        "coordinates": [
          [
            36.8457144,
            -1.2344529
          ],
          [
            36.8453363,
            -1.2345333
          ],
          [
            36.8452705,
            -1.2345762
          ],
          [
            36.8452188,
            -1.2346547
          ],
          [
            36.8451566,
            -1.2354052
          ],
          [
            36.8451337,
            -1.2357116
          ],
          [
            36.8451329,
            -1.2357386
          ],
          [
            36.8450823,
            -1.2361887
          ],
          [
            36.8450756,
            -1.2362482
          ],
          [
            36.8450502,
            -1.2365256
          ],
          [
            36.8450526,
            -1.2367047
          ],
          [
            36.8451051,
            -1.2371424
          ],
          [
            36.8451436,
            -1.2373808
          ],
          [
            36.8452341,
            -1.2381091
          ],
          [
            36.8452506,
            -1.2382753
          ]
        ]
      }
    },
    {
      "type": "Feature",
      "id": "way/25704820",
      "properties": {
        "way_id": 25704820,
        "way_version": 7,
        "node_ids": [
          280251744,
          6159252663,
          6159252664,
          280252338,
          280252786,
          12794419192,
          280251875
        ],
        "highway": "residential",
        "name": "Countryside Villa"
      },
      "geometry": {
        "type": "LineString",
        "coordinates": [
          [
            36.8466299,
            -1.2346958
          ],
          [
            36.846616,
            -1.234716
          ],
          [
            36.8466059,
            -1.2347378
          ],
          [
            36.8464411,
            -1.2366602
          ],
          [
            36.8463479,
            -1.2376962
          ],
          [
            36.8462957,
            -1.2382667
          ],
          [
            36.84629,
            -1.2383285
          ]
        ]
      }
    },
    {
      "type": "Feature",
      "id": "way/25704821",
      "properties": {
        "way_id": 25704821,
        "way_version": 6,
        "node_ids": [
          280251866,
          6159252656,
          6159252659,
          280252332,
          7353257063,
          280252605,
          280252338
        ],
        "highway": "residential"
      },
      "geometry": {
        "type": "LineString",
        "coordinates": [
          [
            36.8492134,
            -1.2367999
          ],
          [
            36.8491975,
            -1.2368108
          ],
          [
            36.8491794,
            -1.2368162
          ],
          [
            36.848354,
            -1.2367682
          ],
          [
            36.8479506,
            -1.2367477
          ],
          [
            36.8474903,
            -1.2367242
          ],
          [
            36.8464411,
            -1.2366602
          ]
        ]
      }
    },
    {
      "type": "Feature",
      "id": "way/25704823",
      "properties": {
        "way_id": 25704823,
        "way_version": 7,
        "node_ids": [
          280251866,
          6159252657,
          6159252658,
          8536050125,
          6159252666,
          6159252661,
          280252078,
          6159252660,
          6159252667,
          280252331,
          280252606,
          6159252665,
          6159252662,
          280251744
        ],
        "highway": "residential",
        "name": "Countryside Villa"
      },
      "geometry": {
        "type": "LineString",
        "coordinates": [
          [
            36.8492134,
            -1.2367999
          ],
          [
            36.8492224,
            -1.2367842
          ],
          [
            36.8492295,
            -1.2367657
          ],
          [
            36.8493346,
            -1.2356555
          ],
          [
            36.8494032,
            -1.2349302
          ],
          [
            36.8494018,
            -1.234896
          ],
          [
            36.849394,
            -1.2348673
          ],
          [
            36.8493656,
            -1.2348518
          ],
          [
            36.8493374,
            -1.2348471
          ],
          [
            36.8485131,
            -1.2348112
          ],
          [
            36.847664,
            -1.2347481
          ],
          [
            36.8466864,
            -1.2346842
          ],
          [
            36.8466569,
            -1.2346852
          ],
          [
            36.8466299,
            -1.2346958
          ]
        ]
      }
    },
    {
      "type": "Feature",
      "id": "way/25704838",
      "properties": {
        "way_id": 25704838,
        "way_version": 3,
        "node_ids": [
          280252784,
          280252786
        ],
        "highway": "residential",
        "name": "Countryside Villa"
      },
      "geometry": {
        "type": "LineString",
        "coordinates": [
          [
            36.8493094,
            -1.237879
          ],
          [
            36.8463479,
            -1.2376962
          ]
        ]
      }
    },
    {
      "type": "Feature",
      "id": "way/40131548",
      "properties": {
        "way_id": 40131548,
        "way_version": 14,
        "node_ids": [
          280251075,
          9625692212,
          13112200527,
          280251569,
          280251875,
          5343426155,
          2517011881,
          281378092,
          6848380568,
          280251073,
          7713330688,
          7713330693,
          280253290
        ],
        "highway": "residential",
        "name": "Coffee Garden Drive"
      },
      "geometry": {
        "type": "LineString",
        "coordinates": [
          [
            36.8439737,
            -1.2381856
          ],
          [
            36.8443749,
            -1.2382138
          ],
          [
            36.845144,
            -1.2382678
          ],
          [
            36.8452506,
            -1.2382753
          ],
          [
            36.84629,
            -1.2383285
          ],
          [
            36.8465394,
            -1.2383494
          ],
          [
            36.8490733,
            -1.2384406
          ],
          [
            36.8501255,
            -1.2385246
          ],
          [
            36.8510545,
            -1.2385606
          ],
          [
            36.8515922,
            -1.2385933
          ],
          [
            36.8518636,
            -1.2386054
          ],
          [
            36.8522429,
            -1.2386249
          ],
          [
            36.8524217,
            -1.2386266
          ]
        ]
      }
    },
    {
      "type": "Feature",
      "id": "way/59946877",
      "properties": {
        "way_id": 59946877,
        "way_version": 4,
        "node_ids": [
          745351625,
          745351629,
          745351631,
          745351633,
          745351635,
          745351637,
          745351639,
          745351642,
          745351644,
          745351646,
          745351648,
          745351649,
          11819444145,
          9810327684,
          6159312406
        ],
        "highway": "path"
      },
      "geometry": {
        "type": "LineString",
        "coordinates": [
          [
            36.8438369,
            -1.2443534
          ],
          [
            36.8438031,
            -1.2436918
          ],
          [
            36.8437837,
            -1.24345
          ],
          [
            36.843899,
            -1.242724
          ],
          [
            36.8440283,
            -1.2426336
          ],
          [
            36.8441451,
            -1.2425369
          ],
          [
            36.8441815,
            -1.2423031
          ],
          [
            36.8440796,
            -1.2413803
          ],
          [
            36.8439972,
            -1.2407438
          ],
          [
            36.8439784,
            -1.2405234
          ],
          [
            36.8439356,
            -1.240238
          ],
          [
            36.8439156,
            -1.2400688
          ],
          [
            36.8439308,
            -1.2399944
          ],
          [
            36.8439562,
            -1.2399221
          ],
          [
            36.8439087,
            -1.2398552
          ]
        ]
      }
    },
    {
      "type": "Feature",
      "id": "way/59946878",
      "properties": {
        "way_id": 59946878,
        "way_version": 5,
        "node_ids": [
          2475596947,
          11459513357,
          6159312406
        ],
        "highway": "track"
      },
      "geometry": {
        "type": "LineString",
        "coordinates": [
          [
            36.8441463,
            -1.2399503
          ],
          [
            36.8439732,
            -1.239881
          ],
          [
            36.8439087,
            -1.2398552
          ]
        ]
      }
    },
    {
      "type": "Feature",
      "id": "way/142776097",
      "properties": {
        "way_id": 142776097,
        "way_version": 8,
        "node_ids": [
          747730050,
          2847934440,
          1554849709,
          2847934441,
          2847934442,
          1554849700,
          1554849692,
          2847934443,
          747730036,
          2847934444,
          747730072,
          2847934445,
          2847934446,
          2847934447,
          2847934448,
          2847934449,
          747730056,
          2847934450,
          747730091,
          2847934451,
          2847934452,
          747730077,
          1554849690,
          2847934453,
          2847934454,
          1554849695,
          2847934455,
          2847934456,
          2847934457,
          747730115,
          2847934458,
          2847934459,
          2847934460,
          747730097,
          2847934461,
          2847934462,
          2847934463,
          747730040,
          2847934464,
          747730121,
          2847934465,
          1554849699,
          2847934466,
          2847934467,
          2847934468,
          747730062,
          2847934469,
          1554849702,
          747730049,
          2068386566,
          2068386571,
          2847934470,
          2068386564,
          2847934471,
          747730084
        ],
        "highway": "footway",
        "surface": "dirt"
      },
      "geometry": {
        "type": "LineString",
        "coordinates": [
          [
            36.8417263,
            -1.242441
          ],
          [
            36.8416004,
            -1.2420979
          ],
          [
            36.8415427,
            -1.2419081
          ],
          [
            36.8415084,
            -1.2416795
          ],
          [
            36.8414382,
            -1.2415514
          ],
          [
            36.84147,
            -1.2412382
          ],
          [
            36.841275,
            -1.240967
          ],
          [
            36.841075,
            -1.240819
          ],
          [
            36.840904,
            -1.240764
          ],
          [
            36.840762,
            -1.240737
          ],
          [
            36.840559,
            -1.240663
          ],
          [
            36.84024,
            -1.240494
          ],
          [
            36.840163,
            -1.24042
          ],
          [
            36.840065,
            -1.240375
          ],
          [
            36.839958,
            -1.240279
          ],
          [
            36.839803,
            -1.240186
          ],
          [
            36.83942,
            -1.239989
          ],
          [
            36.839097,
            -1.23996
          ],
          [
            36.838809,
            -1.239953
          ],
          [
            36.838524,
            -1.239995
          ],
          [
            36.838322,
            -1.240067
          ],
          [
            36.838038,
            -1.240117
          ],
          [
            36.83793,
            -1.240123
          ],
          [
            36.837787,
            -1.240105
          ],
          [
            36.837607,
            -1.239985
          ],
          [
            36.837559,
            -1.239932
          ],
          [
            36.83711,
            -1.239571
          ],
          [
            36.836698,
            -1.239175
          ],
          [
            36.836656,
            -1.239117
          ],
          [
            36.836485,
            -1.238986
          ],
          [
            36.836116,
            -1.238763
          ],
          [
            36.835785,
            -1.238624
          ],
          [
            36.835595,
            -1.238522
          ],
          [
            36.835294,
            -1.238402
          ],
          [
            36.835119,
            -1.238356
          ],
          [
            36.834868,
            -1.238345
          ],
          [
            36.834546,
            -1.238303
          ],
          [
            36.834301,
            -1.238245
          ],
          [
            36.833835,
            -1.238257
          ],
          [
            36.833513,
            -1.238213
          ],
          [
            36.833406,
            -1.238218
          ],
          [
            36.833029,
            -1.238095
          ],
          [
            36.832679,
            -1.237911
          ],
          [
            36.832572,
            -1.237895
          ],
          [
            36.832279,
            -1.237756
          ],
          [
            36.831842,
            -1.237588
          ],
          [
            36.831467,
            -1.237466
          ],
          [
            36.831335,
            -1.237408
          ],
          [
            36.830623,
            -1.237311
          ],
          [
            36.830101,
            -1.237174
          ],
          [
            36.829816,
            -1.237133
          ],
          [
            36.829673,
            -1.237145
          ],
          [
            36.829566,
            -1.237129
          ],
          [
            36.82939,
            -1.237091
          ],
          [
            36.829256,
            -1.237042
          ]
        ]
      }
    },
    {
      "type": "Feature",
      "id": "way/142777587",
      "properties": {
        "way_id": 142777587,
        "way_version": 10,
        "node_ids": [
          747730080,
          13556268407,
          13556268408,
          13556268406,
          10597364829,
          9521586419,
          13075357895,
          10597364827,
          10597364828,
          1562490578,
          747730117,
          1554849683,
          2847824259,
          10597364831,
          1554849717,
          1554849705,
          10597364830,
          1554849691,
          1554849693,
          1554849696,
          2847824268,
          1554849682,
          2847824269,
          1554849701,
          2847824270,
          2847934474,
          1554849703,
          2847824271,
          1554849681,
          1554849708,
          1554849714,
          2847934475,
          2847934476,
          1554849718,
          9810358818,
          1554849712,
          6503768699,
          6503768700
        ],
        "highway": "footway",
        "name": "Middle Track",
        "surface": "dirt"
      },
      "geometry": {
        "type": "LineString",
        "coordinates": [
          [
            36.819383,
            -1.238357
          ],
          [
            36.8202575,
            -1.2383025
          ],
          [
            36.821155,
            -1.2385236
          ],
          [
            36.8217089,
            -1.2385673
          ],
          [
            36.8232911,
            -1.2385826
          ],
          [
            36.8250104,
            -1.2387985
          ],
          [
            36.8267992,
            -1.2389588
          ],
          [
            36.8275042,
            -1.2390219
          ],
          [
            36.8285316,
            -1.2391186
          ],
          [
            36.8296896,
            -1.2393893
          ],
          [
            36.831305,
            -1.2398736
          ],
          [
            36.832441,
            -1.240147
          ],
          [
            36.8327423,
            -1.2402307
          ],
          [
            36.8333101,
            -1.2403091
          ],
          [
            36.8338343,
            -1.240306
          ],
          [
            36.835679,
            -1.240536
          ],
          [
            36.836384,
            -1.2407136
          ],
          [
            36.836988,
            -1.241021
          ],
          [
            36.837299,
            -1.241259
          ],
          [
            36.837763,
            -1.241535
          ],
          [
            36.838106,
            -1.241794
          ],
          [
            36.838434,
            -1.24207
          ],
          [
            36.838492,
            -1.24216
          ],
          [
            36.838645,
            -1.242255
          ],
          [
            36.83875,
            -1.242354
          ],
          [
            36.838865,
            -1.242492
          ],
          [
            36.838967,
            -1.242639
          ],
          [
            36.839069,
            -1.24283
          ],
          [
            36.839231,
            -1.243192
          ],
          [
            36.839299,
            -1.243434
          ],
          [
            36.839382,
            -1.243634
          ],
          [
            36.839676,
            -1.244251
          ],
          [
            36.839771,
            -1.244484
          ],
          [
            36.8399153,
            -1.2448482
          ],
          [
            36.8399304,
            -1.2448868
          ],
          [
            36.8405662,
            -1.2464909
          ],
          [
            36.8405875,
            -1.2468271
          ],
          [
            36.8399934,
            -1.2479522
          ]
        ]
      }
    },
    {
      "type": "Feature",
      "id": "way/226154335",
      "properties": {
        "way_id": 226154335,
        "way_version": 4,
        "node_ids": [
          2350044400,
          6158931064,
          6158931066,
          6158931067,
          6158931069,
          6158931068,
          2350044402,
          6158931070,
          2350044403,
          2350044401
        ],
        "highway": "residential",
        "name": "Jacaranda Brook"
      },
      "geometry": {
        "type": "LineString",
        "coordinates": [
          [
            36.8441397,
            -1.2328813
          ],
          [
            36.8441172,
            -1.2329123
          ],
          [
            36.8441024,
            -1.2329633
          ],
          [
            36.8439952,
            -1.2334459
          ],
          [
            36.8439201,
            -1.2336645
          ],
          [
            36.843853,
            -1.23382
          ],
          [
            36.8438045,
            -1.233923
          ],
          [
            36.8437564,
            -1.2339983
          ],
          [
            36.8437214,
            -1.2340518
          ],
          [
            36.8435539,
            -1.2342464
          ]
        ]
      }
    },
    {
      "type": "Feature",
      "id": "way/258626222",
      "properties": {
        "way_id": 258626222,
        "way_version": 4,
        "node_ids": [
          8536024879,
          8536024880,
          8536024881,
          8536024868,
          8536024882,
          8536024883,
          8536024884,
          8536024866,
          8536024885,
          8536024867,
          2639598616
        ],
        "highway": "service"
      },
      "geometry": {
        "type": "LineString",
        "coordinates": [
          [
            36.846098,
            -1.2407479
          ],
          [
            36.8461208,
            -1.2406969
          ],
          [
            36.8461248,
            -1.2407626
          ],
          [
            36.8461141,
            -1.2407962
          ],
          [
            36.8460819,
            -1.2408163
          ],
          [
            36.8456367,
            -1.2408029
          ],
          [
            36.8455213,
            -1.2407881
          ],
          [
            36.8454301,
            -1.2407693
          ],
          [
            36.8453912,
            -1.2407492
          ],
          [
            36.8453631,
            -1.240713
          ],
          [
            36.8453629,
            -1.240681
          ]
        ]
      }
    },
    {
      "type": "Feature",
      "id": "way/280720873",
      "properties": {
        "way_id": 280720873,
        "way_version": 5,
        "node_ids": [
          9350977947,
          9350977946,
          2847824323,
          2847824292,
          2847824324,
          2847824325,
          2847824326,
          2847824327,
          2847824329,
          2847824331,
          2847824332,
          2847824333,
          2847824293,
          2847824334,
          2847824335,
          2847824294,
          2847824336,
          2847824337,
          2847824338,
          2847824339,
          2847824340,
          2847824341,
          2847824342,
          2847824343,
          2847824344,
          2847824345,
          2847824346,
          2847824347,
          2847824348,
          2847824349,
          2847824350,
          2847824351,
          2847824295
        ],
        "highway": "footway",
        "name": "Fika Bikeshare"
      },
      "geometry": {
        "type": "LineString",
        "coordinates": [
          [
            36.8425351,
            -1.2351962
          ],
          [
            36.8423903,
            -1.2351264
          ],
          [
            36.842224,
            -1.235046
          ],
          [
            36.842131,
            -1.234938
          ],
          [
            36.842066,
            -1.234907
          ],
          [
            36.842029,
            -1.234908
          ],
          [
            36.841826,
            -1.234978
          ],
          [
            36.841605,
            -1.235096
          ],
          [
            36.840931,
            -1.235207
          ],
          [
            36.84067,
            -1.235325
          ],
          [
            36.840534,
            -1.235372
          ],
          [
            36.840363,
            -1.235556
          ],
          [
            36.840332,
            -1.235574
          ],
          [
            36.839903,
            -1.235619
          ],
          [
            36.839833,
            -1.235608
          ],
          [
            36.83958,
            -1.235471
          ],
          [
            36.839471,
            -1.235379
          ],
          [
            36.83941,
            -1.235291
          ],
          [
            36.839318,
            -1.235237
          ],
          [
            36.83922,
            -1.235131
          ],
          [
            36.839109,
            -1.235039
          ],
          [
            36.839032,
            -1.234921
          ],
          [
            36.838646,
            -1.234601
          ],
          [
            36.8383318,
            -1.2343629
          ],
          [
            36.8380785,
            -1.2341715
          ],
          [
            36.838041,
            -1.234108
          ],
          [
            36.837983,
            -1.234064
          ],
          [
            36.837872,
            -1.233924
          ],
          [
            36.837712,
            -1.23378
          ],
          [
            36.83749,
            -1.233544
          ],
          [
            36.837357,
            -1.233424
          ],
          [
            36.837121,
            -1.233261
          ],
          [
            36.8370948,
            -1.233241
          ]
        ]
      }
    },
    {
      "type": "Feature",
      "id": "way/280720874",
      "properties": {
        "way_id": 280720874,
        "way_version": 4,
        "node_ids": [
          2847824306,
          2847824359,
          2847824360,
          2847824361,
          2847824362,
          2847824363,
          2847824364,
          2847824352,
          2847824365,
          2847824366,
          2847824367,
          2847824368,
          2847824369,
          6503767355,
          2847824370,
          2847824371,
          2847824353,
          2847824372,
          2847824373,
          2847824374,
          2847824375,
          2847824376,
          2847824377,
          2847824378,
          2847824379,
          2847824380,
          2847824381,
          2847824382,
          2847824383,
          2847824384,
          2847824385,
          2847824386,
          2847824387,
          2847824388,
          2847824389,
          6503768695,
          2847824390,
          2847824391,
          2847824392,
          2847824393,
          2847824354,
          2847824394,
          2847824395,
          2847824396,
          2847824397,
          2847824355,
          2847824398,
          2847824399,
          2847824400,
          2847824401,
          2847824402,
          2847824403,
          2847824404,
          2847824405,
          2847824406,
          2847824407,
          2847824356,
          2847824408,
          2847824409,
          2847824411,
          2847824412,
          2847824413,
          2847824414,
          2847824415,
          2847824357,
          2847824416,
          2847824417,
          2847824418,
          2847824419,
          2847824420,
          2847824421,
          2847824422,
          2847824423,
          2847824358,
          2847824424,
          2847824425,
          6503768690,
          2847824426,
          2847824427,
          2847824428,
          2847949514
        ],
        "bicycle": "yes",
        "highway": "path",
        "name": "Muhuga Trail",
        "surface": "dirt"
      },
      "geometry": {
        "type": "LineString",
        "coordinates": [
          [
            36.8434199,
            -1.2376245
          ],
          [
            36.8432069,
            -1.2376485
          ],
          [
            36.8430629,
            -1.2376405
          ],
          [
            36.8426659,
            -1.2376555
          ],
          [
            36.8422219,
            -1.2377965
          ],
          [
            36.842066,
            -1.237836
          ],
          [
            36.8418393,
            -1.2379139
          ],
          [
            36.8416026,
            -1.2379466
          ],
          [
            36.8412764,
            -1.2378659
          ],
          [
            36.8410279,
            -1.2377005
          ],
          [
            36.8408779,
            -1.2376015
          ],
          [
            36.8405699,
            -1.2375035
          ],
          [
            36.8404999,
            -1.2374955
          ],
          [
            36.8404422,
            -1.23741
          ],
          [
            36.8404001,
            -1.2373922
          ],
          [
            36.8402702,
            -1.2372916
          ],
          [
            36.8401613,
            -1.2372256
          ],
          [
            36.8399879,
            -1.2370635
          ],
          [
            36.8398439,
            -1.2369065
          ],
          [
            36.8397109,
            -1.2368535
          ],
          [
            36.8396229,
            -1.2367925
          ],
          [
            36.8395529,
            -1.2367735
          ],
          [
            36.8394279,
            -1.2367025
          ],
          [
            36.8392919,
            -1.2366535
          ],
          [
            36.8391819,
            -1.2365635
          ],
          [
            36.8390759,
            -1.2365425
          ],
          [
            36.8389449,
            -1.2364835
          ],
          [
            36.8386369,
            -1.2362955
          ],
          [
            36.8385389,
            -1.2361915
          ],
          [
            36.8383639,
            -1.2360635
          ],
          [
            36.8383039,
            -1.2359855
          ],
          [
            36.8382679,
            -1.2359865
          ],
          [
            36.8381739,
            -1.2359325
          ],
          [
            36.8381009,
            -1.2358535
          ],
          [
            36.8378389,
            -1.2356635
          ],
          [
            36.8376661,
            -1.2355053
          ],
          [
            36.8374949,
            -1.2353485
          ],
          [
            36.8374299,
            -1.2353185
          ],
          [
            36.8372919,
            -1.2352025
          ],
          [
            36.8371549,
            -1.2351565
          ],
          [
            36.8370029,
            -1.2350635
          ],
          [
            36.8366979,
            -1.2349545
          ],
          [
            36.8360599,
            -1.2348355
          ],
          [
            36.8358189,
            -1.2347715
          ],
          [
            36.8355709,
            -1.2347515
          ],
          [
            36.8347919,
            -1.2346055
          ],
          [
            36.8346259,
            -1.2345355
          ],
          [
            36.8343709,
            -1.2344005
          ],
          [
            36.8343379,
            -1.2343395
          ],
          [
            36.8342079,
            -1.2342815
          ],
          [
            36.8340039,
            -1.2341335
          ],
          [
            36.8337789,
            -1.2340205
          ],
          [
            36.8335979,
            -1.2339005
          ],
          [
            36.8333079,
            -1.2336325
          ],
          [
            36.8330499,
            -1.2333315
          ],
          [
            36.8329669,
            -1.2332145
          ],
          [
            36.8326519,
            -1.2328715
          ],
          [
            36.8324269,
            -1.2326925
          ],
          [
            36.8321879,
            -1.2325325
          ],
          [
            36.8320749,
            -1.2324515
          ],
          [
            36.8318989,
            -1.2322735
          ],
          [
            36.8317599,
            -1.2321575
          ],
          [
            36.8313549,
            -1.2316105
          ],
          [
            36.8312529,
            -1.2314195
          ],
          [
            36.8310789,
            -1.2309875
          ],
          [
            36.8308699,
            -1.2306955
          ],
          [
            36.8306829,
            -1.2305255
          ],
          [
            36.8305019,
            -1.2304095
          ],
          [
            36.8304269,
            -1.2303315
          ],
          [
            36.8301289,
            -1.2301285
          ],
          [
            36.8299979,
            -1.2300105
          ],
          [
            36.8298079,
            -1.2299075
          ],
          [
            36.8296739,
            -1.2298535
          ],
          [
            36.8293929,
            -1.2297885
          ],
          [
            36.8292489,
            -1.2297725
          ],
          [
            36.8289239,
            -1.2297715
          ],
          [
            36.8285638,
            -1.2298029
          ],
          [
            36.8277759,
            -1.2298715
          ],
          [
            36.8274879,
            -1.2298515
          ],
          [
            36.8273334,
            -1.2298323
          ],
          [
            36.8271996,
            -1.2298171
          ]
        ]
      }
    },
    {
      "type": "Feature",
      "id": "way/313840891",
      "properties": {
        "way_id": 313840891,
        "way_version": 8,
        "node_ids": [
          2847949507,
          11951439119,
          11951439121,
          11951439120,
          11951461760,
          11951461759,
          11951461758,
          11951461761,
          11951461757,
          11951427049,
          5518868721,
          11951427050,
          6503768696,
          6503767356
        ],
        "highway": "track",
        "name": "Wangari Maathai Track"
      },
      "geometry": {
        "type": "LineString",
        "coordinates": [
          [
            36.826647,
            -1.232239
          ],
          [
            36.8274955,
            -1.2326549
          ],
          [
            36.8283342,
            -1.2330413
          ],
          [
            36.8287243,
            -1.2332187
          ],
          [
            36.8302063,
            -1.2338863
          ],
          [
            36.8305243,
            -1.2340948
          ],
          [
            36.8307276,
            -1.2341901
          ],
          [
            36.8309167,
            -1.2342853
          ],
          [
            36.8321572,
            -1.2347277
          ],
          [
            36.8331409,
            -1.2351621
          ],
          [
            36.8334033,
            -1.2352663
          ],
          [
            36.833756,
            -1.235448
          ],
          [
            36.8368248,
            -1.236807
          ],
          [
            36.8392492,
            -1.2378987
          ]
        ]
      }
    },
    {
      "type": "Feature",
      "id": "way/553598633",
      "properties": {
        "way_id": 553598633,
        "way_version": 5,
        "node_ids": [
          5343426155,
          8536024900,
          5343426156,
          9503910433,
          9503910432,
          9503910431,
          9503910430
        ],
        "highway": "service",
        "name": "Palm Villa"
      },
      "geometry": {
        "type": "LineString",
        "coordinates": [
          [
            36.8465394,
            -1.2383494
          ],
          [
            36.8465211,
            -1.2388441
          ],
          [
            36.8464563,
            -1.2396335
          ],
          [
            36.8464266,
            -1.2396981
          ],
          [
            36.8463676,
            -1.2397249
          ],
          [
            36.8462858,
            -1.2397302
          ],
          [
            36.8460926,
            -1.2397302
          ]
        ]
      }
    },
    {
      "type": "Feature",
      "id": "way/554225139",
      "properties": {
        "way_id": 554225139,
        "way_version": 3,
        "node_ids": [
          2350044402,
          5348847755,
          5348847756,
          5348847757,
          5348847758,
          5348847759,
          6159068900,
          6159068899,
          6159068898,
          5348847764
        ],
        "highway": "service",
        "name": "Jacaranda Brook"
      },
      "geometry": {
        "type": "LineString",
        "coordinates": [
          [
            36.8438045,
            -1.233923
          ],
          [
            36.8439418,
            -1.2338583
          ],
          [
            36.8441473,
            -1.2337976
          ],
          [
            36.8442874,
            -1.2336762
          ],
          [
            36.8444196,
            -1.2335062
          ],
          [
            36.8445036,
            -1.2334662
          ],
          [
            36.8445732,
            -1.2334553
          ],
          [
            36.8446228,
            -1.2334714
          ],
          [
            36.8446617,
            -1.2335157
          ],
          [
            36.844675,
            -1.2335548
          ]
        ]
      }
    },
    {
      "type": "Feature",
      "id": "way/554225140",
      "properties": {
        "way_id": 554225140,
        "way_version": 2,
        "node_ids": [
          5348847756,
          5348847760,
          5348847761,
          5348847762,
          5348847763,
          5348847764
        ],
        "highway": "service"
      },
      "geometry": {
        "type": "LineString",
        "coordinates": [
          [
            36.8441473,
            -1.2337976
          ],
          [
            36.8442734,
            -1.2337789
          ],
          [
            36.8443761,
            -1.2337836
          ],
          [
            36.8445302,
            -1.2337322
          ],
          [
            36.8446377,
            -1.2336342
          ],
          [
            36.844675,
            -1.2335548
          ]
        ]
      }
    },
    {
      "type": "Feature",
      "id": "way/643633767",
      "properties": {
        "way_id": 643633767,
        "way_version": 23,
        "node_ids": [
          5348839010,
          6276224575,
          6276224574,
          8573927705,
          8573928342,
          9642302288,
          6226431429,
          9642302281,
          9642302298,
          6159125529,
          9642302291,
          8573928325,
          260566285,
          8573928336,
          8573928327,
          6226431431,
          8548474375,
          6191599523,
          280247846,
          260566284,
          6191599529,
          8548442675,
          6159125528,
          8548442677,
          6191599515,
          8548474408,
          5348815002,
          6191599522,
          8548442706,
          8548474339,
          6159125526,
          260566282,
          7716741677,
          500125440,
          8548474331,
          260566281,
          2350044075,
          6159125525,
          260566280,
          6159125524,
          6159125523,
          260566279,
          6159125522,
          260566278,
          6159125521,
          6159125520,
          260566277,
          6159125519,
          260566276,
          2350044401,
          13112223812,
          13112223808,
          9436447707,
          6159125518,
          8548507817,
          9625715420,
          260566275,
          8548505464,
          280251075,
          260566274,
          2475596947,
          2639598617,
          260566273,
          260566272,
          6369379402,
          6608828392,
          260566271,
          260566270,
          260566269,
          6369379403,
          260566268,
          260566267,
          260566266,
          6608828393,
          260566265,
          260566264,
          6369379404,
          260566263,
          6369379405,
          260566262,
          260566261,
          1481622467,
          8527118196,
          6369379443,
          747730075,
          260566260,
          260566259,
          260566258,
          271139910,
          6164547178,
          260566257,
          260566414
        ],
        "highway": "trunk",
        "name": "Kiambu Road",
        "oneway": "no",
        "ref": "B32",
        "source": "survey",
        "surface": "paved"
      },
      "geometry": {
        "type": "LineString",
        "coordinates": [
          [
            36.839154,
            -1.2259284
          ],
          [
            36.8393872,
            -1.2264493
          ],
          [
            36.8396004,
            -1.2268915
          ],
          [
            36.8397132,
            -1.2271136
          ],
          [
            36.8397892,
            -1.2272631
          ],
          [
            36.8399449,
            -1.2276015
          ],
          [
            36.8400362,
            -1.2277998
          ],
          [
            36.8400446,
            -1.2278168
          ],
          [
            36.8400814,
            -1.2278916
          ],
          [
            36.8401415,
            -1.2280157
          ],
          [
            36.8401705,
            -1.2280718
          ],
          [
            36.8402853,
            -1.228294
          ],
          [
            36.8403292,
            -1.2283791
          ],
          [
            36.8404262,
            -1.2285623
          ],
          [
            36.8404999,
            -1.2287014
          ],
          [
            36.8405636,
            -1.2288217
          ],
          [
            36.8406095,
            -1.2289182
          ],
          [
            36.8407054,
            -1.2291299
          ],
          [
            36.840796,
            -1.2292995
          ],
          [
            36.8408442,
            -1.2293941
          ],
          [
            36.8408925,
            -1.2294819
          ],
          [
            36.8410077,
            -1.2296613
          ],
          [
            36.8410367,
            -1.2297065
          ],
          [
            36.8410909,
            -1.2297861
          ],
          [
            36.8411453,
            -1.229866
          ],
          [
            36.8413146,
            -1.2301036
          ],
          [
            36.8413813,
            -1.2301932
          ],
          [
            36.8414004,
            -1.2302203
          ],
          [
            36.8414611,
            -1.2302921
          ],
          [
            36.8415384,
            -1.2303904
          ],
          [
            36.8415785,
            -1.2304385
          ],
          [
            36.8418749,
            -1.2307623
          ],
          [
            36.8420086,
            -1.2308935
          ],
          [
            36.8423334,
            -1.2312051
          ],
          [
            36.8423868,
            -1.2312597
          ],
          [
            36.8424142,
            -1.2312836
          ],
          [
            36.8426071,
            -1.2314562
          ],
          [
            36.8426916,
            -1.2315514
          ],
          [
            36.8428203,
            -1.2316922
          ],
          [
            36.8429008,
            -1.2317887
          ],
          [
            36.8429799,
            -1.2318879
          ],
          [
            36.8431288,
            -1.2321454
          ],
          [
            36.8432079,
            -1.2322942
          ],
          [
            36.8432683,
            -1.2324363
          ],
          [
            36.8432978,
            -1.2325248
          ],
          [
            36.8433407,
            -1.2326643
          ],
          [
            36.8433903,
            -1.2328694
          ],
          [
            36.8434131,
            -1.2330075
          ],
          [
            36.8434466,
            -1.2332663
          ],
          [
            36.8435539,
            -1.2342464
          ],
          [
            36.8437041,
            -1.235559
          ],
          [
            36.8437256,
            -1.2358808
          ],
          [
            36.8437596,
            -1.236215
          ],
          [
            36.8437766,
            -1.2363595
          ],
          [
            36.8437933,
            -1.2364991
          ],
          [
            36.8437977,
            -1.2365363
          ],
          [
            36.8438262,
            -1.2367751
          ],
          [
            36.8438546,
            -1.2370465
          ],
          [
            36.8439737,
            -1.2381856
          ],
          [
            36.8441038,
            -1.2392958
          ],
          [
            36.8441463,
            -1.2399503
          ],
          [
            36.8442232,
            -1.2406465
          ],
          [
            36.8443841,
            -1.2422616
          ],
          [
            36.8445316,
            -1.2434469
          ],
          [
            36.8445718,
            -1.2437151
          ],
          [
            36.8446617,
            -1.2440355
          ],
          [
            36.8447824,
            -1.2443667
          ],
          [
            36.8450492,
            -1.2449189
          ],
          [
            36.8455953,
            -1.2460742
          ],
          [
            36.8458164,
            -1.24652
          ],
          [
            36.846047,
            -1.246886
          ],
          [
            36.8462911,
            -1.2471998
          ],
          [
            36.8467395,
            -1.2476617
          ],
          [
            36.8468852,
            -1.2478179
          ],
          [
            36.8470227,
            -1.2480333
          ],
          [
            36.8471312,
            -1.2483149
          ],
          [
            36.8471897,
            -1.2485875
          ],
          [
            36.8471917,
            -1.2488088
          ],
          [
            36.8471736,
            -1.2490246
          ],
          [
            36.8471376,
            -1.2491708
          ],
          [
            36.8469943,
            -1.2494985
          ],
          [
            36.846799,
            -1.2498789
          ],
          [
            36.8465886,
            -1.2502659
          ],
          [
            36.8462793,
            -1.2508873
          ],
          [
            36.8462241,
            -1.2509805
          ],
          [
            36.8461232,
            -1.251167
          ],
          [
            36.8448743,
            -1.2533701
          ],
          [
            36.843783,
            -1.2553531
          ],
          [
            36.8434126,
            -1.2560564
          ],
          [
            36.8432797,
            -1.2563944
          ],
          [
            36.8431608,
            -1.2567372
          ],
          [
            36.8429905,
            -1.2572553
          ]
        ]
      }
    },
    {
      "type": "Feature",
      "id": "way/692748275",
      "properties": {
        "way_id": 692748275,
        "way_version": 4,
        "node_ids": [
          6503767357,
          6503768697,
          13769449752,
          13769374300,
          13769344200,
          6159312406
        ],
        "highway": "track",
        "name": "Wangari Maathai Trail"
      },
      "geometry": {
        "type": "LineString",
        "coordinates": [
          [
            36.8393955,
            -1.2379639
          ],
          [
            36.8397236,
            -1.2381014
          ],
          [
            36.8433135,
            -1.2396058
          ],
          [
            36.8437836,
            -1.2398028
          ],
          [
            36.8435464,
            -1.2397034
          ],
          [
            36.8439087,
            -1.2398552
          ]
        ]
      }
    },
    {
      "type": "Feature",
      "id": "way/692748276",
      "properties": {
        "way_id": 692748276,
        "way_version": 1,
        "node_ids": [
          6503767356,
          6503767357
        ],
        "bridge": "yes",
        "highway": "track",
        "layer": "1",
        "name": "Wangari Maathai Trail"
      },
      "geometry": {
        "type": "LineString",
        "coordinates": [
          [
            36.8392492,
            -1.2378987
          ],
          [
            36.8393955,
            -1.2379639
          ]
        ]
      }
    },
    {
      "type": "Feature",
      "id": "way/692748283",
      "properties": {
        "way_id": 692748283,
        "way_version": 2,
        "node_ids": [
          6503768695,
          13769333317,
          6503768696
        ],
        "highway": "footway"
      },
      "geometry": {
        "type": "LineString",
        "coordinates": [
          [
            36.8376661,
            -1.2355053
          ],
          [
            36.8371818,
            -1.2362546
          ],
          [
            36.8368248,
            -1.236807
          ]
        ]
      }
    },
    {
      "type": "Feature",
      "id": "way/692748284",
      "properties": {
        "way_id": 692748284,
        "way_version": 2,
        "node_ids": [
          2847824369,
          13769333327,
          6503768697
        ],
        "highway": "footway",
        "surface": "dirt"
      },
      "geometry": {
        "type": "LineString",
        "coordinates": [
          [
            36.8404999,
            -1.2374955
          ],
          [
            36.8401151,
            -1.2377958
          ],
          [
            36.8397236,
            -1.2381014
          ]
        ]
      }
    },
    {
      "type": "Feature",
      "id": "way/831803355",
      "properties": {
        "way_id": 831803355,
        "way_version": 1,
        "node_ids": [
          7765770103,
          7765770104
        ],
        "highway": "residential",
        "source": "digitalglobe"
      },
      "geometry": {
        "type": "LineString",
        "coordinates": [
          [
            36.8451436,
            -1.2373808
          ],
          [
            36.8456019,
            -1.2373245
          ]
        ]
      }
    },
    {
      "type": "Feature",
      "id": "way/831803356",
      "properties": {
        "way_id": 831803356,
        "way_version": 3,
        "node_ids": [
          8536024895,
          7765770105,
          8536024894,
          13112200526,
          280251569
        ],
        "highway": "residential",
        "source": "digitalglobe"
      },
      "geometry": {
        "type": "LineString",
        "coordinates": [
          [
            36.8452477,
            -1.2396015
          ],
          [
            36.8452155,
            -1.2387729
          ],
          [
            36.8452249,
            -1.2385827
          ],
          [
            36.8452413,
            -1.2383863
          ],
          [
            36.8452506,
            -1.2382753
          ]
        ]
      }
    },
    {
      "type": "Feature",
      "id": "way/919077288",
      "properties": {
        "way_id": 919077288,
        "way_version": 1,
        "node_ids": [
          8536024877,
          8536024876
        ],
        "highway": "service"
      },
      "geometry": {
        "type": "LineString",
        "coordinates": [
          [
            36.8449017,
            -1.2406736
          ],
          [
            36.8449406,
            -1.2405951
          ]
        ]
      }
    },
    {
      "type": "Feature",
      "id": "way/919077289",
      "properties": {
        "way_id": 919077289,
        "way_version": 1,
        "node_ids": [
          2639598616,
          8536024878
        ],
        "highway": "service"
      },
      "geometry": {
        "type": "LineString",
        "coordinates": [
          [
            36.8453629,
            -1.240681
          ],
          [
            36.8453684,
            -1.2406661
          ]
        ]
      }
    },
    {
      "type": "Feature",
      "id": "way/919077290",
      "properties": {
        "way_id": 919077290,
        "way_version": 1,
        "node_ids": [
          2639598616,
          8536024877,
          2639598617
        ],
        "highway": "service"
      },
      "geometry": {
        "type": "LineString",
        "coordinates": [
          [
            36.8453629,
            -1.240681
          ],
          [
            36.8449017,
            -1.2406736
          ],
          [
            36.8442232,
            -1.2406465
          ]
        ]
      }
    },
    {
      "type": "Feature",
      "id": "way/919077291",
      "properties": {
        "way_id": 919077291,
        "way_version": 1,
        "node_ids": [
          8536024870,
          8536024871,
          8536024872,
          8536024873,
          8536024874,
          8536024875,
          8536024876,
          8536024865,
          8536024864,
          8536024878,
          8536024869,
          8536024879
        ],
        "highway": "service"
      },
      "geometry": {
        "type": "LineString",
        "coordinates": [
          [
            36.8443156,
            -1.2400628
          ],
          [
            36.8443264,
            -1.2402733
          ],
          [
            36.8443572,
            -1.2405347
          ],
          [
            36.8443679,
            -1.2405575
          ],
          [
            36.8443934,
            -1.2405682
          ],
          [
            36.844836,
            -1.2405843
          ],
          [
            36.8449406,
            -1.2405951
          ],
          [
            36.845249,
            -1.2406393
          ],
          [
            36.8453134,
            -1.2406514
          ],
          [
            36.8453684,
            -1.2406661
          ],
          [
            36.8460524,
            -1.2407211
          ],
          [
            36.846098,
            -1.2407479
          ]
        ]
      }
    },
    {
      "type": "Feature",
      "id": "way/919077292",
      "properties": {
        "way_id": 919077292,
        "way_version": 2,
        "node_ids": [
          8536024893,
          8536024892,
          8536024891,
          8536024890,
          8536024889,
          8536024888,
          8536024887,
          8536024886
        ],
        "highway": "service"
      },
      "geometry": {
        "type": "LineString",
        "coordinates": [
          [
            36.8451592,
            -1.2385852
          ],
          [
            36.8449755,
            -1.2385865
          ],
          [
            36.8449782,
            -1.2386495
          ],
          [
            36.8449902,
            -1.2389928
          ],
          [
            36.8449808,
            -1.239021
          ],
          [
            36.8449513,
            -1.2390438
          ],
          [
            36.8449044,
            -1.2390478
          ],
          [
            36.8446268,
            -1.2390478
          ]
        ]
      }
    },
    {
      "type": "Feature",
      "id": "way/919077293",
      "properties": {
        "way_id": 919077293,
        "way_version": 1,
        "node_ids": [
          8536024900,
          8536024899,
          8536024898,
          8536024897,
          8536024896
        ],
        "highway": "service"
      },
      "geometry": {
        "type": "LineString",
        "coordinates": [
          [
            36.8465211,
            -1.2388441
          ],
          [
            36.8458955,
            -1.2388078
          ],
          [
            36.845874,
            -1.2387997
          ],
          [
            36.8458392,
            -1.2387769
          ],
          [
            36.8457896,
            -1.2387287
          ]
        ]
      }
    },
    {
      "type": "Feature",
      "id": "way/919078398",
      "properties": {
        "way_id": 919078398,
        "way_version": 1,
        "node_ids": [
          8536024869,
          8536047104,
          8536047103,
          8536047102,
          8536047101,
          8536047100,
          8536047099,
          8536047098
        ],
        "highway": "service"
      },
      "geometry": {
        "type": "LineString",
        "coordinates": [
          [
            36.8460524,
            -1.2407211
          ],
          [
            36.8460417,
            -1.2404918
          ],
          [
            36.8460269,
            -1.2404395
          ],
          [
            36.8459626,
            -1.2403389
          ],
          [
            36.8459532,
            -1.2403121
          ],
          [
            36.8459814,
            -1.2402733
          ],
          [
            36.8459881,
            -1.240217
          ],
          [
            36.8460229,
            -1.2401177
          ]
        ]
      }
    },
    {
      "type": "Feature",
      "id": "way/920696760",
      "properties": {
        "way_id": 920696760,
        "way_version": 3,
        "node_ids": [
          9625692210,
          9625692207,
          13164693638,
          9625692211,
          9625692215,
          8548505461,
          8548505454,
          8548505460,
          9625692214,
          9625692213,
          9625692212
        ],
        "highway": "service"
      },
      "geometry": {
        "type": "LineString",
        "coordinates": [
          [
            36.8449693,
            -1.2369593
          ],
          [
            36.8448319,
            -1.2369729
          ],
          [
            36.8444784,
            -1.237008
          ],
          [
            36.8441903,
            -1.2370366
          ],
          [
            36.844141,
            -1.2370624
          ],
          [
            36.8441098,
            -1.2370969
          ],
          [
            36.8440924,
            -1.2371593
          ],
          [
            36.8440997,
            -1.2372196
          ],
          [
            36.8441936,
            -1.2377593
          ],
          [
            36.8442178,
            -1.2378424
          ],
          [
            36.8443749,
            -1.2382138
          ]
        ]
      }
    },
    {
      "type": "Feature",
      "id": "way/920696761",
      "properties": {
        "way_id": 920696761,
        "way_version": 3,
        "node_ids": [
          9625692210,
          13112166311,
          8548505456
        ],
        "highway": "service"
      },
      "geometry": {
        "type": "LineString",
        "coordinates": [
          [
            36.8449693,
            -1.2369593
          ],
          [
            36.8450697,
            -1.2379105
          ],
          [
            36.8450821,
            -1.2380144
          ]
        ]
      }
    },
    {
      "type": "Feature",
      "id": "way/920696762",
      "properties": {
        "way_id": 920696762,
        "way_version": 2,
        "node_ids": [
          9625715420,
          9625715421,
          9625715419,
          8548505463,
          9625715418,
          9625715417,
          9625692216,
          8548505462
        ],
        "highway": "service"
      },
      "geometry": {
        "type": "LineString",
        "coordinates": [
          [
            36.8437977,
            -1.2365363
          ],
          [
            36.8438841,
            -1.2365625
          ],
          [
            36.8439107,
            -1.236577
          ],
          [
            36.8439274,
            -1.2366022
          ],
          [
            36.8439576,
            -1.2367483
          ],
          [
            36.8439831,
            -1.2368931
          ],
          [
            36.8440019,
            -1.2369454
          ],
          [
            36.8440598,
            -1.2369933
          ]
        ]
      }
    },
    {
      "type": "Feature",
      "id": "way/920696763",
      "properties": {
        "way_id": 920696763,
        "way_version": 1,
        "node_ids": [
          8548505472,
          8548505467
        ],
        "highway": "service"
      },
      "geometry": {
        "type": "LineString",
        "coordinates": [
          [
            36.8450264,
            -1.2354062
          ],
          [
            36.8450245,
            -1.2351514
          ]
        ]
      }
    },
    {
      "type": "Feature",
      "id": "way/920696764",
      "properties": {
        "way_id": 920696764,
        "way_version": 3,
        "node_ids": [
          8548505469,
          8548505468
        ],
        "highway": "service"
      },
      "geometry": {
        "type": "LineString",
        "coordinates": [
          [
            36.8447958,
            -1.2354253
          ],
          [
            36.8447932,
            -1.2353029
          ]
        ]
      }
    },
    {
      "type": "Feature",
      "id": "way/920696765",
      "properties": {
        "way_id": 920696765,
        "way_version": 3,
        "node_ids": [
          8548505473,
          8548505472,
          8548505465,
          8548505466,
          8548505469,
          8548505470
        ],
        "highway": "service"
      },
      "geometry": {
        "type": "LineString",
        "coordinates": [
          [
            36.8451566,
            -1.2354052
          ],
          [
            36.8450264,
            -1.2354062
          ],
          [
            36.8449913,
            -1.2354067
          ],
          [
            36.8449326,
            -1.2354108
          ],
          [
            36.8447958,
            -1.2354253
          ],
          [
            36.844256,
            -1.2354839
          ]
        ]
      }
    },
    {
      "type": "Feature",
      "id": "way/920696766",
      "properties": {
        "way_id": 920696766,
        "way_version": 1,
        "node_ids": [
          8548505480,
          8548505479,
          8548505478,
          8548505477,
          8548505476,
          8548505475,
          8548505474
        ],
        "highway": "service"
      },
      "geometry": {
        "type": "LineString",
        "coordinates": [
          [
            36.8451329,
            -1.2357386
          ],
          [
            36.8450633,
            -1.2357283
          ],
          [
            36.8450372,
            -1.2357203
          ],
          [
            36.8450134,
            -1.2357038
          ],
          [
            36.845003,
            -1.2356877
          ],
          [
            36.8450013,
            -1.2356713
          ],
          [
            36.8450017,
            -1.235554
          ]
        ]
      }
    },
    {
      "type": "Feature",
      "id": "way/920696768",
      "properties": {
        "way_id": 920696768,
        "way_version": 1,
        "node_ids": [
          8548505501,
          8548505500,
          8548505499,
          8548505498,
          8548505497,
          8548505496,
          8548505495
        ],
        "highway": "service"
      },
      "geometry": {
        "type": "LineString",
        "coordinates": [
          [
            36.84426,
            -1.2363737
          ],
          [
            36.8443442,
            -1.2363578
          ],
          [
            36.8444102,
            -1.2363434
          ],
          [
            36.8444689,
            -1.2363337
          ],
          [
            36.8445541,
            -1.2363226
          ],
          [
            36.8445903,
            -1.2363226
          ],
          [
            36.8446191,
            -1.2363239
          ]
        ]
      }
    },
    {
      "type": "Feature",
      "id": "way/920696769",
      "properties": {
        "way_id": 920696769,
        "way_version": 1,
        "node_ids": [
          8548505505,
          8548505502
        ],
        "highway": "service"
      },
      "geometry": {
        "type": "LineString",
        "coordinates": [
          [
            36.8448414,
            -1.2362391
          ],
          [
            36.8448501,
            -1.2364286
          ]
        ]
      }
    },
    {
      "type": "Feature",
      "id": "way/920696770",
      "properties": {
        "way_id": 920696770,
        "way_version": 3,
        "node_ids": [
          8548507817,
          8548505516,
          8548505515,
          8548505514,
          9855185616,
          8548505513,
          8548505501
        ],
        "highway": "service"
      },
      "geometry": {
        "type": "LineString",
        "coordinates": [
          [
            36.8437933,
            -1.2364991
          ],
          [
            36.8439308,
            -1.2364778
          ],
          [
            36.8439827,
            -1.2364614
          ],
          [
            36.8440243,
            -1.236447
          ],
          [
            36.8440958,
            -1.2364247
          ],
          [
            36.8441282,
            -1.2364135
          ],
          [
            36.84426,
            -1.2363737
          ]
        ]
      }
    },
    {
      "type": "Feature",
      "id": "way/1013539597",
      "properties": {
        "way_id": 1013539597,
        "way_version": 3,
        "node_ids": [
          6159312406,
          2847824296,
          2847824297,
          2847824298,
          13769374299,
          2847824299,
          2847824300,
          2847824301,
          2847824302,
          2847824288,
          2847824303,
          2847824304,
          2847824305,
          2847824289,
          2847824306,
          2847824307,
          2847824308,
          2847824309,
          2847824310,
          2847824311,
          2847824312,
          2847824290,
          2847824313,
          2847824314,
          2847824315,
          2847824316,
          2847824317,
          2847824318,
          2847824319,
          2847824291,
          2847824320
        ],
        "bicycle": "yes",
        "highway": "footway",
        "name": "Fika Bikeshare",
        "surface": "dirt"
      },
      "geometry": {
        "type": "LineString",
        "coordinates": [
          [
            36.8439087,
            -1.2398552
          ],
          [
            36.843907,
            -1.239722
          ],
          [
            36.843909,
            -1.239578
          ],
          [
            36.843871,
            -1.239402
          ],
          [
            36.8438627,
            -1.2392868
          ],
          [
            36.843845,
            -1.239043
          ],
          [
            36.843817,
            -1.238865
          ],
          [
            36.843825,
            -1.238794
          ],
          [
            36.843808,
            -1.238724
          ],
          [
            36.843802,
            -1.238435
          ],
          [
            36.843765,
            -1.238297
          ],
          [
            36.843707,
            -1.237909
          ],
          [
            36.8435946,
            -1.2377321
          ],
          [
            36.843502,
            -1.237624
          ],
          [
            36.8434199,
            -1.2376245
          ],
          [
            36.8433108,
            -1.2374484
          ],
          [
            36.8431164,
            -1.2373836
          ],
          [
            36.8430076,
            -1.2373141
          ],
          [
            36.8429395,
            -1.2372725
          ],
          [
            36.842866,
            -1.237199
          ],
          [
            36.842809,
            -1.237156
          ],
          [
            36.842692,
            -1.237019
          ],
          [
            36.842644,
            -1.236884
          ],
          [
            36.842645,
            -1.236631
          ],
          [
            36.842663,
            -1.236562
          ],
          [
            36.84269,
            -1.236277
          ],
          [
            36.842759,
            -1.23589
          ],
          [
            36.842896,
            -1.235598
          ],
          [
            36.842905,
            -1.235527
          ],
          [
            36.842881,
            -1.235459
          ],
          [
            36.842677,
            -1.2352874
          ]
        ]
      }
    },
    {
      "type": "Feature",
      "id": "way/1013539598",
      "properties": {
        "way_id": 1013539598,
        "way_version": 1,
        "node_ids": [
          2847824320,
          9350977947
        ],
        "bridge": "yes",
        "highway": "footway",
        "layer": "1",
        "name": "Fika Bikeshare"
      },
      "geometry": {
        "type": "LineString",
        "coordinates": [
          [
            36.842677,
            -1.2352874
          ],
          [
            36.8425351,
            -1.2351962
          ]
        ]
      }
    },
    {
      "type": "Feature",
      "id": "way/1023251464",
      "properties": {
        "way_id": 1023251464,
        "way_version": 1,
        "node_ids": [
          9436447707,
          9436447706,
          9436447705,
          9436447704,
          9436447703,
          9436447702
        ],
        "highway": "service"
      },
      "geometry": {
        "type": "LineString",
        "coordinates": [
          [
            36.8437596,
            -1.236215
          ],
          [
            36.8439469,
            -1.2361926
          ],
          [
            36.8444746,
            -1.2361041
          ],
          [
            36.8445168,
            -1.2360926
          ],
          [
            36.8445993,
            -1.2360785
          ],
          [
            36.8449024,
            -1.236033
          ]
        ]
      }
    },
    {
      "type": "Feature",
      "id": "way/1046755371",
      "properties": {
        "way_id": 1046755371,
        "way_version": 1,
        "node_ids": [
          8536024892,
          9625700452
        ],
        "highway": "service"
      },
      "geometry": {
        "type": "LineString",
        "coordinates": [
          [
            36.8449755,
            -1.2385865
          ],
          [
            36.8446536,
            -1.2385892
          ]
        ]
      }
    },
    {
      "type": "Feature",
      "id": "way/1046756324",
      "properties": {
        "way_id": 1046756324,
        "way_version": 1,
        "node_ids": [
          9625692208,
          9625692207
        ],
        "highway": "service"
      },
      "geometry": {
        "type": "LineString",
        "coordinates": [
          [
            36.8448243,
            -1.2369194
          ],
          [
            36.8448319,
            -1.2369729
          ]
        ]
      }
    },
    {
      "type": "Feature",
      "id": "way/1046756325",
      "properties": {
        "way_id": 1046756325,
        "way_version": 2,
        "node_ids": [
          8548505462,
          8548505455,
          8548505459,
          10558815920,
          9625692208,
          8548505458,
          9625692209,
          8548505457,
          9625692210
        ],
        "highway": "service"
      },
      "geometry": {
        "type": "LineString",
        "coordinates": [
          [
            36.8440598,
            -1.2369933
          ],
          [
            36.8441236,
            -1.2369987
          ],
          [
            36.8441843,
            -1.2369953
          ],
          [
            36.8442129,
            -1.2369919
          ],
          [
            36.8448243,
            -1.2369194
          ],
          [
            36.8449219,
            -1.2369078
          ],
          [
            36.8449433,
            -1.2369092
          ],
          [
            36.8449651,
            -1.2369283
          ],
          [
            36.8449693,
            -1.2369593
          ]
        ]
      }
    },
    {
      "type": "Feature",
      "id": "way/1426373448",
      "properties": {
        "way_id": 1426373448,
        "way_version": 1,
        "node_ids": [
          13112125589,
          8548505503
        ],
        "highway": "service"
      },
      "geometry": {
        "type": "LineString",
        "coordinates": [
          [
            36.8455015,
            -1.2362267
          ],
          [
            36.8450756,
            -1.2362482
          ]
        ]
      }
    },
    {
      "type": "Feature",
      "id": "way/1426373449",
      "properties": {
        "way_id": 1426373449,
        "way_version": 1,
        "node_ids": [
          13112125591,
          13112125590
        ],
        "highway": "service"
      },
      "geometry": {
        "type": "LineString",
        "coordinates": [
          [
            36.8450823,
            -1.2361887
          ],
          [
            36.8455401,
            -1.2361356
          ]
        ]
      }
    },
    {
      "type": "Feature",
      "id": "way/1426373450",
      "properties": {
        "way_id": 1426373450,
        "way_version": 1,
        "node_ids": [
          13112166311,
          13112166304,
          13112166305,
          13112166310,
          13112166303,
          13112166306,
          13112166308,
          13112166307,
          13112166309
        ],
        "highway": "service"
      },
      "geometry": {
        "type": "LineString",
        "coordinates": [
          [
            36.8450697,
            -1.2379105
          ],
          [
            36.8450057,
            -1.2379336
          ],
          [
            36.8449266,
            -1.2379517
          ],
          [
            36.8446845,
            -1.2379738
          ],
          [
            36.8444367,
            -1.2379899
          ],
          [
            36.8444129,
            -1.2379681
          ],
          [
            36.8443831,
            -1.2379356
          ],
          [
            36.8443646,
            -1.2378749
          ],
          [
            36.8443606,
            -1.2376238
          ]
        ]
      }
    },
    {
      "type": "Feature",
      "id": "way/1426373451",
      "properties": {
        "way_id": 1426373451,
        "way_version": 2,
        "node_ids": [
          13112125597,
          13112125598,
          13164693631,
          13112125599,
          13112125592,
          13112125593,
          13112125594,
          13112166309
        ],
        "highway": "service"
      },
      "geometry": {
        "type": "LineString",
        "coordinates": [
          [
            36.844431,
            -1.2370989
          ],
          [
            36.8444488,
            -1.2371127
          ],
          [
            36.844498,
            -1.237534
          ],
          [
            36.8445014,
            -1.2375689
          ],
          [
            36.8444994,
            -1.2375863
          ],
          [
            36.8444887,
            -1.2376034
          ],
          [
            36.8444632,
            -1.2376135
          ],
          [
            36.8443606,
            -1.2376238
          ]
        ]
      }
    },
    {
      "type": "Feature",
      "id": "way/1426378326",
      "properties": {
        "way_id": 1426378326,
        "way_version": 1,
        "node_ids": [
          13112200528,
          13112200526
        ],
        "highway": "service"
      },
      "geometry": {
        "type": "LineString",
        "coordinates": [
          [
            36.8451565,
            -1.2383814
          ],
          [
            36.8452413,
            -1.2383863
          ]
        ]
      }
    },
    {
      "type": "Feature",
      "id": "way/1426378327",
      "properties": {
        "way_id": 1426378327,
        "way_version": 1,
        "node_ids": [
          13112200525,
          8536024893,
          13112200528,
          13112200527
        ],
        "highway": "service"
      },
      "geometry": {
        "type": "LineString",
        "coordinates": [
          [
            36.8451552,
            -1.2392248
          ],
          [
            36.8451592,
            -1.2385852
          ],
          [
            36.8451565,
            -1.2383814
          ],
          [
            36.845144,
            -1.2382678
          ]
        ]
      }
    },
    {
      "type": "Feature",
      "id": "way/1426378328",
      "properties": {
        "way_id": 1426378328,
        "way_version": 1,
        "node_ids": [
          8548505508,
          8548505507,
          8548505506,
          8548505505,
          8548505504,
          8548505503
        ],
        "highway": "service"
      },
      "geometry": {
        "type": "LineString",
        "coordinates": [
          [
            36.8446949,
            -1.2362083
          ],
          [
            36.844771,
            -1.2362251
          ],
          [
            36.8448092,
            -1.2362341
          ],
          [
            36.8448414,
            -1.2362391
          ],
          [
            36.844886,
            -1.2362392
          ],
          [
            36.8450756,
            -1.2362482
          ]
        ]
      }
    },
    {
      "type": "Feature",
      "id": "way/1426379739",
      "properties": {
        "way_id": 1426379739,
        "way_version": 1,
        "node_ids": [
          13112223808,
          13112223807,
          13112223806,
          13112223805
        ],
        "highway": "service"
      },
      "geometry": {
        "type": "LineString",
        "coordinates": [
          [
            36.8437256,
            -1.2358808
          ],
          [
            36.8438999,
            -1.2358634
          ],
          [
            36.8439348,
            -1.2358138
          ],
          [
            36.8439147,
            -1.2356649
          ]
        ]
      }
    },
    {
      "type": "Feature",
      "id": "way/1426379740",
      "properties": {
        "way_id": 1426379740,
        "way_version": 1,
        "node_ids": [
          13112223812,
          13112223811,
          13112223810,
          13112223809
        ],
        "highway": "service"
      },
      "geometry": {
        "type": "LineString",
        "coordinates": [
          [
            36.8437041,
            -1.235559
          ],
          [
            36.8438919,
            -1.2355282
          ],
          [
            36.8439254,
            -1.2354906
          ],
          [
            36.8439174,
            -1.2353284
          ]
        ]
      }
    },
    {
      "type": "Feature",
      "id": "way/1432226519",
      "properties": {
        "way_id": 1432226519,
        "way_version": 1,
        "node_ids": [
          13112166303,
          13164693630,
          13164693629,
          13164693628,
          13164693627,
          13164693626,
          13164693625,
          8548505456
        ],
        "highway": "service"
      },
      "geometry": {
        "type": "LineString",
        "coordinates": [
          [
            36.8444367,
            -1.2379899
          ],
          [
            36.8445812,
            -1.2381213
          ],
          [
            36.8446295,
            -1.238132
          ],
          [
            36.8446979,
            -1.2381307
          ],
          [
            36.8449795,
            -1.2381106
          ],
          [
            36.8450426,
            -1.2380945
          ],
          [
            36.8450721,
            -1.2380529
          ],
          [
            36.8450821,
            -1.2380144
          ]
        ]
      }
    },
    {
      "type": "Feature",
      "id": "way/1432226520",
      "properties": {
        "way_id": 1432226520,
        "way_version": 1,
        "node_ids": [
          13112166309,
          13112166302,
          13112125596,
          13112166301,
          13112125595,
          13112125597
        ],
        "highway": "service"
      },
      "geometry": {
        "type": "LineString",
        "coordinates": [
          [
            36.8443606,
            -1.2376238
          ],
          [
            36.8443224,
            -1.2371375
          ],
          [
            36.8443318,
            -1.237115
          ],
          [
            36.8443542,
            -1.2371019
          ],
          [
            36.8444069,
            -1.2370959
          ],
          [
            36.844431,
            -1.2370989
          ]
        ]
      }
    },
    {
      "type": "Feature",
      "id": "way/1432226521",
      "properties": {
        "way_id": 1432226521,
        "way_version": 1,
        "node_ids": [
          13164693638,
          13164693637,
          13164693636,
          13164693635,
          13164693634,
          13164693633,
          13164693632,
          13164693631
        ],
        "highway": "service"
      },
      "geometry": {
        "type": "LineString",
        "coordinates": [
          [
            36.8444784,
            -1.237008
          ],
          [
            36.8445477,
            -1.2370895
          ],
          [
            36.8445658,
            -1.2371244
          ],
          [
            36.8445732,
            -1.2371673
          ],
          [
            36.8445873,
            -1.2374643
          ],
          [
            36.8445839,
            -1.2374898
          ],
          [
            36.8445691,
            -1.2375059
          ],
          [
            36.844498,
            -1.237534
          ]
        ]
      }
    },
    {
      "type": "Feature",
      "id": "way/1504822990",
      "properties": {
        "way_id": 1504822990,
        "way_version": 1,
        "node_ids": [
          2847949509,
          13769328758,
          13769328759,
          13769328760,
          13769328761,
          13769328762,
          13769328763,
          13769328764,
          13769328765,
          13769328766,
          13769328767,
          13769328768,
          13769328769,
          13769328770,
          13769328771,
          13769328772,
          13769328773,
          13769328774,
          13769328775,
          13769328776,
          13769328777,
          13769328778,
          13769328779,
          13769328780,
          13769328781,
          13769328782,
          13769328783,
          13769328784,
          13769328785,
          13769328786,
          13769328787,
          13769328788,
          13769328789,
          13769328790,
          13769328791,
          13769328792,
          13769328793,
          13769328794,
          13769328795,
          13769328796,
          13769328797,
          13769328798,
          13769328799,
          13769328800,
          13769333301,
          13769333302,
          13769333303,
          13769333304,
          13769333305,
          13769333306,
          13769333307,
          13769333308,
          13769333309,
          13769333310,
          13769333311,
          13769333312,
          13769333313,
          13769333314,
          13769333315,
          13769333316,
          13769333317,
          13769333318,
          13769333319,
          13769333320,
          13769333321,
          13769333322,
          13769333323,
          13769333324,
          13769333325,
          13769333326,
          13769333327
        ],
        "bicycle": "designated",
        "foot": "designated",
        "highway": "path",
        "mtb:scale": "1",
        "source": "Strava Global Heatmap"
      },
      "geometry": {
        "type": "LineString",
        "coordinates": [
          [
            36.826806,
            -1.231572
          ],
          [
            36.8271296,
            -1.2316695
          ],
          [
            36.8274798,
            -1.2317463
          ],
          [
            36.827767,
            -1.231935
          ],
          [
            36.8279701,
            -1.2320957
          ],
          [
            36.8282578,
            -1.232139
          ],
          [
            36.8285044,
            -1.2322306
          ],
          [
            36.8287223,
            -1.2323793
          ],
          [
            36.8289288,
            -1.2326024
          ],
          [
            36.8291868,
            -1.2327568
          ],
          [
            36.8294105,
            -1.2327855
          ],
          [
            36.8295827,
            -1.2328859
          ],
          [
            36.8297993,
            -1.2330172
          ],
          [
            36.8299158,
            -1.2330832
          ],
          [
            36.8300574,
            -1.2330455
          ],
          [
            36.8302431,
            -1.2331083
          ],
          [
            36.8304036,
            -1.2331554
          ],
          [
            36.830539,
            -1.2331617
          ],
          [
            36.8306334,
            -1.2332809
          ],
          [
            36.8306775,
            -1.2334599
          ],
          [
            36.8308297,
            -1.233486
          ],
          [
            36.8309494,
            -1.2336368
          ],
          [
            36.8310721,
            -1.2337466
          ],
          [
            36.8312074,
            -1.2337906
          ],
          [
            36.8313145,
            -1.2337937
          ],
          [
            36.8314246,
            -1.2338911
          ],
          [
            36.8315411,
            -1.2339758
          ],
          [
            36.8316962,
            -1.2340421
          ],
          [
            36.8318537,
            -1.2341237
          ],
          [
            36.8319701,
            -1.2342336
          ],
          [
            36.8321464,
            -1.2342838
          ],
          [
            36.8323415,
            -1.2343152
          ],
          [
            36.8325493,
            -1.2342995
          ],
          [
            36.8327129,
            -1.2343058
          ],
          [
            36.8328256,
            -1.2344923
          ],
          [
            36.8329641,
            -1.2345802
          ],
          [
            36.8331624,
            -1.2346681
          ],
          [
            36.8333827,
            -1.2347592
          ],
          [
            36.8335338,
            -1.2348596
          ],
          [
            36.8337105,
            -1.2349648
          ],
          [
            36.8339088,
            -1.2351124
          ],
          [
            36.8340693,
            -1.235216
          ],
          [
            36.8342204,
            -1.235282
          ],
          [
            36.8343054,
            -1.2354421
          ],
          [
            36.8344282,
            -1.2354986
          ],
          [
            36.834589,
            -1.2355022
          ],
          [
            36.8348063,
            -1.2354938
          ],
          [
            36.8349498,
            -1.2355253
          ],
          [
            36.8351608,
            -1.2355148
          ],
          [
            36.8352347,
            -1.2356243
          ],
          [
            36.8353317,
            -1.23574
          ],
          [
            36.8354808,
            -1.2357841
          ],
          [
            36.8356348,
            -1.2357757
          ],
          [
            36.8357614,
            -1.2358535
          ],
          [
            36.83585,
            -1.2358746
          ],
          [
            36.8359998,
            -1.235862
          ],
          [
            36.8362462,
            -1.235928
          ],
          [
            36.8365116,
            -1.2360359
          ],
          [
            36.8367874,
            -1.2361156
          ],
          [
            36.8370553,
            -1.2362167
          ],
          [
            36.8371818,
            -1.2362546
          ],
          [
            36.8376516,
            -1.2364837
          ],
          [
            36.8378923,
            -1.236534
          ],
          [
            36.8381787,
            -1.2366043
          ],
          [
            36.8384369,
            -1.236726
          ],
          [
            36.8386731,
            -1.2369399
          ],
          [
            36.8390112,
            -1.237071
          ],
          [
            36.8393023,
            -1.2371132
          ],
          [
            36.8396498,
            -1.2372116
          ],
          [
            36.8398611,
            -1.2374692
          ],
          [
            36.8401151,
            -1.2377958
          ]
        ]
      }
    },
    {
      "type": "Feature",
      "id": "way/1504829330",
      "properties": {
        "way_id": 1504829330,
        "way_version": 1,
        "node_ids": [
          13769333327,
          13769344181,
          13769344182,
          13769344183,
          13769344184,
          13769344185,
          13769344186,
          13769344187,
          13769344188,
          13769344189,
          13769344190,
          13769344191,
          13769344192,
          13769344193,
          13769344194,
          2847824359
        ],
        "bicycle": "designated",
        "foot": "designated",
        "highway": "path",
        "mtb:scale": "2",
        "source": "Strava Global Heatmap"
      },
      "geometry": {
        "type": "LineString",
        "coordinates": [
          [
            36.8401151,
            -1.2377958
          ],
          [
            36.8403743,
            -1.2379232
          ],
          [
            36.840551,
            -1.2378937
          ],
          [
            36.840849,
            -1.2379455
          ],
          [
            36.8410366,
            -1.2380782
          ],
          [
            36.8412942,
            -1.2381113
          ],
          [
            36.8415949,
            -1.2381133
          ],
          [
            36.8418304,
            -1.2381465
          ],
          [
            36.8420732,
            -1.2381944
          ],
          [
            36.8423455,
            -1.2381797
          ],
          [
            36.8426104,
            -1.2382055
          ],
          [
            36.8428533,
            -1.2382608
          ],
          [
            36.8431734,
            -1.2383087
          ],
          [
            36.8432734,
            -1.2381832
          ],
          [
            36.8432734,
            -1.2379215
          ],
          [
            36.8432069,
            -1.2376485
          ]
        ]
      }
    },
    {
      "type": "Feature",
      "id": "way/1504829331",
      "properties": {
        "way_id": 1504829331,
        "way_version": 1,
        "node_ids": [
          13769344192,
          13769344195,
          13769344196,
          13769344197,
          13769344198,
          13769344199,
          13769344200
        ],
        "bicycle": "designated",
        "foot": "designated",
        "highway": "path",
        "mtb:scale": "1",
        "source": "Strava Global Heatmap"
      },
      "geometry": {
        "type": "LineString",
        "coordinates": [
          [
            36.8431734,
            -1.2383087
          ],
          [
            36.8432952,
            -1.238487
          ],
          [
            36.8433471,
            -1.2388173
          ],
          [
            36.8433986,
            -1.2391085
          ],
          [
            36.8434276,
            -1.2393097
          ],
          [
            36.8435272,
            -1.2393558
          ],
          [
            36.8435464,
            -1.2397034
          ]
        ]
      }
    },
    {
      "type": "Feature",
      "id": "way/1504838854",
      "properties": {
        "way_id": 1504838854,
        "way_version": 1,
        "node_ids": [
          13769374297,
          13769344199,
          13769344200,
          13769374298
        ],
        "bicycle": "designated",
        "foot": "designated",
        "highway": "path",
        "mtb:scale": "1",
        "source": "Strava Global Heatmap"
      },
      "geometry": {
        "type": "LineString",
        "coordinates": [
          [
            36.8437675,
            -1.2393538
          ],
          [
            36.8435272,
            -1.2393558
          ],
          [
            36.8435464,
            -1.2397034
          ],
          [
            36.8437757,
            -1.2397225
          ]
        ]
      }
    },
    {
      "type": "Feature",
      "id": "way/1504838855",
      "properties": {
        "way_id": 1504838855,
        "way_version": 1,
        "node_ids": [
          13769374299,
          13769374297,
          13769374298,
          13769374300
        ],
        "bicycle": "designated",
        "foot": "designated",
        "highway": "path",
        "mtb:scale": "1",
        "source": "Strava Global Heatmap"
      },
      "geometry": {
        "type": "LineString",
        "coordinates": [
          [
            36.8438627,
            -1.2392868
          ],
          [
            36.8437675,
            -1.2393538
          ],
          [
            36.8437757,
            -1.2397225
          ],
          [
            36.8437836,
            -1.2398028
          ]
        ]
      }
    },
    {
      "type": "Feature",
      "id": "way/1504852415",
      "properties": {
        "way_id": 1504852415,
        "way_version": 1,
        "node_ids": [
          745351635,
          13769449745,
          13769449746,
          13769449747,
          13769449748,
          13769449749,
          13769449750,
          13769449751,
          745351649
        ],
        "bicycle": "yes",
        "foot": "yes",
        "highway": "path",
        "mtb:scale": "1+",
        "source": "Strava Global Heatmap"
      },
      "geometry": {
        "type": "LineString",
        "coordinates": [
          [
            36.8440283,
            -1.2426336
          ],
          [
            36.843951,
            -1.2424609
          ],
          [
            36.8440364,
            -1.2422434
          ],
          [
            36.8438889,
            -1.2416606
          ],
          [
            36.8439588,
            -1.2414042
          ],
          [
            36.8438035,
            -1.2412022
          ],
          [
            36.8438889,
            -1.2408914
          ],
          [
            36.8438112,
            -1.2403319
          ],
          [
            36.8439156,
            -1.2400688
          ]
        ]
      }
    },
    {
      "type": "Feature",
      "id": "way/1504852416",
      "properties": {
        "way_id": 1504852416,
        "way_version": 1,
        "node_ids": [
          13769449752,
          13769449753,
          13769449754,
          13769449755,
          13769449751
        ],
        "bicycle": "permissive",
        "foot": "yes",
        "highway": "path",
        "mtb:scale": "1+",
        "source": "Strava Global Heatmap"
      },
      "geometry": {
        "type": "LineString",
        "coordinates": [
          [
            36.8433135,
            -1.2396058
          ],
          [
            36.8433002,
            -1.2398574
          ],
          [
            36.8434202,
            -1.2400486
          ],
          [
            36.8435714,
            -1.2401511
          ],
          [
            36.8438112,
            -1.2403319
          ]
        ]
      }
    }
  ]
}
