{
  "type": "FeatureCollection",
  "features": [
    {
      "type": "Feature",
      "id": "way/24008112",
      "properties": {
        "way_id": 24008112,
        "way_version": 29,
        "node_ids": [
          833938428,
          833938429,
          5352689842,
          6295433461,
          833938431
        ],
        "highway": "residential",
        "name": "Ansellia Close"
      },
      "geometry": {
        "type": "LineString",
        "coordinates": [
          [
            36.8167037,
            -1.2268152
          ],
          [
            36.8167786,
            -1.2263669
          ],
          [
            36.8168332,
            -1.2260516
          ],
          [
            36.816709,
            -1.2252778
          ],
          [
            36.8167023,
            -1.2252865
          ]
        ]
      }
    },
    {
      "type": "Feature",
      "id": "way/24011418",
      "properties": {
        "way_id": 24011418,
        "way_version": 32,
        "node_ids": [
          260382944,
          6274775487,
          6604144523,
          260382945,
          260382946,
          6274775488,
          6274775489,
          260382947,
          272710147,
          12133500578,
          280243472,
          272710031,
          2350034382,
          9644753315,
          260382948,
          280243754,
          6274775490,
          260382949,
          8527122958,
          6274775492,
          6274775491,
          5352936372,
          5352936373,
          6274775494,
          6274775493,
          260382952,
          260382953,
          8527183694,
          12097502039,
          6295375321,
          272710368,
          260382954,
          280240408,
          8509146404,
          260382955,
          260382956,
          8509200016,
          6295591466,
          260382957,
          8509217417,
          260382958,
          6295375322,
          6295591416,
          260382959,
          12097546622,
          6306229449,
          6293943425
        ],
        "highway": "tertiary",
        "name": "Ruaka Road"
      },
      "geometry": {
        "type": "LineString",
        "coordinates": [
          [
            36.8269786,
            -1.2246993
          ],
          [
            36.8265474,
            -1.2241944
          ],
          [
            36.8264991,
            -1.2241395
          ],
          [
            36.8262564,
            -1.2238941
          ],
          [
            36.8260284,
            -1.2237265
          ],
          [
            36.8258634,
            -1.2236226
          ],
          [
            36.8257072,
            -1.2235274
          ],
          [
            36.825496,
            -1.223398
          ],
          [
            36.8252546,
            -1.2232478
          ],
          [
            36.8251469,
            -1.2231747
          ],
          [
            36.8250333,
            -1.2230977
          ],
          [
            36.8240502,
            -1.2225124
          ],
          [
            36.8234816,
            -1.2221336
          ],
          [
            36.8234714,
            -1.2221274
          ],
          [
            36.8231168,
            -1.221911
          ],
          [
            36.8229182,
            -1.2217585
          ],
          [
            36.8220527,
            -1.2211978
          ],
          [
            36.8211856,
            -1.2205991
          ],
          [
            36.8211165,
            -1.2205533
          ],
          [
            36.8210683,
            -1.2205213
          ],
          [
            36.8209707,
            -1.22047
          ],
          [
            36.8208222,
            -1.2204053
          ],
          [
            36.8206365,
            -1.2203765
          ],
          [
            36.8205312,
            -1.2204054
          ],
          [
            36.8204118,
            -1.2204436
          ],
          [
            36.8201878,
            -1.2204757
          ],
          [
            36.8199893,
            -1.2205267
          ],
          [
            36.8198573,
            -1.2205511
          ],
          [
            36.8197855,
            -1.2205703
          ],
          [
            36.8194127,
            -1.2206601
          ],
          [
            36.8186952,
            -1.2208264
          ],
          [
            36.8181306,
            -1.2209605
          ],
          [
            36.8177853,
            -1.2210449
          ],
          [
            36.817631,
            -1.2210764
          ],
          [
            36.8174361,
            -1.2211218
          ],
          [
            36.8172909,
            -1.2211093
          ],
          [
            36.8171866,
            -1.221081
          ],
          [
            36.8171596,
            -1.2210737
          ],
          [
            36.8167831,
            -1.2209252
          ],
          [
            36.8165762,
            -1.2208515
          ],
          [
            36.8163462,
            -1.2207695
          ],
          [
            36.8161766,
            -1.2207151
          ],
          [
            36.8159607,
            -1.2206615
          ],
          [
            36.8157596,
            -1.2206226
          ],
          [
            36.8154922,
            -1.2205765
          ],
          [
            36.8152767,
            -1.2205394
          ],
          [
            36.8149569,
            -1.2204784
          ]
        ]
      }
    },
    {
      "type": "Feature",
      "id": "way/24968697",
      "properties": {
        "way_id": 24968697,
        "way_version": 9,
        "node_ids": [
          271327003,
          13201272090,
          13201272091,
          12300011367,
          10116152497,
          10116178617,
          8509320919,
          8509320925,
          271327004,
          8509320917,
          271327005,
          9189127992,
          271327006,
          8509185743,
          271327007
        ],
        "highway": "residential",
        "name": "Whispers Avenue"
      },
      "geometry": {
        "type": "LineString",
        "coordinates": [
          [
            36.8200063,
            -1.2306014
          ],
          [
            36.8199652,
            -1.230519
          ],
          [
            36.8194503,
            -1.2301167
          ],
          [
            36.818422,
            -1.2299225
          ],
          [
            36.8182594,
            -1.2298887
          ],
          [
            36.818134,
            -1.2298631
          ],
          [
            36.8176342,
            -1.2297612
          ],
          [
            36.8175602,
            -1.2297461
          ],
          [
            36.8173302,
            -1.2296992
          ],
          [
            36.8169879,
            -1.2296291
          ],
          [
            36.8169525,
            -1.2296219
          ],
          [
            36.8169015,
            -1.2296103
          ],
          [
            36.816695,
            -1.2295361
          ],
          [
            36.8158404,
            -1.2291646
          ],
          [
            36.8140441,
            -1.2283783
          ]
        ]
      }
    },
    {
      "type": "Feature",
      "id": "way/25033546",
      "properties": {
        "way_id": 25033546,
        "way_version": 8,
        "node_ids": [
          272328131,
          10308172115,
          8526861869,
          8526861871,
          7716741680,
          272328429,
          7358223375,
          12330595882,
          272328132
        ],
        "highway": "residential",
        "name": "Mugumo Drive"
      },
      "geometry": {
        "type": "LineString",
        "coordinates": [
          [
            36.8297982,
            -1.2232063
          ],
          [
            36.8306387,
            -1.2236717
          ],
          [
            36.8312545,
            -1.2240127
          ],
          [
            36.8312986,
            -1.2240371
          ],
          [
            36.8317994,
            -1.2243144
          ],
          [
            36.8321191,
            -1.2244915
          ],
          [
            36.8324849,
            -1.2247345
          ],
          [
            36.8325539,
            -1.2247828
          ],
          [
            36.8331702,
            -1.2251279
          ]
        ]
      }
    },
    {
      "type": "Feature",
      "id": "way/25033552",
      "properties": {
        "way_id": 25033552,
        "way_version": 7,
        "node_ids": [
          272328271,
          272328272,
          6274743997,
          272328273,
          272328274,
          272328380,
          272328275,
          824518758,
          6274743996,
          272328131,
          8526861868,
          8526861866,
          6274743995,
          6823219287,
          272328277
        ],
        "highway": "residential",
        "name": "Cactus Street",
        "source:maxspeed": "KE:urban"
      },
      "geometry": {
        "type": "LineString",
        "coordinates": [
          [
            36.828154,
            -1.2250083
          ],
          [
            36.828614,
            -1.2249667
          ],
          [
            36.8287146,
            -1.2249346
          ],
          [
            36.828787,
            -1.2248903
          ],
          [
            36.8288621,
            -1.2248219
          ],
          [
            36.8289922,
            -1.224645
          ],
          [
            36.8290982,
            -1.2244546
          ],
          [
            36.8292505,
            -1.2241711
          ],
          [
            36.8294777,
            -1.2237546
          ],
          [
            36.8297982,
            -1.2232063
          ],
          [
            36.8299527,
            -1.222938
          ],
          [
            36.8299746,
            -1.2229
          ],
          [
            36.8301053,
            -1.2226724
          ],
          [
            36.8301801,
            -1.2225189
          ],
          [
            36.8304065,
            -1.2221025
          ]
        ]
      }
    },
    {
      "type": "Feature",
      "id": "way/25064114",
      "properties": {
        "way_id": 25064114,
        "way_version": 6,
        "node_ids": [
          272710031,
          12133566619,
          12133566617,
          272710032,
          272710033,
          272710034,
          6274674851,
          6274674853,
          6274674852,
          272710146
        ],
        "highway": "residential",
        "name": "Acacia Drive"
      },
      "geometry": {
        "type": "LineString",
        "coordinates": [
          [
            36.8240502,
            -1.2225124
          ],
          [
            36.8239397,
            -1.2230527
          ],
          [
            36.8236843,
            -1.2242469
          ],
          [
            36.8233254,
            -1.2259482
          ],
          [
            36.8233207,
            -1.2260126
          ],
          [
            36.8233314,
            -1.2260649
          ],
          [
            36.8233515,
            -1.2261111
          ],
          [
            36.8233891,
            -1.2261547
          ],
          [
            36.8234441,
            -1.2261936
          ],
          [
            36.8244176,
            -1.2266655
          ]
        ]
      }
    },
    {
      "type": "Feature",
      "id": "way/25064123",
      "properties": {
        "way_id": 25064123,
        "way_version": 4,
        "node_ids": [
          272710146,
          6823211581,
          824518872
        ],
        "highway": "residential",
        "name": "Bombax Close"
      },
      "geometry": {
        "type": "LineString",
        "coordinates": [
          [
            36.8244176,
            -1.2266655
          ],
          [
            36.824557,
            -1.2260328
          ],
          [
            36.8250666,
            -1.2235525
          ]
        ]
      }
    },
    {
      "type": "Feature",
      "id": "way/25704222",
      "properties": {
        "way_id": 25704222,
        "way_version": 8,
        "node_ids": [
          1054548457,
          6295788675,
          6274674842,
          1054548459,
          280243471,
          6823211579,
          8527146473,
          280243472
        ],
        "highway": "residential",
        "name": "Flame Tree Drive"
      },
      "geometry": {
        "type": "LineString",
        "coordinates": [
          [
            36.8280454,
            -1.2188983
          ],
          [
            36.8274436,
            -1.2196897
          ],
          [
            36.8270744,
            -1.2202109
          ],
          [
            36.8262818,
            -1.2213198
          ],
          [
            36.8261974,
            -1.2214512
          ],
          [
            36.8259527,
            -1.2217973
          ],
          [
            36.8253254,
            -1.2226846
          ],
          [
            36.8250333,
            -1.2230977
          ]
        ]
      }
    },
    {
      "type": "Feature",
      "id": "way/25704232",
      "properties": {
        "way_id": 25704232,
        "way_version": 3,
        "node_ids": [
          6274674846,
          6274674847,
          6274674848,
          6274674845,
          6274674849,
          280243625,
          280243626
        ],
        "highway": "residential",
        "name": "Cypress Close"
      },
      "geometry": {
        "type": "LineString",
        "coordinates": [
          [
            36.8265413,
            -1.2258932
          ],
          [
            36.8263918,
            -1.2261835
          ],
          [
            36.8263811,
            -1.2261947
          ],
          [
            36.8263719,
            -1.2262008
          ],
          [
            36.8263621,
            -1.2262036
          ],
          [
            36.8263479,
            -1.2262039
          ],
          [
            36.8258213,
            -1.2260501
          ]
        ]
      }
    },
    {
      "type": "Feature",
      "id": "way/42122911",
      "properties": {
        "way_id": 42122911,
        "way_version": 4,
        "node_ids": [
          2464781616,
          6276233336,
          6276233337,
          6276233338,
          6276233339,
          523698161,
          8526822651,
          8526822652,
          8526822655,
          8526822657,
          8526822658,
          8526822661,
          272328380
        ],
        "highway": "residential",
        "name": "Ebony Street"
      },
      "geometry": {
        "type": "LineString",
        "coordinates": [
          [
            36.8313459,
            -1.2258677
          ],
          [
            36.8313123,
            -1.2258738
          ],
          [
            36.8312862,
            -1.2258771
          ],
          [
            36.8312547,
            -1.2258711
          ],
          [
            36.8312178,
            -1.2258557
          ],
          [
            36.8305793,
            -1.2255075
          ],
          [
            36.830539,
            -1.2254778
          ],
          [
            36.830162,
            -1.2252767
          ],
          [
            36.8298398,
            -1.225094
          ],
          [
            36.8297815,
            -1.2250631
          ],
          [
            36.8295333,
            -1.2249457
          ],
          [
            36.8294554,
            -1.2249185
          ],
          [
            36.8289922,
            -1.224645
          ]
        ]
      }
    },
    {
      "type": "Feature",
      "id": "way/68577389",
      "properties": {
        "way_id": 68577389,
        "way_version": 2,
        "node_ids": [
          824518756,
          824518758
        ],
        "highway": "residential",
        "name": "Cactus Lane",
        "source:maxspeed": "KE:urban"
      },
      "geometry": {
        "type": "LineString",
        "coordinates": [
          [
            36.8287281,
            -1.2238776
          ],
          [
            36.8292505,
            -1.2241711
          ]
        ]
      }
    },
    {
      "type": "Feature",
      "id": "way/68577396",
      "properties": {
        "way_id": 68577396,
        "way_version": 8,
        "node_ids": [
          272328483,
          6274775485,
          272328484,
          6604144522,
          824518754,
          272328485,
          9647816531,
          8527146452,
          8527146459,
          8527146454,
          8527146469,
          260382944
        ],
        "highway": "tertiary",
        "name": "Duom Palm Tree Road"
      },
      "geometry": {
        "type": "LineString",
        "coordinates": [
          [
            36.8287527,
            -1.2216004
          ],
          [
            36.8287364,
            -1.2216174
          ],
          [
            36.828665,
            -1.2217287
          ],
          [
            36.8285691,
            -1.2218889
          ],
          [
            36.828427,
            -1.2221274
          ],
          [
            36.8280497,
            -1.2228244
          ],
          [
            36.827775,
            -1.2232867
          ],
          [
            36.827514,
            -1.223746
          ],
          [
            36.8273583,
            -1.2240201
          ],
          [
            36.8273289,
            -1.2240688
          ],
          [
            36.8271027,
            -1.2244698
          ],
          [
            36.8269786,
            -1.2246993
          ]
        ]
      }
    },
    {
      "type": "Feature",
      "id": "way/68577401",
      "properties": {
        "way_id": 68577401,
        "way_version": 3,
        "node_ids": [
          824518802,
          824518753,
          8527146461,
          824518804
        ],
        "highway": "residential",
        "name": "Daisy Road"
      },
      "geometry": {
        "type": "LineString",
        "coordinates": [
          [
            36.8262474,
            -1.2232157
          ],
          [
            36.8274792,
            -1.2214407
          ],
          [
            36.8280122,
            -1.2206987
          ],
          [
            36.8289368,
            -1.2193894
          ]
        ]
      }
    },
    {
      "type": "Feature",
      "id": "way/68577402",
      "properties": {
        "way_id": 68577402,
        "way_version": 1,
        "node_ids": [
          824518810,
          824518811
        ],
        "highway": "residential",
        "name": "Cedar Close"
      },
      "geometry": {
        "type": "LineString",
        "coordinates": [
          [
            36.8267699,
            -1.224963
          ],
          [
            36.8260824,
            -1.2247575
          ]
        ]
      }
    },
    {
      "type": "Feature",
      "id": "way/68577404",
      "properties": {
        "way_id": 68577404,
        "way_version": 6,
        "node_ids": [
          272710146,
          8527203909,
          272710035,
          6274674850,
          272710036,
          272710037,
          272710038,
          6823211582,
          280243626,
          10698700830,
          8527146447,
          824518811,
          260382945
        ],
        "highway": "residential",
        "name": "Camphor Road"
      },
      "geometry": {
        "type": "LineString",
        "coordinates": [
          [
            36.8244176,
            -1.2266655
          ],
          [
            36.8254055,
            -1.2271548
          ],
          [
            36.8254748,
            -1.2271891
          ],
          [
            36.825508,
            -1.2271968
          ],
          [
            36.8255385,
            -1.2271911
          ],
          [
            36.8255603,
            -1.2271774
          ],
          [
            36.8255758,
            -1.2271576
          ],
          [
            36.825706,
            -1.2265702
          ],
          [
            36.8258213,
            -1.2260501
          ],
          [
            36.8259615,
            -1.2253561
          ],
          [
            36.8260398,
            -1.2249682
          ],
          [
            36.8260824,
            -1.2247575
          ],
          [
            36.8262564,
            -1.2238941
          ]
        ]
      }
    },
    {
      "type": "Feature",
      "id": "way/93671276",
      "properties": {
        "way_id": 93671276,
        "way_version": 4,
        "node_ids": [
          1087098238,
          1087098248,
          6274743081,
          6274743080,
          6274743079,
          6274743078,
          6274743077
        ],
        "highway": "residential",
        "name": "Mae Drive"
      },
      "geometry": {
        "type": "LineString",
        "coordinates": [
          [
            36.8199013,
            -1.222643
          ],
          [
            36.8202071,
            -1.2233148
          ],
          [
            36.8203233,
            -1.2235938
          ],
          [
            36.8203421,
            -1.2236152
          ],
          [
            36.8203676,
            -1.2236286
          ],
          [
            36.8204051,
            -1.22363
          ],
          [
            36.8206103,
            -1.2236125
          ]
        ]
      }
    },
    {
      "type": "Feature",
      "id": "way/142777586",
      "properties": {
        "way_id": 142777586,
        "way_version": 9,
        "node_ids": [
          2847949523,
          12330726060
        ],
        "bridge": "yes",
        "highway": "footway",
        "layer": "1",
        "name": "Tara Path",
        "surface": "dirt"
      },
      "geometry": {
        "type": "LineString",
        "coordinates": [
          [
            36.8283058,
            -1.2288142
          ],
          [
            36.8282662,
            -1.2287508
          ]
        ]
      }
    },
    {
      "type": "Feature",
      "id": "way/226153334",
      "properties": {
        "way_id": 226153334,
        "way_version": 2,
        "node_ids": [
          2350034381,
          2350034382
        ],
        "highway": "service"
      },
      "geometry": {
        "type": "LineString",
        "coordinates": [
          [
            36.8232078,
            -1.2234077
          ],
          [
            36.8234816,
            -1.2221336
          ]
        ]
      }
    },
    {
      "type": "Feature",
      "id": "way/259343109",
      "properties": {
        "way_id": 259343109,
        "way_version": 4,
        "node_ids": [
          8526822677,
          12341184249,
          12341184250,
          8526822676,
          2647386428,
          2647386429,
          6276250138,
          2647386430
        ],
        "highway": "residential"
      },
      "geometry": {
        "type": "LineString",
        "coordinates": [
          [
            36.8276256,
            -1.2286097
          ],
          [
            36.8276377,
            -1.2285423
          ],
          [
            36.8276726,
            -1.2284424
          ],
          [
            36.8277463,
            -1.2282504
          ],
          [
            36.8277664,
            -1.2281882
          ],
          [
            36.8279301,
            -1.2275317
          ],
          [
            36.8279715,
            -1.2273202
          ],
          [
            36.828436,
            -1.2257164
          ]
        ]
      }
    },
    {
      "type": "Feature",
      "id": "way/280720874",
      "properties": {
        "way_id": 280720874,
        "way_version": 4,
        "node_ids": [
          2847824306,
          2847824359,
          2847824360,
          2847824361,
          2847824362,
          2847824363,
          2847824364,
          2847824352,
          2847824365,
          2847824366,
          2847824367,
          2847824368,
          2847824369,
          6503767355,
          2847824370,
          2847824371,
          2847824353,
          2847824372,
          2847824373,
          2847824374,
          2847824375,
          2847824376,
          2847824377,
          2847824378,
          2847824379,
          2847824380,
          2847824381,
          2847824382,
          2847824383,
          2847824384,
          2847824385,
          2847824386,
          2847824387,
          2847824388,
          2847824389,
          6503768695,
          2847824390,
          2847824391,
          2847824392,
          2847824393,
          2847824354,
          2847824394,
          2847824395,
          2847824396,
          2847824397,
          2847824355,
          2847824398,
          2847824399,
          2847824400,
          2847824401,
          2847824402,
          2847824403,
          2847824404,
          2847824405,
          2847824406,
          2847824407,
          2847824356,
          2847824408,
          2847824409,
          2847824411,
          2847824412,
          2847824413,
          2847824414,
          2847824415,
          2847824357,
          2847824416,
          2847824417,
          2847824418,
          2847824419,
          2847824420,
          2847824421,
          2847824422,
          2847824423,
          2847824358,
          2847824424,
          2847824425,
          6503768690,
          2847824426,
          2847824427,
          2847824428,
          2847949514
        ],
        "bicycle": "yes",
        "highway": "path",
        "name": "Muhuga Trail",
        "surface": "dirt"
      },
      "geometry": {
        "type": "LineString",
        "coordinates": [
          [
            36.8434199,
            -1.2376245
          ],
          [
            36.8432069,
            -1.2376485
          ],
          [
            36.8430629,
            -1.2376405
          ],
          [
            36.8426659,
            -1.2376555
          ],
          [
            36.8422219,
            -1.2377965
          ],
          [
            36.842066,
            -1.237836
          ],
          [
            36.8418393,
            -1.2379139
          ],
          [
            36.8416026,
            -1.2379466
          ],
          [
            36.8412764,
            -1.2378659
          ],
          [
            36.8410279,
            -1.2377005
          ],
          [
            36.8408779,
            -1.2376015
          ],
          [
            36.8405699,
            -1.2375035
          ],
          [
            36.8404999,
            -1.2374955
          ],
          [
            36.8404422,
            -1.23741
          ],
          [
            36.8404001,
            -1.2373922
          ],
          [
            36.8402702,
            -1.2372916
          ],
          [
            36.8401613,
            -1.2372256
          ],
          [
            36.8399879,
            -1.2370635
          ],
          [
            36.8398439,
            -1.2369065
          ],
          [
            36.8397109,
            -1.2368535
          ],
          [
            36.8396229,
            -1.2367925
          ],
          [
            36.8395529,
            -1.2367735
          ],
          [
            36.8394279,
            -1.2367025
          ],
          [
            36.8392919,
            -1.2366535
          ],
          [
            36.8391819,
            -1.2365635
          ],
          [
            36.8390759,
            -1.2365425
          ],
          [
            36.8389449,
            -1.2364835
          ],
          [
            36.8386369,
            -1.2362955
          ],
          [
            36.8385389,
            -1.2361915
          ],
          [
            36.8383639,
            -1.2360635
          ],
          [
            36.8383039,
            -1.2359855
          ],
          [
            36.8382679,
            -1.2359865
          ],
          [
            36.8381739,
            -1.2359325
          ],
          [
            36.8381009,
            -1.2358535
          ],
          [
            36.8378389,
            -1.2356635
          ],
          [
            36.8376661,
            -1.2355053
          ],
          [
            36.8374949,
            -1.2353485
          ],
          [
            36.8374299,
            -1.2353185
          ],
          [
            36.8372919,
            -1.2352025
          ],
          [
            36.8371549,
            -1.2351565
          ],
          [
            36.8370029,
            -1.2350635
          ],
          [
            36.8366979,
            -1.2349545
          ],
          [
            36.8360599,
            -1.2348355
          ],
          [
            36.8358189,
            -1.2347715
          ],
          [
            36.8355709,
            -1.2347515
          ],
          [
            36.8347919,
            -1.2346055
          ],
          [
            36.8346259,
            -1.2345355
          ],
          [
            36.8343709,
            -1.2344005
          ],
          [
            36.8343379,
            -1.2343395
          ],
          [
            36.8342079,
            -1.2342815
          ],
          [
            36.8340039,
            -1.2341335
          ],
          [
            36.8337789,
            -1.2340205
          ],
          [
            36.8335979,
            -1.2339005
          ],
          [
            36.8333079,
            -1.2336325
          ],
          [
            36.8330499,
            -1.2333315
          ],
          [
            36.8329669,
            -1.2332145
          ],
          [
            36.8326519,
            -1.2328715
          ],
          [
            36.8324269,
            -1.2326925
          ],
          [
            36.8321879,
            -1.2325325
          ],
          [
            36.8320749,
            -1.2324515
          ],
          [
            36.8318989,
            -1.2322735
          ],
          [
            36.8317599,
            -1.2321575
          ],
          [
            36.8313549,
            -1.2316105
          ],
          [
            36.8312529,
            -1.2314195
          ],
          [
            36.8310789,
            -1.2309875
          ],
          [
            36.8308699,
            -1.2306955
          ],
          [
            36.8306829,
            -1.2305255
          ],
          [
            36.8305019,
            -1.2304095
          ],
          [
            36.8304269,
            -1.2303315
          ],
          [
            36.8301289,
            -1.2301285
          ],
          [
            36.8299979,
            -1.2300105
          ],
          [
            36.8298079,
            -1.2299075
          ],
          [
            36.8296739,
            -1.2298535
          ],
          [
            36.8293929,
            -1.2297885
          ],
          [
            36.8292489,
            -1.2297725
          ],
          [
            36.8289239,
            -1.2297715
          ],
          [
            36.8285638,
            -1.2298029
          ],
          [
            36.8277759,
            -1.2298715
          ],
          [
            36.8274879,
            -1.2298515
          ],
          [
            36.8273334,
            -1.2298323
          ],
          [
            36.8271996,
            -1.2298171
          ]
        ]
      }
    },
    {
      "type": "Feature",
      "id": "way/280734650",
      "properties": {
        "way_id": 280734650,
        "way_version": 4,
        "node_ids": [
          2847949514,
          2847949715,
          2847949716,
          2847949718,
          2847949720,
          2847949721,
          2847949722,
          2847949723,
          2847949724,
          2847949725,
          2847949726,
          2847949727,
          2847949728,
          2847949729,
          2847949730,
          2847949731,
          2847949706,
          2847949732,
          2847949733,
          2847949734,
          2847949735,
          2847949736,
          2847949737,
          2847949738,
          2847949714,
          13768011707,
          2847949753,
          2847949757,
          9923907711,
          9923907712,
          9923907713,
          2847949763,
          2847949794,
          2847949713
        ],
        "highway": "path"
      },
      "geometry": {
        "type": "LineString",
        "coordinates": [
          [
            36.8271996,
            -1.2298171
          ],
          [
            36.8270737,
            -1.2297969
          ],
          [
            36.8269087,
            -1.2297239
          ],
          [
            36.8265627,
            -1.2295399
          ],
          [
            36.8263467,
            -1.2294119
          ],
          [
            36.8258438,
            -1.2291073
          ],
          [
            36.8255877,
            -1.2289369
          ],
          [
            36.8253907,
            -1.2288479
          ],
          [
            36.8251612,
            -1.2287296
          ],
          [
            36.8247616,
            -1.2285586
          ],
          [
            36.8246387,
            -1.2285129
          ],
          [
            36.8245076,
            -1.2283446
          ],
          [
            36.824408,
            -1.2282627
          ],
          [
            36.8242764,
            -1.2281909
          ],
          [
            36.8241087,
            -1.2281493
          ],
          [
            36.8239025,
            -1.2280997
          ],
          [
            36.823677,
            -1.2280123
          ],
          [
            36.8235504,
            -1.2279662
          ],
          [
            36.8233817,
            -1.2278749
          ],
          [
            36.8232487,
            -1.2278189
          ],
          [
            36.8228697,
            -1.2276109
          ],
          [
            36.8227257,
            -1.2275069
          ],
          [
            36.8225947,
            -1.2274469
          ],
          [
            36.8224447,
            -1.2273479
          ],
          [
            36.8222417,
            -1.2272829
          ],
          [
            36.819501,
            -1.2254952
          ],
          [
            36.8186267,
            -1.2249249
          ],
          [
            36.8181397,
            -1.2246807
          ],
          [
            36.8176352,
            -1.2244254
          ],
          [
            36.8174269,
            -1.224502
          ],
          [
            36.8173094,
            -1.2247734
          ],
          [
            36.8172858,
            -1.2251882
          ],
          [
            36.8178304,
            -1.2285308
          ],
          [
            36.8195703,
            -1.230029
          ]
        ]
      }
    },
    {
      "type": "Feature",
      "id": "way/280734651",
      "properties": {
        "way_id": 280734651,
        "way_version": 2,
        "node_ids": [
          2847949713,
          2847949913,
          2847949714
        ],
        "highway": "path"
      },
      "geometry": {
        "type": "LineString",
        "coordinates": [
          [
            36.8195703,
            -1.230029
          ],
          [
            36.8205432,
            -1.2290341
          ],
          [
            36.8222417,
            -1.2272829
          ]
        ]
      }
    },
    {
      "type": "Feature",
      "id": "way/280734652",
      "properties": {
        "way_id": 280734652,
        "way_version": 4,
        "node_ids": [
          2847949913,
          2847949918,
          13556268409,
          2847949919,
          11952065150,
          6503768724,
          2847949507
        ],
        "highway": "path"
      },
      "geometry": {
        "type": "LineString",
        "coordinates": [
          [
            36.8205432,
            -1.2290341
          ],
          [
            36.8217208,
            -1.2299801
          ],
          [
            36.8218877,
            -1.2300526
          ],
          [
            36.8221328,
            -1.2300259
          ],
          [
            36.8236479,
            -1.2308488
          ],
          [
            36.8252438,
            -1.2315511
          ],
          [
            36.826647,
            -1.232239
          ]
        ]
      }
    },
    {
      "type": "Feature",
      "id": "way/554659752",
      "properties": {
        "way_id": 554659752,
        "way_version": 2,
        "node_ids": [
          5352689842,
          5352689843
        ],
        "highway": "service"
      },
      "geometry": {
        "type": "LineString",
        "coordinates": [
          [
            36.8168332,
            -1.2260516
          ],
          [
            36.8162261,
            -1.2261821
          ]
        ]
      }
    },
    {
      "type": "Feature",
      "id": "way/658223802",
      "properties": {
        "way_id": 658223802,
        "way_version": 8,
        "node_ids": [
          6164115701,
          6164115704,
          272328872,
          272328873,
          272328875,
          272328876,
          6274732002,
          272328877,
          272328878,
          272328879,
          6274732003,
          272328880,
          272328881,
          272328882,
          272328883,
          272328884,
          2647386430,
          272328885,
          8526822672,
          272328886,
          272328887,
          12199176125,
          12199176126,
          260382944
        ],
        "access": "yes",
        "highway": "residential",
        "name": "Tara Road"
      },
      "geometry": {
        "type": "LineString",
        "coordinates": [
          [
            36.8360759,
            -1.2301086
          ],
          [
            36.8359086,
            -1.2300517
          ],
          [
            36.835496,
            -1.2299097
          ],
          [
            36.8350394,
            -1.2296954
          ],
          [
            36.8344654,
            -1.2292898
          ],
          [
            36.8336132,
            -1.228626
          ],
          [
            36.833094,
            -1.2281987
          ],
          [
            36.8325515,
            -1.2277517
          ],
          [
            36.831992,
            -1.2272815
          ],
          [
            36.8314505,
            -1.2268638
          ],
          [
            36.8313425,
            -1.2267989
          ],
          [
            36.8311829,
            -1.2267129
          ],
          [
            36.8307839,
            -1.2265448
          ],
          [
            36.83008,
            -1.226296
          ],
          [
            36.8292303,
            -1.2260042
          ],
          [
            36.8285008,
            -1.2257468
          ],
          [
            36.828436,
            -1.2257164
          ],
          [
            36.8278321,
            -1.2254078
          ],
          [
            36.8274951,
            -1.2251788
          ],
          [
            36.8274345,
            -1.2251377
          ],
          [
            36.827228,
            -1.2249345
          ],
          [
            36.8271495,
            -1.2249118
          ],
          [
            36.8270557,
            -1.2248233
          ],
          [
            36.8269786,
            -1.2246993
          ]
        ]
      }
    },
    {
      "type": "Feature",
      "id": "way/670197040",
      "properties": {
        "way_id": 670197040,
        "way_version": 2,
        "node_ids": [
          6276250138,
          6276250137,
          8526822675,
          8526822674,
          8526822673
        ],
        "highway": "residential"
      },
      "geometry": {
        "type": "LineString",
        "coordinates": [
          [
            36.8279715,
            -1.2273202
          ],
          [
            36.8273534,
            -1.2272548
          ],
          [
            36.8272823,
            -1.2272501
          ],
          [
            36.8272126,
            -1.2272501
          ],
          [
            36.827065,
            -1.2272608
          ]
        ]
      }
    },
    {
      "type": "Feature",
      "id": "way/692748281",
      "properties": {
        "way_id": 692748281,
        "way_version": 3,
        "node_ids": [
          2847949919,
          6503768689,
          13556268410,
          2847949726
        ],
        "highway": "path",
        "surface": "dirt"
      },
      "geometry": {
        "type": "LineString",
        "coordinates": [
          [
            36.8221328,
            -1.2300259
          ],
          [
            36.8225108,
            -1.2291571
          ],
          [
            36.8236087,
            -1.2287385
          ],
          [
            36.8246387,
            -1.2285129
          ]
        ]
      }
    },
    {
      "type": "Feature",
      "id": "way/692748282",
      "properties": {
        "way_id": 692748282,
        "way_version": 2,
        "node_ids": [
          6503768690,
          6503768691,
          12330726052,
          6503768692,
          747730055
        ],
        "highway": "footway",
        "surface": "dirt"
      },
      "geometry": {
        "type": "LineString",
        "coordinates": [
          [
            36.8285638,
            -1.2298029
          ],
          [
            36.8285443,
            -1.2296272
          ],
          [
            36.8286087,
            -1.2293739
          ],
          [
            36.8285532,
            -1.2292032
          ],
          [
            36.8283857,
            -1.2289647
          ]
        ]
      }
    },
    {
      "type": "Feature",
      "id": "way/728125308",
      "properties": {
        "way_id": 728125308,
        "way_version": 1,
        "node_ids": [
          6823211581,
          6823211582
        ],
        "highway": "residential"
      },
      "geometry": {
        "type": "LineString",
        "coordinates": [
          [
            36.824557,
            -1.2260328
          ],
          [
            36.825706,
            -1.2265702
          ]
        ]
      }
    },
    {
      "type": "Feature",
      "id": "way/787082435",
      "properties": {
        "way_id": 787082435,
        "way_version": 1,
        "node_ids": [
          523698161,
          7358275394,
          7358275393,
          7358275392,
          7358275391,
          7358275390
        ],
        "highway": "service"
      },
      "geometry": {
        "type": "LineString",
        "coordinates": [
          [
            36.8305793,
            -1.2255075
          ],
          [
            36.8308184,
            -1.2250659
          ],
          [
            36.8308404,
            -1.2250453
          ],
          [
            36.8308912,
            -1.2250151
          ],
          [
            36.8309254,
            -1.2249594
          ],
          [
            36.8309636,
            -1.224893
          ]
        ]
      }
    },
    {
      "type": "Feature",
      "id": "way/826489071",
      "properties": {
        "way_id": 826489071,
        "way_version": 2,
        "node_ids": [
          7716741669,
          7716741668,
          7716741667,
          833938428
        ],
        "highway": "residential",
        "name": "Ansellia Close",
        "source": "digitalglobe"
      },
      "geometry": {
        "type": "LineString",
        "coordinates": [
          [
            36.8172408,
            -1.22723
          ],
          [
            36.816768,
            -1.2268854
          ],
          [
            36.8167278,
            -1.2268586
          ],
          [
            36.8167037,
            -1.2268152
          ]
        ]
      }
    },
    {
      "type": "Feature",
      "id": "way/916129598",
      "properties": {
        "way_id": 916129598,
        "way_version": 1,
        "node_ids": [
          8509320917,
          8509265216,
          8509265215,
          8509265211,
          8509265214,
          8509265213,
          8509265212
        ],
        "highway": "service"
      },
      "geometry": {
        "type": "LineString",
        "coordinates": [
          [
            36.8169879,
            -1.2296291
          ],
          [
            36.8170162,
            -1.2292573
          ],
          [
            36.8170229,
            -1.22891
          ],
          [
            36.8170242,
            -1.2288108
          ],
          [
            36.8170081,
            -1.2287746
          ],
          [
            36.8169813,
            -1.2287599
          ],
          [
            36.8168633,
            -1.2287759
          ]
        ]
      }
    },
    {
      "type": "Feature",
      "id": "way/916129599",
      "properties": {
        "way_id": 916129599,
        "way_version": 1,
        "node_ids": [
          8509320919,
          8509320918
        ],
        "highway": "service"
      },
      "geometry": {
        "type": "LineString",
        "coordinates": [
          [
            36.8176342,
            -1.2297612
          ],
          [
            36.8176706,
            -1.2293257
          ]
        ]
      }
    },
    {
      "type": "Feature",
      "id": "way/916129600",
      "properties": {
        "way_id": 916129600,
        "way_version": 1,
        "node_ids": [
          8509320925,
          8509320924,
          8509320923,
          8509320922,
          8509320921,
          8509320920
        ],
        "highway": "service"
      },
      "geometry": {
        "type": "LineString",
        "coordinates": [
          [
            36.8175602,
            -1.2297461
          ],
          [
            36.8175928,
            -1.2293404
          ],
          [
            36.8175955,
            -1.2292627
          ],
          [
            36.8175794,
            -1.2292144
          ],
          [
            36.8175405,
            -1.229201
          ],
          [
            36.8174788,
            -1.2292023
          ]
        ]
      }
    },
    {
      "type": "Feature",
      "id": "way/918091214",
      "properties": {
        "way_id": 918091214,
        "way_version": 1,
        "node_ids": [
          8526822651,
          8526822650
        ],
        "highway": "service"
      },
      "geometry": {
        "type": "LineString",
        "coordinates": [
          [
            36.830539,
            -1.2254778
          ],
          [
            36.8308233,
            -1.2249574
          ]
        ]
      }
    },
    {
      "type": "Feature",
      "id": "way/918091215",
      "properties": {
        "way_id": 918091215,
        "way_version": 1,
        "node_ids": [
          8526822653,
          8526822652
        ],
        "highway": "service"
      },
      "geometry": {
        "type": "LineString",
        "coordinates": [
          [
            36.82987,
            -1.2258098
          ],
          [
            36.830162,
            -1.2252767
          ]
        ]
      }
    },
    {
      "type": "Feature",
      "id": "way/918091216",
      "properties": {
        "way_id": 918091216,
        "way_version": 1,
        "node_ids": [
          8526822655,
          8526822654
        ],
        "highway": "service"
      },
      "geometry": {
        "type": "LineString",
        "coordinates": [
          [
            36.8298398,
            -1.225094
          ],
          [
            36.8301201,
            -1.2245953
          ]
        ]
      }
    },
    {
      "type": "Feature",
      "id": "way/918091217",
      "properties": {
        "way_id": 918091217,
        "way_version": 1,
        "node_ids": [
          8526822657,
          8526822656
        ],
        "highway": "service"
      },
      "geometry": {
        "type": "LineString",
        "coordinates": [
          [
            36.8297815,
            -1.2250631
          ],
          [
            36.830104,
            -1.2245015
          ]
        ]
      }
    },
    {
      "type": "Feature",
      "id": "way/918091218",
      "properties": {
        "way_id": 918091218,
        "way_version": 1,
        "node_ids": [
          8526822659,
          8526822658
        ],
        "highway": "service"
      },
      "geometry": {
        "type": "LineString",
        "coordinates": [
          [
            36.8292726,
            -1.225635
          ],
          [
            36.8295333,
            -1.2249457
          ]
        ]
      }
    },
    {
      "type": "Feature",
      "id": "way/918091219",
      "properties": {
        "way_id": 918091219,
        "way_version": 1,
        "node_ids": [
          8526822661,
          8526822660
        ],
        "highway": "service"
      },
      "geometry": {
        "type": "LineString",
        "coordinates": [
          [
            36.8294554,
            -1.2249185
          ],
          [
            36.8292448,
            -1.2255195
          ]
        ]
      }
    },
    {
      "type": "Feature",
      "id": "way/918091220",
      "properties": {
        "way_id": 918091220,
        "way_version": 1,
        "node_ids": [
          272328272,
          8526822666,
          8526822665,
          8526822664,
          8526822663,
          8526822662
        ],
        "highway": "service"
      },
      "geometry": {
        "type": "LineString",
        "coordinates": [
          [
            36.828614,
            -1.2249667
          ],
          [
            36.828555,
            -1.2252805
          ],
          [
            36.828559,
            -1.22531
          ],
          [
            36.8285698,
            -1.2253314
          ],
          [
            36.8285845,
            -1.2253435
          ],
          [
            36.8287817,
            -1.2254186
          ]
        ]
      }
    },
    {
      "type": "Feature",
      "id": "way/918091221",
      "properties": {
        "way_id": 918091221,
        "way_version": 1,
        "node_ids": [
          8526822672,
          8526822671,
          8526822670,
          8526822669,
          8526822668,
          8526822667
        ],
        "highway": "service"
      },
      "geometry": {
        "type": "LineString",
        "coordinates": [
          [
            36.8274951,
            -1.2251788
          ],
          [
            36.8273668,
            -1.225798
          ],
          [
            36.8273681,
            -1.2258275
          ],
          [
            36.8273802,
            -1.2258423
          ],
          [
            36.827403,
            -1.225857
          ],
          [
            36.8278778,
            -1.225963
          ]
        ]
      }
    },
    {
      "type": "Feature",
      "id": "way/918095143",
      "properties": {
        "way_id": 918095143,
        "way_version": 1,
        "node_ids": [
          8526861857,
          8526861856,
          8526861855,
          8526861854,
          8526861853,
          8526861852
        ],
        "highway": "service"
      },
      "geometry": {
        "type": "LineString",
        "coordinates": [
          [
            36.8293357,
            -1.2236613
          ],
          [
            36.8292618,
            -1.223764
          ],
          [
            36.8292403,
            -1.2237734
          ],
          [
            36.8292162,
            -1.2237775
          ],
          [
            36.829192,
            -1.2237775
          ],
          [
            36.8290123,
            -1.2236689
          ]
        ]
      }
    },
    {
      "type": "Feature",
      "id": "way/918095144",
      "properties": {
        "way_id": 918095144,
        "way_version": 1,
        "node_ids": [
          6274743996,
          8526861857,
          8526861864,
          8526861863,
          8526861862,
          8526861861,
          8526861860,
          8526861859,
          8526861858
        ],
        "highway": "service"
      },
      "geometry": {
        "type": "LineString",
        "coordinates": [
          [
            36.8294777,
            -1.2237546
          ],
          [
            36.8293357,
            -1.2236613
          ],
          [
            36.829235,
            -1.2235951
          ],
          [
            36.8292283,
            -1.2235723
          ],
          [
            36.8292296,
            -1.2235482
          ],
          [
            36.8294683,
            -1.2231459
          ],
          [
            36.8294723,
            -1.2231191
          ],
          [
            36.829467,
            -1.223091
          ],
          [
            36.8294133,
            -1.2230038
          ]
        ]
      }
    },
    {
      "type": "Feature",
      "id": "way/918095146",
      "properties": {
        "way_id": 918095146,
        "way_version": 1,
        "node_ids": [
          8526861868,
          8526861867
        ],
        "highway": "service"
      },
      "geometry": {
        "type": "LineString",
        "coordinates": [
          [
            36.8299527,
            -1.222938
          ],
          [
            36.8302582,
            -1.2230548
          ]
        ]
      }
    },
    {
      "type": "Feature",
      "id": "way/918095147",
      "properties": {
        "way_id": 918095147,
        "way_version": 1,
        "node_ids": [
          8526861870,
          8526861869
        ],
        "highway": "service"
      },
      "geometry": {
        "type": "LineString",
        "coordinates": [
          [
            36.8309878,
            -1.2244961
          ],
          [
            36.8312545,
            -1.2240127
          ]
        ]
      }
    },
    {
      "type": "Feature",
      "id": "way/918095148",
      "properties": {
        "way_id": 918095148,
        "way_version": 1,
        "node_ids": [
          8526861872,
          8526861871
        ],
        "highway": "service"
      },
      "geometry": {
        "type": "LineString",
        "coordinates": [
          [
            36.8310267,
            -1.2245551
          ],
          [
            36.8312986,
            -1.2240371
          ]
        ]
      }
    },
    {
      "type": "Feature",
      "id": "way/918121791",
      "properties": {
        "way_id": 918121791,
        "way_version": 1,
        "node_ids": [
          8527146447,
          8527146446,
          8527146445,
          8527146444,
          8527146443,
          8527146442,
          8527146441
        ],
        "highway": "service"
      },
      "geometry": {
        "type": "LineString",
        "coordinates": [
          [
            36.8260398,
            -1.2249682
          ],
          [
            36.8257736,
            -1.224838
          ],
          [
            36.8257374,
            -1.2248367
          ],
          [
            36.8256998,
            -1.2248528
          ],
          [
            36.8256448,
            -1.2248783
          ],
          [
            36.8256126,
            -1.2248863
          ],
          [
            36.8255201,
            -1.224885
          ]
        ]
      }
    },
    {
      "type": "Feature",
      "id": "way/918121792",
      "properties": {
        "way_id": 918121792,
        "way_version": 2,
        "node_ids": [
          8527146452,
          8527146451,
          8527146450,
          8527146449,
          8527146448
        ],
        "highway": "service"
      },
      "geometry": {
        "type": "LineString",
        "coordinates": [
          [
            36.827514,
            -1.223746
          ],
          [
            36.8270583,
            -1.2234932
          ],
          [
            36.8270368,
            -1.2234476
          ],
          [
            36.8270249,
            -1.2234061
          ],
          [
            36.8270423,
            -1.223343
          ]
        ]
      }
    },
    {
      "type": "Feature",
      "id": "way/918121793",
      "properties": {
        "way_id": 918121793,
        "way_version": 1,
        "node_ids": [
          8527146454,
          8527146453
        ],
        "highway": "service"
      },
      "geometry": {
        "type": "LineString",
        "coordinates": [
          [
            36.8273289,
            -1.2240688
          ],
          [
            36.8268532,
            -1.223756
          ]
        ]
      }
    },
    {
      "type": "Feature",
      "id": "way/918121794",
      "properties": {
        "way_id": 918121794,
        "way_version": 1,
        "node_ids": [
          8527146459,
          8527146458,
          8527146457,
          8527146456,
          8527146455
        ],
        "highway": "service"
      },
      "geometry": {
        "type": "LineString",
        "coordinates": [
          [
            36.8273583,
            -1.2240201
          ],
          [
            36.8268961,
            -1.2237225
          ],
          [
            36.8266278,
            -1.2235683
          ],
          [
            36.8265997,
            -1.2235629
          ],
          [
            36.8265621,
            -1.2235683
          ]
        ]
      }
    },
    {
      "type": "Feature",
      "id": "way/918121797",
      "properties": {
        "way_id": 918121797,
        "way_version": 1,
        "node_ids": [
          8527146469,
          8527146468,
          8527146467,
          8527146466,
          8527146465
        ],
        "highway": "service"
      },
      "geometry": {
        "type": "LineString",
        "coordinates": [
          [
            36.8271027,
            -1.2244698
          ],
          [
            36.8272474,
            -1.2245404
          ],
          [
            36.8273078,
            -1.2245779
          ],
          [
            36.8273319,
            -1.2246155
          ],
          [
            36.8273346,
            -1.2247469
          ]
        ]
      }
    },
    {
      "type": "Feature",
      "id": "way/918128768",
      "properties": {
        "way_id": 918128768,
        "way_version": 1,
        "node_ids": [
          8527203909,
          8527203908,
          8527203905,
          8527203907,
          8527203906
        ],
        "highway": "service"
      },
      "geometry": {
        "type": "LineString",
        "coordinates": [
          [
            36.8254055,
            -1.2271548
          ],
          [
            36.8253002,
            -1.2274794
          ],
          [
            36.8253022,
            -1.2274948
          ],
          [
            36.8253102,
            -1.2275102
          ],
          [
            36.8253686,
            -1.2275612
          ]
        ]
      }
    },
    {
      "type": "Feature",
      "id": "way/1049508066",
      "properties": {
        "way_id": 1049508066,
        "way_version": 1,
        "node_ids": [
          9644753315,
          9644753314,
          9644753313,
          9644753312,
          9644753311,
          9644753310,
          9644753309,
          9644753308,
          9644753307,
          9644753306,
          9644753305,
          9644753304
        ],
        "highway": "service"
      },
      "geometry": {
        "type": "LineString",
        "coordinates": [
          [
            36.8234714,
            -1.2221274
          ],
          [
            36.8233207,
            -1.2224165
          ],
          [
            36.8231188,
            -1.222861
          ],
          [
            36.8228218,
            -1.2235187
          ],
          [
            36.8225388,
            -1.2241194
          ],
          [
            36.8225294,
            -1.2241649
          ],
          [
            36.8225388,
            -1.2241918
          ],
          [
            36.8225576,
            -1.2242199
          ],
          [
            36.8226528,
            -1.2243165
          ],
          [
            36.8226622,
            -1.2243486
          ],
          [
            36.8226622,
            -1.2243902
          ],
          [
            36.8224584,
            -1.2252456
          ]
        ]
      }
    },
    {
      "type": "Feature",
      "id": "way/1068718241",
      "properties": {
        "way_id": 1068718241,
        "way_version": 2,
        "node_ids": [
          2847949524,
          12330726053,
          12330726054,
          12330726046,
          9810327689,
          12330726043,
          9810327690,
          9810327691,
          9810327692,
          9810327696,
          9810327697,
          9810327698,
          9810327699,
          9810327700,
          9810327701,
          9810327702,
          9810327703
        ],
        "highway": "path"
      },
      "geometry": {
        "type": "LineString",
        "coordinates": [
          [
            36.8282331,
            -1.2287178
          ],
          [
            36.8282399,
            -1.2286606
          ],
          [
            36.8284289,
            -1.2284898
          ],
          [
            36.8285196,
            -1.2284465
          ],
          [
            36.828565,
            -1.2284249
          ],
          [
            36.8286955,
            -1.2284098
          ],
          [
            36.8287375,
            -1.2284049
          ],
          [
            36.8287974,
            -1.2283467
          ],
          [
            36.8287797,
            -1.2282533
          ],
          [
            36.8287798,
            -1.228152
          ],
          [
            36.8288309,
            -1.2280555
          ],
          [
            36.8288461,
            -1.2279827
          ],
          [
            36.8289432,
            -1.227828
          ],
          [
            36.829098,
            -1.2275944
          ],
          [
            36.8292103,
            -1.2274336
          ],
          [
            36.8293408,
            -1.2272
          ],
          [
            36.829406,
            -1.2270765
          ]
        ]
      }
    },
    {
      "type": "Feature",
      "id": "way/1082822652",
      "properties": {
        "way_id": 1082822652,
        "way_version": 1,
        "node_ids": [
          2847949713,
          9923873796,
          9923873797,
          9923873798,
          9923873799,
          9923873800,
          9923873801,
          9923873802,
          9923873803,
          9923873804,
          9923873805,
          9923873806,
          9923873807,
          9923873808,
          9923873809,
          9923873810,
          9923873811,
          9923873812,
          9923873813,
          9923873814,
          9189127987
        ],
        "highway": "path"
      },
      "geometry": {
        "type": "LineString",
        "coordinates": [
          [
            36.8195703,
            -1.230029
          ],
          [
            36.8195494,
            -1.2300341
          ],
          [
            36.8195622,
            -1.2300685
          ],
          [
            36.8196515,
            -1.230154
          ],
          [
            36.819774,
            -1.2302267
          ],
          [
            36.8199066,
            -1.2303555
          ],
          [
            36.8202001,
            -1.2306145
          ],
          [
            36.8203481,
            -1.2307574
          ],
          [
            36.8204146,
            -1.2307614
          ],
          [
            36.8205512,
            -1.2306916
          ],
          [
            36.8206407,
            -1.2306218
          ],
          [
            36.8207555,
            -1.23056
          ],
          [
            36.8208547,
            -1.2305691
          ],
          [
            36.8209666,
            -1.2306502
          ],
          [
            36.8209955,
            -1.2307386
          ],
          [
            36.8209594,
            -1.2308288
          ],
          [
            36.8208836,
            -1.2308956
          ],
          [
            36.8208391,
            -1.2309285
          ],
          [
            36.820806,
            -1.2310291
          ],
          [
            36.820815,
            -1.2311211
          ],
          [
            36.8208522,
            -1.2311815
          ]
        ]
      }
    },
    {
      "type": "Feature",
      "id": "way/1105475799",
      "properties": {
        "way_id": 1105475799,
        "way_version": 1,
        "node_ids": [
          10116152498,
          10116152497
        ],
        "highway": "service"
      },
      "geometry": {
        "type": "LineString",
        "coordinates": [
          [
            36.8184116,
            -1.2295167
          ],
          [
            36.8182594,
            -1.2298887
          ]
        ]
      }
    },
    {
      "type": "Feature",
      "id": "way/1105475814",
      "properties": {
        "way_id": 1105475814,
        "way_version": 1,
        "node_ids": [
          10116178617,
          10116147716
        ],
        "highway": "service"
      },
      "geometry": {
        "type": "LineString",
        "coordinates": [
          [
            36.818134,
            -1.2298631
          ],
          [
            36.8180796,
            -1.2303795
          ]
        ]
      }
    },
    {
      "type": "Feature",
      "id": "way/1127433301",
      "properties": {
        "way_id": 1127433301,
        "way_version": 1,
        "node_ids": [
          10308172115,
          10308172114
        ],
        "highway": "service"
      },
      "geometry": {
        "type": "LineString",
        "coordinates": [
          [
            36.8306387,
            -1.2236717
          ],
          [
            36.8302971,
            -1.2242521
          ]
        ]
      }
    },
    {
      "type": "Feature",
      "id": "way/1150080483",
      "properties": {
        "way_id": 1150080483,
        "way_version": 1,
        "node_ids": [
          10698700830,
          10698700829
        ],
        "highway": "service"
      },
      "geometry": {
        "type": "LineString",
        "coordinates": [
          [
            36.8259615,
            -1.2253561
          ],
          [
            36.825559,
            -1.2251772
          ]
        ]
      }
    },
    {
      "type": "Feature",
      "id": "way/1171969849",
      "properties": {
        "way_id": 1171969849,
        "way_version": 1,
        "node_ids": [
          10889330679,
          10889330678,
          10889330677,
          10889330676,
          10889330675,
          10889330674,
          272328271
        ],
        "highway": "residential"
      },
      "geometry": {
        "type": "LineString",
        "coordinates": [
          [
            36.827855,
            -1.2248166
          ],
          [
            36.8280917,
            -1.2249466
          ],
          [
            36.8281091,
            -1.22496
          ],
          [
            36.8281158,
            -1.2249694
          ],
          [
            36.8281212,
            -1.2249875
          ],
          [
            36.8281312,
            -1.2250003
          ],
          [
            36.828154,
            -1.2250083
          ]
        ]
      }
    },
    {
      "type": "Feature",
      "id": "way/1213220384",
      "properties": {
        "way_id": 1213220384,
        "way_version": 2,
        "node_ids": [
          2847949714,
          11240465990,
          11240465991,
          11240465992,
          11240465993,
          11240465994,
          11240465995,
          11240465996,
          11240465997,
          11240465998,
          13768011702,
          11240465999,
          11240466000,
          11240466001,
          11240466002,
          11240466003
        ],
        "highway": "path"
      },
      "geometry": {
        "type": "LineString",
        "coordinates": [
          [
            36.8222417,
            -1.2272829
          ],
          [
            36.8223221,
            -1.2270637
          ],
          [
            36.8222599,
            -1.2268598
          ],
          [
            36.8222084,
            -1.2267905
          ],
          [
            36.8220649,
            -1.2267144
          ],
          [
            36.8219008,
            -1.2263643
          ],
          [
            36.8216063,
            -1.2261754
          ],
          [
            36.821413,
            -1.2258561
          ],
          [
            36.8214584,
            -1.225676
          ],
          [
            36.8213075,
            -1.2253684
          ],
          [
            36.8210665,
            -1.225086
          ],
          [
            36.8208651,
            -1.22485
          ],
          [
            36.8207523,
            -1.2247504
          ],
          [
            36.8206263,
            -1.22456
          ],
          [
            36.8204886,
            -1.2245175
          ],
          [
            36.8203846,
            -1.2244311
          ]
        ]
      }
    },
    {
      "type": "Feature",
      "id": "way/1310814134",
      "properties": {
        "way_id": 1310814134,
        "way_version": 1,
        "node_ids": [
          12133566617,
          12133566618
        ],
        "highway": "residential"
      },
      "geometry": {
        "type": "LineString",
        "coordinates": [
          [
            36.8236843,
            -1.2242469
          ],
          [
            36.8240679,
            -1.2243212
          ]
        ]
      }
    },
    {
      "type": "Feature",
      "id": "way/1310814135",
      "properties": {
        "way_id": 1310814135,
        "way_version": 1,
        "node_ids": [
          12133566619,
          12133566620,
          12133566621
        ],
        "highway": "residential"
      },
      "geometry": {
        "type": "LineString",
        "coordinates": [
          [
            36.8239397,
            -1.2230527
          ],
          [
            36.8240868,
            -1.2230878
          ],
          [
            36.8241382,
            -1.2231176
          ]
        ]
      }
    },
    {
      "type": "Feature",
      "id": "way/1329444750",
      "properties": {
        "way_id": 1329444750,
        "way_version": 1,
        "node_ids": [
          12300011367,
          12300011368,
          12300011369,
          12300011370
        ],
        "highway": "residential"
      },
      "geometry": {
        "type": "LineString",
        "coordinates": [
          [
            36.818422,
            -1.2299225
          ],
          [
            36.8185171,
            -1.2298486
          ],
          [
            36.8186864,
            -1.2297155
          ],
          [
            36.8187553,
            -1.2296233
          ]
        ]
      }
    },
    {
      "type": "Feature",
      "id": "way/1329460908",
      "properties": {
        "way_id": 1329460908,
        "way_version": 1,
        "node_ids": [
          6274674849,
          12300111444,
          12300111445,
          12300111446,
          12300111447,
          12300111448
        ],
        "highway": "residential"
      },
      "geometry": {
        "type": "LineString",
        "coordinates": [
          [
            36.8263621,
            -1.2262036
          ],
          [
            36.8263842,
            -1.2262683
          ],
          [
            36.8263072,
            -1.2265332
          ],
          [
            36.8262348,
            -1.2267472
          ],
          [
            36.8262447,
            -1.2267661
          ],
          [
            36.8262833,
            -1.2267928
          ]
        ]
      }
    },
    {
      "type": "Feature",
      "id": "way/1329466160",
      "properties": {
        "way_id": 1329466160,
        "way_version": 1,
        "node_ids": [
          8526822670,
          12300112282,
          12300112283,
          12300112284,
          12300112285
        ],
        "highway": "service"
      },
      "geometry": {
        "type": "LineString",
        "coordinates": [
          [
            36.8273681,
            -1.2258275
          ],
          [
            36.8273249,
            -1.2260211
          ],
          [
            36.8272297,
            -1.2263626
          ],
          [
            36.8271948,
            -1.2264907
          ],
          [
            36.8271812,
            -1.2265236
          ]
        ]
      }
    },
    {
      "type": "Feature",
      "id": "way/1332841823",
      "properties": {
        "way_id": 1332841823,
        "way_version": 1,
        "node_ids": [
          12330717272,
          12330717271,
          12330717270,
          12330717269,
          12330717268,
          12330717267,
          12330717266,
          12330717265,
          12330717264,
          12330717263,
          12330717262,
          12330717261,
          12330717260,
          12330717259,
          12330717258,
          12330717257,
          12330717256,
          12330717255
        ],
        "highway": "path"
      },
      "geometry": {
        "type": "LineString",
        "coordinates": [
          [
            36.8261541,
            -1.2285795
          ],
          [
            36.8262671,
            -1.2286948
          ],
          [
            36.8263248,
            -1.2287592
          ],
          [
            36.8264341,
            -1.2288115
          ],
          [
            36.8266185,
            -1.2288698
          ],
          [
            36.826829,
            -1.2289355
          ],
          [
            36.8269283,
            -1.2289898
          ],
          [
            36.8269926,
            -1.2290381
          ],
          [
            36.8271569,
            -1.2290428
          ],
          [
            36.827293,
            -1.229028
          ],
          [
            36.8275338,
            -1.2290522
          ],
          [
            36.8277356,
            -1.2290676
          ],
          [
            36.8278389,
            -1.2291145
          ],
          [
            36.8279582,
            -1.2291688
          ],
          [
            36.8280474,
            -1.2291809
          ],
          [
            36.8281125,
            -1.2291306
          ],
          [
            36.8282124,
            -1.2290126
          ],
          [
            36.8283336,
            -1.2288667
          ]
        ]
      }
    },
    {
      "type": "Feature",
      "id": "way/1332841836",
      "properties": {
        "way_id": 1332841836,
        "way_version": 1,
        "node_ids": [
          12330726049,
          12330726045,
          12330726044,
          12330726043
        ],
        "highway": "path"
      },
      "geometry": {
        "type": "LineString",
        "coordinates": [
          [
            36.8284142,
            -1.2279849
          ],
          [
            36.8285108,
            -1.2280613
          ],
          [
            36.8285979,
            -1.2282369
          ],
          [
            36.8286955,
            -1.2284098
          ]
        ]
      }
    },
    {
      "type": "Feature",
      "id": "way/1332841837",
      "properties": {
        "way_id": 1332841837,
        "way_version": 1,
        "node_ids": [
          12330726051,
          12330726050,
          12330726049,
          12330726048,
          12330726047,
          12330726046
        ],
        "highway": "path"
      },
      "geometry": {
        "type": "LineString",
        "coordinates": [
          [
            36.8284397,
            -1.2274244
          ],
          [
            36.8283968,
            -1.2277704
          ],
          [
            36.8284142,
            -1.2279849
          ],
          [
            36.828374,
            -1.2282517
          ],
          [
            36.8283458,
            -1.2283362
          ],
          [
            36.8285196,
            -1.2284465
          ]
        ]
      }
    },
    {
      "type": "Feature",
      "id": "way/1332841838",
      "properties": {
        "way_id": 1332841838,
        "way_version": 1,
        "node_ids": [
          12330726060,
          2847949524,
          2847949527,
          2847949528,
          2847949531,
          2847949532,
          2847949533,
          747730039,
          2847949534,
          2847949535,
          2847949536,
          2847949537,
          2847949538,
          2847949539,
          2847949540,
          747730076,
          2847949541,
          2847949542,
          2847949543,
          2847949544,
          2847949545,
          2847949546,
          2847949547,
          2847949548,
          9810327703,
          6503768693,
          747730061,
          2847949550,
          2847949551,
          2847949552,
          2847949553,
          2847949554,
          747730096,
          2847949555,
          2847949556,
          2847949557,
          2847949558,
          2847949559,
          2847949560,
          2847949561,
          2847949562,
          747730082,
          2847949563,
          2847949564,
          2847949565,
          2847949566,
          2847949567,
          2847949568,
          2847949569,
          2847949570,
          2847949571,
          2847949572,
          747730120,
          2847949573,
          2847949574,
          2847949575,
          2847949576,
          2847949577,
          2847949578,
          2847949579,
          747730104,
          2847949580,
          2847949581,
          2847949582,
          2847949583,
          2847949584,
          2847949585,
          747730047,
          2847949586,
          2847949587,
          2847949588,
          2847949589,
          2847824295,
          2847949590,
          2847949591,
          747730069,
          2847949592,
          2847949593,
          2847949594,
          747730106,
          2847949595,
          2847949596,
          2847949597,
          747730087,
          2847949598,
          2847949599,
          2847949600,
          747730033,
          2847949701,
          2847949702,
          2847949703,
          747730110,
          2847949704,
          2847949705,
          272329805,
          272328863
        ],
        "highway": "footway",
        "name": "Tara Path",
        "surface": "dirt"
      },
      "geometry": {
        "type": "LineString",
        "coordinates": [
          [
            36.8282662,
            -1.2287508
          ],
          [
            36.8282331,
            -1.2287178
          ],
          [
            36.8281269,
            -1.228614
          ],
          [
            36.8280834,
            -1.2284738
          ],
          [
            36.8280432,
            -1.2283453
          ],
          [
            36.8280742,
            -1.2282451
          ],
          [
            36.8281085,
            -1.2280242
          ],
          [
            36.828153,
            -1.22772
          ],
          [
            36.82819,
            -1.227544
          ],
          [
            36.8282,
            -1.227401
          ],
          [
            36.828237,
            -1.227263
          ],
          [
            36.828214,
            -1.227157
          ],
          [
            36.828225,
            -1.227124
          ],
          [
            36.828314,
            -1.227011
          ],
          [
            36.828401,
            -1.226739
          ],
          [
            36.828468,
            -1.226658
          ],
          [
            36.828607,
            -1.226695
          ],
          [
            36.828729,
            -1.226769
          ],
          [
            36.828831,
            -1.226805
          ],
          [
            36.82888,
            -1.226857
          ],
          [
            36.829076,
            -1.226947
          ],
          [
            36.829147,
            -1.22695
          ],
          [
            36.829215,
            -1.226971
          ],
          [
            36.829375,
            -1.227054
          ],
          [
            36.829406,
            -1.2270765
          ],
          [
            36.829521,
            -1.22716
          ],
          [
            36.830095,
            -1.227453
          ],
          [
            36.830326,
            -1.227552
          ],
          [
            36.830634,
            -1.227646
          ],
          [
            36.831058,
            -1.227845
          ],
          [
            36.83113,
            -1.227854
          ],
          [
            36.831195,
            -1.227883
          ],
          [
            36.831469,
            -1.228054
          ],
          [
            36.831612,
            -1.228165
          ],
          [
            36.83172,
            -1.228304
          ],
          [
            36.831752,
            -1.228369
          ],
          [
            36.831803,
            -1.228578
          ],
          [
            36.831862,
            -1.228748
          ],
          [
            36.832079,
            -1.22916
          ],
          [
            36.832241,
            -1.229397
          ],
          [
            36.832259,
            -1.229464
          ],
          [
            36.832368,
            -1.229691
          ],
          [
            36.832731,
            -1.23018
          ],
          [
            36.832799,
            -1.230307
          ],
          [
            36.832835,
            -1.230409
          ],
          [
            36.83288,
            -1.230462
          ],
          [
            36.832942,
            -1.230498
          ],
          [
            36.832964,
            -1.230562
          ],
          [
            36.833249,
            -1.231015
          ],
          [
            36.833305,
            -1.23106
          ],
          [
            36.833589,
            -1.231382
          ],
          [
            36.833737,
            -1.231485
          ],
          [
            36.833835,
            -1.231531
          ],
          [
            36.8339626,
            -1.2315938
          ],
          [
            36.8341448,
            -1.2316766
          ],
          [
            36.8342846,
            -1.23171
          ],
          [
            36.8343582,
            -1.2317569
          ],
          [
            36.8344707,
            -1.2317921
          ],
          [
            36.8347398,
            -1.2319112
          ],
          [
            36.8349632,
            -1.232032
          ],
          [
            36.835125,
            -1.232228
          ],
          [
            36.835207,
            -1.232425
          ],
          [
            36.835316,
            -1.232569
          ],
          [
            36.835421,
            -1.232667
          ],
          [
            36.835463,
            -1.232725
          ],
          [
            36.835704,
            -1.232941
          ],
          [
            36.835765,
            -1.232978
          ],
          [
            36.835835,
            -1.232992
          ],
          [
            36.835979,
            -1.232982
          ],
          [
            36.83629,
            -1.233071
          ],
          [
            36.836721,
            -1.233088
          ],
          [
            36.836994,
            -1.233181
          ],
          [
            36.8370948,
            -1.233241
          ],
          [
            36.837147,
            -1.233272
          ],
          [
            36.837251,
            -1.233282
          ],
          [
            36.837341,
            -1.233222
          ],
          [
            36.837506,
            -1.233031
          ],
          [
            36.837695,
            -1.232863
          ],
          [
            36.838139,
            -1.232495
          ],
          [
            36.838238,
            -1.232455
          ],
          [
            36.838309,
            -1.232464
          ],
          [
            36.838371,
            -1.2325
          ],
          [
            36.838684,
            -1.232799
          ],
          [
            36.838751,
            -1.232823
          ],
          [
            36.838822,
            -1.232815
          ],
          [
            36.838884,
            -1.232779
          ],
          [
            36.839395,
            -1.232269
          ],
          [
            36.839507,
            -1.23218
          ],
          [
            36.839607,
            -1.232137
          ],
          [
            36.840262,
            -1.231936
          ],
          [
            36.840327,
            -1.231905
          ],
          [
            36.840379,
            -1.231856
          ],
          [
            36.840409,
            -1.231791
          ],
          [
            36.840414,
            -1.231719
          ],
          [
            36.8403783,
            -1.2311901
          ],
          [
            36.8403463,
            -1.2309895
          ]
        ]
      }
    },
    {
      "type": "Feature",
      "id": "way/1332841839",
      "properties": {
        "way_id": 1332841839,
        "way_version": 3,
        "node_ids": [
          1554843709,
          2847943998,
          2847943999,
          2847944000,
          2847949501,
          2847949502,
          2847949503,
          2847949504,
          2847949505,
          11952038429,
          2847949506,
          2847949507,
          2847949508,
          2847949509,
          2847949510,
          2847949511,
          747730090,
          2847949512,
          2847949513,
          2847949514,
          2847949515,
          2847949516,
          13768253221,
          747730114,
          2847949517,
          2847949518,
          2847949519,
          2847949520,
          2847949521,
          747730055,
          12330717255,
          2847949523
        ],
        "highway": "path",
        "name": "Tara Path",
        "surface": "dirt"
      },
      "geometry": {
        "type": "LineString",
        "coordinates": [
          [
            36.8265215,
            -1.2342925
          ],
          [
            36.82637,
            -1.23432
          ],
          [
            36.826262,
            -1.234231
          ],
          [
            36.826262,
            -1.233726
          ],
          [
            36.826303,
            -1.23344
          ],
          [
            36.826296,
            -1.233406
          ],
          [
            36.826219,
            -1.233285
          ],
          [
            36.8263355,
            -1.2331894
          ],
          [
            36.8264041,
            -1.233024
          ],
          [
            36.8264884,
            -1.2327648
          ],
          [
            36.826527,
            -1.232496
          ],
          [
            36.826647,
            -1.232239
          ],
          [
            36.826688,
            -1.232026
          ],
          [
            36.826806,
            -1.231572
          ],
          [
            36.826865,
            -1.231254
          ],
          [
            36.826967,
            -1.23095
          ],
          [
            36.827097,
            -1.23039
          ],
          [
            36.827138,
            -1.230178
          ],
          [
            36.827176,
            -1.229857
          ],
          [
            36.8271996,
            -1.2298171
          ],
          [
            36.827353,
            -1.229751
          ],
          [
            36.827452,
            -1.229649
          ],
          [
            36.8276472,
            -1.2295833
          ],
          [
            36.8278207,
            -1.2295249
          ],
          [
            36.827921,
            -1.229479
          ],
          [
            36.8280529,
            -1.2294138
          ],
          [
            36.8282727,
            -1.2291957
          ],
          [
            36.8283172,
            -1.2291411
          ],
          [
            36.8283671,
            -1.2290602
          ],
          [
            36.8283857,
            -1.2289647
          ],
          [
            36.8283336,
            -1.2288667
          ],
          [
            36.8283058,
            -1.2288142
          ]
        ]
      }
    },
    {
      "type": "Feature",
      "id": "way/1504625701",
      "properties": {
        "way_id": 1504625701,
        "way_version": 2,
        "node_ids": [
          13768011702,
          13768011703,
          13768011704,
          13768011705,
          13768011706,
          13768011707
        ],
        "bicycle": "yes",
        "foot": "yes",
        "highway": "footway",
        "mtb:scale": "2+",
        "source": "Strava Global Heatmap"
      },
      "geometry": {
        "type": "LineString",
        "coordinates": [
          [
            36.8210665,
            -1.225086
          ],
          [
            36.8206637,
            -1.2251281
          ],
          [
            36.8202066,
            -1.2250751
          ],
          [
            36.8198422,
            -1.2251545
          ],
          [
            36.8196689,
            -1.225306
          ],
          [
            36.819501,
            -1.2254952
          ]
        ]
      }
    },
    {
      "type": "Feature",
      "id": "way/1504644448",
      "properties": {
        "way_id": 1504644448,
        "way_version": 2,
        "node_ids": [
          11240465998,
          13768222683,
          13768222684,
          13768222685,
          13768222686,
          13768222687,
          13768222688,
          13768222689,
          13768222690,
          13768222691,
          13768222692,
          13768222693,
          13768222694,
          13768222695,
          13768222696,
          13768222697,
          13768222698,
          13768222699,
          13768222700,
          13768253201,
          13768253202,
          13768253203,
          13768253204,
          13768253205,
          13768253206,
          13768253207,
          13768253208,
          13768253209,
          13768253210,
          13768253211,
          13768253212,
          13768253213,
          13768253214,
          13768253215,
          13768253216,
          13768253217,
          13768253218,
          13768253219,
          13768253220,
          13768253221,
          13768253222,
          13768253223,
          13768253224,
          6503768691
        ],
        "bicycle": "permissive",
        "foot": "designated",
        "highway": "footway",
        "mtb:scale": "1",
        "source": "Strava Global Heatmap"
      },
      "geometry": {
        "type": "LineString",
        "coordinates": [
          [
            36.8213075,
            -1.2253684
          ],
          [
            36.8215792,
            -1.2257269
          ],
          [
            36.821752,
            -1.2259252
          ],
          [
            36.8219957,
            -1.2260565
          ],
          [
            36.8224149,
            -1.2262669
          ],
          [
            36.8226014,
            -1.2264115
          ],
          [
            36.8227134,
            -1.2265272
          ],
          [
            36.8228004,
            -1.2266779
          ],
          [
            36.8228596,
            -1.2268286
          ],
          [
            36.8229647,
            -1.2270412
          ],
          [
            36.8230913,
            -1.2272284
          ],
          [
            36.8231977,
            -1.2273831
          ],
          [
            36.823384,
            -1.2276265
          ],
          [
            36.8235227,
            -1.2276909
          ],
          [
            36.8236646,
            -1.2277586
          ],
          [
            36.8237239,
            -1.227839
          ],
          [
            36.8237914,
            -1.2279566
          ],
          [
            36.8238822,
            -1.2280308
          ],
          [
            36.8240127,
            -1.2280735
          ],
          [
            36.8241792,
            -1.2280825
          ],
          [
            36.8244132,
            -1.2281118
          ],
          [
            36.8245099,
            -1.228168
          ],
          [
            36.8246676,
            -1.2282873
          ],
          [
            36.8248295,
            -1.2283749
          ],
          [
            36.8250199,
            -1.2284636
          ],
          [
            36.8252831,
            -1.2285827
          ],
          [
            36.8254901,
            -1.2286928
          ],
          [
            36.8256576,
            -1.2287864
          ],
          [
            36.8258285,
            -1.2288605
          ],
          [
            36.8261033,
            -1.2289866
          ],
          [
            36.8263036,
            -1.2290541
          ],
          [
            36.8265173,
            -1.2291507
          ],
          [
            36.8266566,
            -1.229184
          ],
          [
            36.8267511,
            -1.2292334
          ],
          [
            36.8268636,
            -1.2293189
          ],
          [
            36.8269839,
            -1.2293952
          ],
          [
            36.8270986,
            -1.2294536
          ],
          [
            36.8272776,
            -1.2295147
          ],
          [
            36.827417,
            -1.2295535
          ],
          [
            36.8276472,
            -1.2295833
          ],
          [
            36.8278688,
            -1.2295897
          ],
          [
            36.8280858,
            -1.2295857
          ],
          [
            36.8283309,
            -1.2296138
          ],
          [
            36.8285443,
            -1.2296272
          ]
        ]
      }
    },
    {
      "type": "Feature",
      "id": "way/1504644453",
      "properties": {
        "way_id": 1504644453,
        "way_version": 2,
        "node_ids": [
          2847949545,
          13768240204,
          12330726051
        ],
        "bicycle": "yes",
        "foot": "yes",
        "highway": "footway",
        "mtb:scale": "2",
        "source": "Strava Global Heatmap"
      },
      "geometry": {
        "type": "LineString",
        "coordinates": [
          [
            36.829076,
            -1.226947
          ],
          [
            36.8289663,
            -1.2271988
          ],
          [
            36.8284397,
            -1.2274244
          ]
        ]
      }
    },
    {
      "type": "Feature",
      "id": "way/1504644454",
      "properties": {
        "way_id": 1504644454,
        "way_version": 2,
        "node_ids": [
          747730076,
          13768240205,
          12330726051
        ],
        "bicycle": "yes",
        "foot": "yes",
        "highway": "footway",
        "mtb:scale": "2",
        "source": "Strava Global Heatmap"
      },
      "geometry": {
        "type": "LineString",
        "coordinates": [
          [
            36.828468,
            -1.226658
          ],
          [
            36.8283182,
            -1.2271693
          ],
          [
            36.8284397,
            -1.2274244
          ]
        ]
      }
    }
  ]
}
