{
  "type": "FeatureCollection",
  "features": [
    {
      "type": "Feature",
      "id": "way/24968697",
      "properties": {
        "way_id": 24968697,
        "highway": "residential",
        "name": "Whispers Avenue"
      },
      "geometry": {
        "type": "LineString",
        "coordinates": [
          [
            36.8200063,
            -1.2306014
          ],
          [
            36.8199652,
            -1.230519
          ],
          [
            36.8194503,
            -1.2301167
          ],
          [
            36.818422,
            -1.2299225
          ],
          [
            36.8182594,
            -1.2298887
          ],
          [
            36.818134,
            -1.2298631
          ],
          [
            36.8176342,
            -1.2297612
          ],
          [
            36.8175602,
            -1.2297461
          ],
          [
            36.8173302,
            -1.2296992
          ],
          [
            36.8169879,
            -1.2296291
          ],
          [
            36.8169525,
            -1.2296219
          ],
          [
            36.8169015,
            -1.2296103
          ],
          [
            36.816695,
            -1.2295361
          ],
          [
            36.8158404,
            -1.2291646
          ],
          [
            36.8140441,
            -1.2283783
          ]
        ]
      }
    },
    {
      "type": "Feature",
      "id": "way/42121196",
      "properties": {
        "way_id": 42121196,
        "highway": "service",
        "service": "parking_aisle",
        "surface": "paved"
      },
      "geometry": {
        "type": "LineString",
        "coordinates": [
          [
            36.8190859,
            -1.2330411
          ],
          [
            36.8190141,
            -1.2332193
          ],
          [
            36.8189504,
            -1.2333636
          ],
          [
            36.8188789,
            -1.2335433
          ],
          [
            36.8188122,
            -1.2336903
          ],
          [
            36.818735,
            -1.2338635
          ],
          [
            36.8186704,
            -1.2340216
          ],
          [
            36.8186447,
            -1.2341085
          ],
          [
            36.818606,
            -1.2341811
          ],
          [
            36.8185289,
            -1.2343148
          ],
          [
            36.8184478,
            -1.2344465
          ],
          [
            36.8184275,
            -1.2344898
          ]
        ]
      }
    },
    {
      "type": "Feature",
      "id": "way/45439443",
      "properties": {
        "way_id": 45439443,
        "access": "private",
        "highway": "service"
      },
      "geometry": {
        "type": "LineString",
        "coordinates": [
          [
            36.8160456,
            -1.2318031
          ],
          [
            36.8161609,
            -1.2318137
          ],
          [
            36.8162642,
            -1.2317936
          ],
          [
            36.8163996,
            -1.2317145
          ],
          [
            36.816531,
            -1.23161
          ],
          [
            36.8167446,
            -1.2314566
          ],
          [
            36.816812,
            -1.2314164
          ],
          [
            36.8168794,
            -1.231387
          ],
          [
            36.8169615,
            -1.2313793
          ],
          [
            36.8170328,
            -1.2313824
          ],
          [
            36.8172821,
            -1.231433
          ],
          [
            36.8176361,
            -1.2315161
          ],
          [
            36.8178359,
            -1.2315597
          ],
          [
            36.8179446,
            -1.2315765
          ],
          [
            36.818027,
            -1.2315798
          ],
          [
            36.8181577,
            -1.2315617
          ],
          [
            36.8185042,
            -1.2314926
          ],
          [
            36.8189837,
            -1.231395
          ],
          [
            36.8191043,
            -1.2313838
          ],
          [
            36.8192134,
            -1.2313772
          ],
          [
            36.8193887,
            -1.231378
          ],
          [
            36.8195476,
            -1.2313871
          ],
          [
            36.8197111,
            -1.2314125
          ],
          [
            36.8199564,
            -1.2314867
          ],
          [
            36.82002,
            -1.2315338
          ],
          [
            36.8200358,
            -1.2316275
          ],
          [
            36.8200227,
            -1.231718
          ],
          [
            36.8199066,
            -1.232086
          ],
          [
            36.8198527,
            -1.2322281
          ],
          [
            36.8197869,
            -1.2323217
          ]
        ]
      }
    },
    {
      "type": "Feature",
      "id": "way/45488637",
      "properties": {
        "way_id": 45488637,
        "highway": "footway"
      },
      "geometry": {
        "type": "LineString",
        "coordinates": [
          [
            36.8178923,
            -1.2365026
          ],
          [
            36.8178279,
            -1.236626
          ],
          [
            36.8177528,
            -1.2366903
          ],
          [
            36.817683,
            -1.2366689
          ],
          [
            36.8176026,
            -1.2367761
          ]
        ]
      }
    },
    {
      "type": "Feature",
      "id": "way/45488686",
      "properties": {
        "way_id": 45488686,
        "highway": "footway"
      },
      "geometry": {
        "type": "LineString",
        "coordinates": [
          [
            36.8175163,
            -1.2381547
          ],
          [
            36.8176167,
            -1.238054
          ],
          [
            36.8176696,
            -1.2379172
          ],
          [
            36.8181712,
            -1.2367171
          ],
          [
            36.8181336,
            -1.236626
          ],
          [
            36.8180425,
            -1.2365563
          ],
          [
            36.8178923,
            -1.2365026
          ],
          [
            36.8176133,
            -1.2363739
          ],
          [
            36.8173665,
            -1.2362774
          ],
          [
            36.8171949,
            -1.2362988
          ],
          [
            36.8169803,
            -1.2363525
          ],
          [
            36.8167979,
            -1.2363095
          ],
          [
            36.8165672,
            -1.2362452
          ],
          [
            36.8161864,
            -1.2361057
          ],
          [
            36.8160952,
            -1.2359985
          ],
          [
            36.8160428,
            -1.2359499
          ],
          [
            36.8159477,
            -1.2358348
          ],
          [
            36.8158055,
            -1.2356606
          ],
          [
            36.8157197,
            -1.2355587
          ],
          [
            36.8154891,
            -1.2354523
          ],
          [
            36.8154407,
            -1.23543
          ],
          [
            36.8150384,
            -1.2352852
          ],
          [
            36.8148774,
            -1.2352423
          ],
          [
            36.8145449,
            -1.235253
          ],
          [
            36.8142498,
            -1.2352852
          ],
          [
            36.8141586,
            -1.2353174
          ],
          [
            36.8141157,
            -1.2353442
          ],
          [
            36.8140084,
            -1.2352959
          ],
          [
            36.8138743,
            -1.2353174
          ],
          [
            36.8137938,
            -1.2354353
          ],
          [
            36.8137348,
            -1.2355104
          ],
          [
            36.8136812,
            -1.2355158
          ],
          [
            36.8136651,
            -1.2354353
          ],
          [
            36.8136762,
            -1.2353503
          ],
          [
            36.8136812,
            -1.235312
          ],
          [
            36.8136611,
            -1.235312
          ],
          [
            36.813649,
            -1.235312
          ]
        ]
      }
    },
    {
      "type": "Feature",
      "id": "way/45489364",
      "properties": {
        "way_id": 45489364,
        "highway": "footway"
      },
      "geometry": {
        "type": "LineString",
        "coordinates": [
          [
            36.8153737,
            -1.2334899
          ],
          [
            36.8154323,
            -1.2334579
          ],
          [
            36.8155407,
            -1.2334878
          ],
          [
            36.815574,
            -1.2335499
          ],
          [
            36.8155913,
            -1.2335775
          ],
          [
            36.8156314,
            -1.2335727
          ],
          [
            36.8157388,
            -1.2335515
          ],
          [
            36.8157947,
            -1.233536
          ],
          [
            36.815882,
            -1.2335655
          ],
          [
            36.8159415,
            -1.233617
          ],
          [
            36.816031,
            -1.2337103
          ],
          [
            36.8160193,
            -1.2337698
          ],
          [
            36.8160156,
            -1.233874
          ],
          [
            36.8160942,
            -1.2339729
          ],
          [
            36.8161586,
            -1.2340632
          ],
          [
            36.8162149,
            -1.2340921
          ],
          [
            36.8162865,
            -1.2340956
          ],
          [
            36.8163548,
            -1.2340858
          ],
          [
            36.8164455,
            -1.2340749
          ],
          [
            36.8165232,
            -1.2340745
          ],
          [
            36.8165987,
            -1.2340886
          ],
          [
            36.8167501,
            -1.2341191
          ],
          [
            36.8168476,
            -1.2341298
          ],
          [
            36.8169309,
            -1.2341422
          ],
          [
            36.8169946,
            -1.2341527
          ],
          [
            36.8170521,
            -1.2341501
          ],
          [
            36.8171534,
            -1.2341578
          ],
          [
            36.8172365,
            -1.2341605
          ],
          [
            36.8172637,
            -1.2340967
          ],
          [
            36.8172946,
            -1.2341014
          ],
          [
            36.8175752,
            -1.2342654
          ],
          [
            36.8176771,
            -1.2343218
          ],
          [
            36.8179587,
            -1.2344317
          ],
          [
            36.8180495,
            -1.2344551
          ],
          [
            36.8181196,
            -1.2344692
          ],
          [
            36.8182376,
            -1.2344982
          ],
          [
            36.8182833,
            -1.2345658
          ],
          [
            36.8183398,
            -1.2346191
          ]
        ]
      }
    },
    {
      "type": "Feature",
      "id": "way/45489879",
      "properties": {
        "way_id": 45489879,
        "access": "permissive",
        "highway": "service"
      },
      "geometry": {
        "type": "LineString",
        "coordinates": [
          [
            36.8184275,
            -1.2344898
          ],
          [
            36.8183398,
            -1.2346191
          ],
          [
            36.8182312,
            -1.2347123
          ],
          [
            36.8181494,
            -1.234827
          ],
          [
            36.8181058,
            -1.2349215
          ],
          [
            36.8180669,
            -1.2350227
          ],
          [
            36.8180173,
            -1.2351668
          ],
          [
            36.8179321,
            -1.2353592
          ],
          [
            36.8178832,
            -1.2354598
          ],
          [
            36.8178242,
            -1.235555
          ],
          [
            36.8176914,
            -1.2357132
          ],
          [
            36.8175466,
            -1.2358312
          ],
          [
            36.8173836,
            -1.2359056
          ],
          [
            36.8172435,
            -1.2359472
          ],
          [
            36.8170859,
            -1.2359747
          ],
          [
            36.8169323,
            -1.235972
          ],
          [
            36.816754,
            -1.2359472
          ],
          [
            36.8166299,
            -1.2359204
          ],
          [
            36.8164784,
            -1.2358607
          ],
          [
            36.8163416,
            -1.2357816
          ],
          [
            36.8161028,
            -1.2355739
          ],
          [
            36.8158711,
            -1.2353765
          ],
          [
            36.8156651,
            -1.2352392
          ],
          [
            36.8154263,
            -1.2351454
          ],
          [
            36.8151741,
            -1.2350804
          ],
          [
            36.8149529,
            -1.2350392
          ],
          [
            36.8147725,
            -1.2350454
          ],
          [
            36.8145244,
            -1.2350582
          ],
          [
            36.8142444,
            -1.2351071
          ],
          [
            36.8140627,
            -1.2351084
          ],
          [
            36.8139041,
            -1.23508
          ],
          [
            36.8137662,
            -1.2350435
          ],
          [
            36.8136815,
            -1.2350012
          ],
          [
            36.8135794,
            -1.2349303
          ],
          [
            36.8134551,
            -1.2347527
          ]
        ]
      }
    },
    {
      "type": "Feature",
      "id": "way/45570664",
      "properties": {
        "way_id": 45570664,
        "highway": "footway"
      },
      "geometry": {
        "type": "LineString",
        "coordinates": [
          [
            36.8183435,
            -1.2341402
          ],
          [
            36.8183076,
            -1.2341157
          ],
          [
            36.8180404,
            -1.234072
          ],
          [
            36.8177721,
            -1.2340498
          ],
          [
            36.8176133,
            -1.2340254
          ],
          [
            36.8173866,
            -1.2339345
          ],
          [
            36.8172314,
            -1.2338654
          ],
          [
            36.8170691,
            -1.2338074
          ],
          [
            36.8169554,
            -1.2337724
          ],
          [
            36.8168242,
            -1.2337467
          ],
          [
            36.8166485,
            -1.2337545
          ],
          [
            36.8164632,
            -1.2337924
          ],
          [
            36.8163023,
            -1.2337066
          ],
          [
            36.816031,
            -1.2337103
          ]
        ]
      }
    },
    {
      "type": "Feature",
      "id": "way/142061035",
      "properties": {
        "way_id": 142061035,
        "highway": "path",
        "surface": "dirt"
      },
      "geometry": {
        "type": "LineString",
        "coordinates": [
          [
            36.8242877,
            -1.2413712
          ],
          [
            36.8244267,
            -1.2409247
          ],
          [
            36.8245339,
            -1.24056
          ],
          [
            36.824652,
            -1.2401846
          ],
          [
            36.8247288,
            -1.2397211
          ],
          [
            36.8248816,
            -1.2391992
          ],
          [
            36.824964,
            -1.2389248
          ],
          [
            36.8250104,
            -1.2387985
          ],
          [
            36.8251026,
            -1.2384255
          ],
          [
            36.8251884,
            -1.2380393
          ],
          [
            36.8252635,
            -1.2376317
          ],
          [
            36.8253815,
            -1.2372885
          ],
          [
            36.8254352,
            -1.2369345
          ],
          [
            36.8255854,
            -1.2363553
          ],
          [
            36.8256819,
            -1.2359799
          ],
          [
            36.8256819,
            -1.2357224
          ],
          [
            36.825639,
            -1.2355186
          ],
          [
            36.8255103,
            -1.2352719
          ],
          [
            36.8253064,
            -1.2349394
          ],
          [
            36.8251669,
            -1.2347356
          ],
          [
            36.8250597,
            -1.2344889
          ],
          [
            36.8249416,
            -1.2342315
          ],
          [
            36.8250328,
            -1.2342616
          ],
          [
            36.8252311,
            -1.2343078
          ],
          [
            36.8254352,
            -1.2344031
          ],
          [
            36.8256146,
            -1.2345215
          ],
          [
            36.8259097,
            -1.2346652
          ],
          [
            36.8261606,
            -1.2347617
          ],
          [
            36.8262294,
            -1.2347595
          ],
          [
            36.8262625,
            -1.2347132
          ],
          [
            36.8262874,
            -1.2346372
          ],
          [
            36.8263091,
            -1.2345341
          ]
        ]
      }
    },
    {
      "type": "Feature",
      "id": "way/142061036",
      "properties": {
        "way_id": 142061036,
        "highway": "path",
        "surface": "dirt"
      },
      "geometry": {
        "type": "LineString",
        "coordinates": [
          [
            36.828673,
            -1.236668
          ],
          [
            36.8288489,
            -1.2367997
          ],
          [
            36.8290899,
            -1.2369627
          ],
          [
            36.829256,
            -1.237042
          ]
        ]
      }
    },
    {
      "type": "Feature",
      "id": "way/142776098",
      "properties": {
        "way_id": 142776098,
        "highway": "path",
        "surface": "dirt"
      },
      "geometry": {
        "type": "LineString",
        "coordinates": [
          [
            36.8306975,
            -1.2366499
          ],
          [
            36.8306423,
            -1.2367168
          ],
          [
            36.8304664,
            -1.236832
          ],
          [
            36.8295373,
            -1.2366521
          ],
          [
            36.829394,
            -1.2365838
          ],
          [
            36.8289863,
            -1.2364692
          ],
          [
            36.8289136,
            -1.236423
          ],
          [
            36.8287461,
            -1.2362923
          ],
          [
            36.8286756,
            -1.2361255
          ],
          [
            36.8285412,
            -1.2359294
          ],
          [
            36.8284038,
            -1.2358264
          ],
          [
            36.8279704,
            -1.2355967
          ],
          [
            36.8278438,
            -1.2354871
          ],
          [
            36.8278051,
            -1.2353588
          ]
        ]
      }
    },
    {
      "type": "Feature",
      "id": "way/142777585",
      "properties": {
        "way_id": 142777585,
        "highway": "path",
        "surface": "dirt"
      },
      "geometry": {
        "type": "LineString",
        "coordinates": [
          [
            36.828673,
            -1.236668
          ],
          [
            36.8286403,
            -1.2365507
          ],
          [
            36.8285324,
            -1.2364163
          ],
          [
            36.8282714,
            -1.2361829
          ],
          [
            36.8280005,
            -1.2359552
          ],
          [
            36.8277495,
            -1.2358017
          ],
          [
            36.82758,
            -1.23567
          ],
          [
            36.8273664,
            -1.235465
          ],
          [
            36.8271303,
            -1.2352612
          ],
          [
            36.8269265,
            -1.2350681
          ],
          [
            36.8265295,
            -1.2348429
          ],
          [
            36.8263578,
            -1.2347249
          ],
          [
            36.8262874,
            -1.2346372
          ]
        ]
      }
    },
    {
      "type": "Feature",
      "id": "way/196510836",
      "properties": {
        "way_id": 196510836,
        "check_date:surface": "2026-03-14",
        "highway": "footway",
        "surface": "dirt"
      },
      "geometry": {
        "type": "LineString",
        "coordinates": [
          [
            36.8243761,
            -1.2336645
          ],
          [
            36.8243849,
            -1.2337019
          ],
          [
            36.8244466,
            -1.2337482
          ],
          [
            36.8245171,
            -1.2337879
          ],
          [
            36.824592,
            -1.2338496
          ],
          [
            36.824711,
            -1.2339641
          ],
          [
            36.8247838,
            -1.2340346
          ],
          [
            36.8248411,
            -1.2341007
          ],
          [
            36.8248829,
            -1.2341668
          ],
          [
            36.8249416,
            -1.2342315
          ]
        ]
      }
    },
    {
      "type": "Feature",
      "id": "way/196510839",
      "properties": {
        "way_id": 196510839,
        "bridge": "yes",
        "check_date:surface": "2026-03-14",
        "highway": "footway",
        "surface": "dirt"
      },
      "geometry": {
        "type": "LineString",
        "coordinates": [
          [
            36.8263091,
            -1.2345341
          ],
          [
            36.8263374,
            -1.2344488
          ]
        ]
      }
    },
    {
      "type": "Feature",
      "id": "way/196510840",
      "properties": {
        "way_id": 196510840,
        "bridge": "yes",
        "check_date:surface": "2026-03-14",
        "highway": "footway",
        "surface": "dirt"
      },
      "geometry": {
        "type": "LineString",
        "coordinates": [
          [
            36.8278051,
            -1.2353588
          ],
          [
            36.8278382,
            -1.2352949
          ]
        ]
      }
    },
    {
      "type": "Feature",
      "id": "way/196510842",
      "properties": {
        "way_id": 196510842,
        "highway": "path",
        "surface": "dirt"
      },
      "geometry": {
        "type": "LineString",
        "coordinates": [
          [
            36.821757,
            -1.2315153
          ],
          [
            36.8219233,
            -1.2315251
          ],
          [
            36.8220092,
            -1.2315604
          ],
          [
            36.8220996,
            -1.2316088
          ],
          [
            36.8223927,
            -1.2316948
          ],
          [
            36.8225822,
            -1.2318248
          ],
          [
            36.8226571,
            -1.2318887
          ],
          [
            36.8229128,
            -1.2320407
          ],
          [
            36.822948,
            -1.2320803
          ],
          [
            36.8230913,
            -1.2321641
          ],
          [
            36.8232169,
            -1.2322676
          ],
          [
            36.8233028,
            -1.232369
          ],
          [
            36.8234108,
            -1.2325386
          ],
          [
            36.8234637,
            -1.2326422
          ],
          [
            36.8235607,
            -1.2327854
          ],
          [
            36.8236356,
            -1.2329044
          ],
          [
            36.8239309,
            -1.2332569
          ],
          [
            36.8241359,
            -1.2335014
          ],
          [
            36.8242196,
            -1.2335477
          ],
          [
            36.8243254,
            -1.2336424
          ],
          [
            36.8243761,
            -1.2336645
          ]
        ]
      }
    },
    {
      "type": "Feature",
      "id": "way/196510845",
      "properties": {
        "way_id": 196510845,
        "check_date:surface": "2026-03-14",
        "highway": "footway",
        "surface": "dirt"
      },
      "geometry": {
        "type": "LineString",
        "coordinates": [
          [
            36.8263374,
            -1.2344488
          ],
          [
            36.8263639,
            -1.2343894
          ],
          [
            36.8264939,
            -1.2343299
          ],
          [
            36.8265215,
            -1.2342925
          ]
        ]
      }
    },
    {
      "type": "Feature",
      "id": "way/196510846",
      "properties": {
        "way_id": 196510846,
        "highway": "path",
        "name": "Kima Trail",
        "surface": "dirt"
      },
      "geometry": {
        "type": "LineString",
        "coordinates": [
          [
            36.819383,
            -1.238357
          ],
          [
            36.8194374,
            -1.23806
          ],
          [
            36.8195102,
            -1.2378925
          ],
          [
            36.8196225,
            -1.2376986
          ],
          [
            36.8196622,
            -1.2376193
          ],
          [
            36.8198033,
            -1.2374475
          ],
          [
            36.8199267,
            -1.2372712
          ],
          [
            36.8200148,
            -1.2371038
          ],
          [
            36.8201581,
            -1.2369121
          ],
          [
            36.8202572,
            -1.2367402
          ],
          [
            36.820352,
            -1.2365904
          ],
          [
            36.820449,
            -1.236467
          ],
          [
            36.8205746,
            -1.2362445
          ],
          [
            36.8207641,
            -1.2360286
          ],
          [
            36.8208757,
            -1.2358348
          ],
          [
            36.8209558,
            -1.2356959
          ],
          [
            36.8210572,
            -1.2355505
          ],
          [
            36.8212445,
            -1.235079
          ],
          [
            36.8213261,
            -1.234852
          ],
          [
            36.8213569,
            -1.2347529
          ],
          [
            36.8214318,
            -1.2346053
          ],
          [
            36.8216081,
            -1.2343783
          ],
          [
            36.8218184,
            -1.2341416
          ],
          [
            36.8219056,
            -1.2340434
          ],
          [
            36.8222935,
            -1.2337835
          ],
          [
            36.8226836,
            -1.2335147
          ],
          [
            36.8227409,
            -1.2333384
          ],
          [
            36.8227365,
            -1.2332459
          ],
          [
            36.8227563,
            -1.2331027
          ],
          [
            36.8227607,
            -1.2329418
          ],
          [
            36.8227232,
            -1.2328008
          ],
          [
            36.82271,
            -1.2326973
          ],
          [
            36.8226836,
            -1.2326179
          ],
          [
            36.8226571,
            -1.2324681
          ],
          [
            36.8226064,
            -1.2323425
          ],
          [
            36.8225998,
            -1.2323029
          ],
          [
            36.8225513,
            -1.2321663
          ],
          [
            36.8224522,
            -1.2320627
          ],
          [
            36.8224015,
            -1.2320253
          ],
          [
            36.8222384,
            -1.2318468
          ],
          [
            36.8221987,
            -1.231827
          ],
          [
            36.8220753,
            -1.2316926
          ],
          [
            36.8219112,
            -1.2316083
          ],
          [
            36.8218395,
            -1.2315714
          ],
          [
            36.821757,
            -1.2315153
          ]
        ]
      }
    },
    {
      "type": "Feature",
      "id": "way/196510852",
      "properties": {
        "way_id": 196510852,
        "highway": "path",
        "surface": "dirt"
      },
      "geometry": {
        "type": "LineString",
        "coordinates": [
          [
            36.8278382,
            -1.2352949
          ],
          [
            36.8278712,
            -1.2352883
          ],
          [
            36.827847,
            -1.235242
          ],
          [
            36.8277954,
            -1.235228
          ],
          [
            36.8270279,
            -1.2346956
          ],
          [
            36.8267718,
            -1.2343837
          ],
          [
            36.8266041,
            -1.2342307
          ],
          [
            36.8265215,
            -1.2342925
          ]
        ]
      }
    },
    {
      "type": "Feature",
      "id": "way/280734652",
      "properties": {
        "way_id": 280734652,
        "highway": "path"
      },
      "geometry": {
        "type": "LineString",
        "coordinates": [
          [
            36.8205432,
            -1.2290341
          ],
          [
            36.8217208,
            -1.2299801
          ],
          [
            36.8218877,
            -1.2300526
          ],
          [
            36.8221328,
            -1.2300259
          ],
          [
            36.8236479,
            -1.2308488
          ],
          [
            36.8252438,
            -1.2315511
          ],
          [
            36.826647,
            -1.232239
          ]
        ]
      }
    },
    {
      "type": "Feature",
      "id": "way/280734653",
      "properties": {
        "way_id": 280734653,
        "highway": "path",
        "surface": "dirt"
      },
      "geometry": {
        "type": "LineString",
        "coordinates": [
          [
            36.826219,
            -1.233285
          ],
          [
            36.826084,
            -1.233339
          ],
          [
            36.82583,
            -1.233364
          ],
          [
            36.825577,
            -1.233335
          ],
          [
            36.825434,
            -1.233303
          ],
          [
            36.82506,
            -1.23316
          ],
          [
            36.824591,
            -1.232878
          ],
          [
            36.8243849,
            -1.232944
          ]
        ]
      }
    },
    {
      "type": "Feature",
      "id": "way/288610544",
      "properties": {
        "way_id": 288610544,
        "highway": "footway"
      },
      "geometry": {
        "type": "LineString",
        "coordinates": [
          [
            36.8183952,
            -1.2329958
          ],
          [
            36.8181594,
            -1.232984
          ],
          [
            36.8179784,
            -1.232972
          ],
          [
            36.8178423,
            -1.2329592
          ],
          [
            36.8177092,
            -1.2329751
          ],
          [
            36.8175717,
            -1.233005
          ],
          [
            36.817496,
            -1.2329938
          ],
          [
            36.8172606,
            -1.2329402
          ],
          [
            36.8170487,
            -1.2328952
          ],
          [
            36.8168147,
            -1.2328369
          ],
          [
            36.816631,
            -1.2328027
          ],
          [
            36.816464,
            -1.232782
          ],
          [
            36.8162903,
            -1.2327378
          ],
          [
            36.816131,
            -1.2326998
          ],
          [
            36.8160249,
            -1.2326874
          ],
          [
            36.8159583,
            -1.2326904
          ],
          [
            36.815946,
            -1.2327115
          ],
          [
            36.815949,
            -1.2327312
          ],
          [
            36.8159445,
            -1.2327607
          ],
          [
            36.8159225,
            -1.2328634
          ]
        ]
      }
    },
    {
      "type": "Feature",
      "id": "way/313840891",
      "properties": {
        "way_id": 313840891,
        "highway": "track",
        "name": "Wangari Maathai Track"
      },
      "geometry": {
        "type": "LineString",
        "coordinates": [
          [
            36.826647,
            -1.232239
          ],
          [
            36.8274955,
            -1.2326549
          ],
          [
            36.8283342,
            -1.2330413
          ],
          [
            36.8287243,
            -1.2332187
          ],
          [
            36.8302063,
            -1.2338863
          ],
          [
            36.8305243,
            -1.2340948
          ],
          [
            36.8307276,
            -1.2341901
          ],
          [
            36.8309167,
            -1.2342853
          ],
          [
            36.8321572,
            -1.2347277
          ],
          [
            36.8331409,
            -1.2351621
          ],
          [
            36.8334033,
            -1.2352663
          ],
          [
            36.833756,
            -1.235448
          ],
          [
            36.8368248,
            -1.236807
          ],
          [
            36.8392492,
            -1.2378987
          ]
        ]
      }
    },
    {
      "type": "Feature",
      "id": "way/315907888",
      "properties": {
        "way_id": 315907888,
        "highway": "service"
      },
      "geometry": {
        "type": "LineString",
        "coordinates": [
          [
            36.8189645,
            -1.2374587
          ],
          [
            36.819001,
            -1.2373235
          ],
          [
            36.8190921,
            -1.2371635
          ],
          [
            36.819225,
            -1.2369306
          ],
          [
            36.8192601,
            -1.236835
          ],
          [
            36.8193386,
            -1.2367481
          ],
          [
            36.8193148,
            -1.2367094
          ],
          [
            36.8193569,
            -1.2364336
          ],
          [
            36.8193791,
            -1.2362876
          ],
          [
            36.819381,
            -1.2362768
          ],
          [
            36.8194276,
            -1.2360102
          ],
          [
            36.8194567,
            -1.2358437
          ],
          [
            36.819493,
            -1.2355273
          ],
          [
            36.8194954,
            -1.2354506
          ]
        ]
      }
    },
    {
      "type": "Feature",
      "id": "way/364279364",
      "properties": {
        "way_id": 364279364,
        "highway": "service",
        "service": "parking_aisle",
        "surface": "paved"
      },
      "geometry": {
        "type": "LineString",
        "coordinates": [
          [
            36.818606,
            -1.2341811
          ],
          [
            36.8184327,
            -1.2341098
          ]
        ]
      }
    },
    {
      "type": "Feature",
      "id": "way/364279365",
      "properties": {
        "way_id": 364279365,
        "highway": "service",
        "service": "parking_aisle",
        "surface": "paved"
      },
      "geometry": {
        "type": "LineString",
        "coordinates": [
          [
            36.8186704,
            -1.2340216
          ],
          [
            36.8184659,
            -1.2339494
          ]
        ]
      }
    },
    {
      "type": "Feature",
      "id": "way/364279366",
      "properties": {
        "way_id": 364279366,
        "highway": "service",
        "service": "parking_aisle",
        "surface": "paved"
      },
      "geometry": {
        "type": "LineString",
        "coordinates": [
          [
            36.818735,
            -1.2338635
          ],
          [
            36.8185062,
            -1.2337756
          ]
        ]
      }
    },
    {
      "type": "Feature",
      "id": "way/364279367",
      "properties": {
        "way_id": 364279367,
        "highway": "service",
        "service": "parking_aisle",
        "surface": "paved"
      },
      "geometry": {
        "type": "LineString",
        "coordinates": [
          [
            36.8188122,
            -1.2336903
          ],
          [
            36.8185849,
            -1.2335844
          ]
        ]
      }
    },
    {
      "type": "Feature",
      "id": "way/364279368",
      "properties": {
        "way_id": 364279368,
        "highway": "service",
        "service": "parking_aisle",
        "surface": "paved"
      },
      "geometry": {
        "type": "LineString",
        "coordinates": [
          [
            36.8188789,
            -1.2335433
          ],
          [
            36.8186529,
            -1.2334454
          ]
        ]
      }
    },
    {
      "type": "Feature",
      "id": "way/364279369",
      "properties": {
        "way_id": 364279369,
        "highway": "service",
        "service": "parking_aisle",
        "surface": "paved"
      },
      "geometry": {
        "type": "LineString",
        "coordinates": [
          [
            36.8189504,
            -1.2333636
          ],
          [
            36.8187104,
            -1.2332543
          ]
        ]
      }
    },
    {
      "type": "Feature",
      "id": "way/364279370",
      "properties": {
        "way_id": 364279370,
        "highway": "service",
        "service": "parking_aisle",
        "surface": "paved"
      },
      "geometry": {
        "type": "LineString",
        "coordinates": [
          [
            36.8190141,
            -1.2332193
          ],
          [
            36.8187758,
            -1.233106
          ]
        ]
      }
    },
    {
      "type": "Feature",
      "id": "way/364279371",
      "properties": {
        "way_id": 364279371,
        "highway": "service",
        "service": "parking_aisle",
        "surface": "paved"
      },
      "geometry": {
        "type": "LineString",
        "coordinates": [
          [
            36.819266,
            -1.2338638
          ],
          [
            36.8188122,
            -1.2336903
          ]
        ]
      }
    },
    {
      "type": "Feature",
      "id": "way/364279372",
      "properties": {
        "way_id": 364279372,
        "highway": "service",
        "service": "parking_aisle",
        "surface": "paved"
      },
      "geometry": {
        "type": "LineString",
        "coordinates": [
          [
            36.818735,
            -1.2338635
          ],
          [
            36.8191946,
            -1.2340472
          ]
        ]
      }
    },
    {
      "type": "Feature",
      "id": "way/364279373",
      "properties": {
        "way_id": 364279373,
        "highway": "service",
        "service": "parking_aisle",
        "surface": "paved"
      },
      "geometry": {
        "type": "LineString",
        "coordinates": [
          [
            36.8186704,
            -1.2340216
          ],
          [
            36.8191297,
            -1.2342136
          ]
        ]
      }
    },
    {
      "type": "Feature",
      "id": "way/364279374",
      "properties": {
        "way_id": 364279374,
        "highway": "service",
        "service": "parking_aisle",
        "surface": "paved"
      },
      "geometry": {
        "type": "LineString",
        "coordinates": [
          [
            36.8188789,
            -1.2335433
          ],
          [
            36.819326,
            -1.23371
          ]
        ]
      }
    },
    {
      "type": "Feature",
      "id": "way/364279375",
      "properties": {
        "way_id": 364279375,
        "highway": "service",
        "service": "parking_aisle",
        "surface": "paved"
      },
      "geometry": {
        "type": "LineString",
        "coordinates": [
          [
            36.8189504,
            -1.2333636
          ],
          [
            36.8193896,
            -1.233547
          ]
        ]
      }
    },
    {
      "type": "Feature",
      "id": "way/364279548",
      "properties": {
        "way_id": 364279548,
        "highway": "service",
        "service": "parking_aisle",
        "surface": "paved"
      },
      "geometry": {
        "type": "LineString",
        "coordinates": [
          [
            36.8184275,
            -1.2344898
          ],
          [
            36.8188991,
            -1.234654
          ],
          [
            36.8189331,
            -1.2346564
          ],
          [
            36.818954,
            -1.2346419
          ],
          [
            36.8189708,
            -1.2346211
          ],
          [
            36.8191297,
            -1.2342136
          ],
          [
            36.8191946,
            -1.2340472
          ],
          [
            36.819266,
            -1.2338638
          ],
          [
            36.819326,
            -1.23371
          ],
          [
            36.8193896,
            -1.233547
          ],
          [
            36.8194506,
            -1.2334144
          ],
          [
            36.8194486,
            -1.2334023
          ],
          [
            36.8194382,
            -1.2333911
          ],
          [
            36.8194241,
            -1.2333809
          ],
          [
            36.8190141,
            -1.2332193
          ]
        ]
      }
    },
    {
      "type": "Feature",
      "id": "way/364279549",
      "properties": {
        "way_id": 364279549,
        "highway": "service",
        "service": "parking_aisle",
        "surface": "paved"
      },
      "geometry": {
        "type": "LineString",
        "coordinates": [
          [
            36.8190859,
            -1.2330411
          ],
          [
            36.819168,
            -1.2328922
          ],
          [
            36.8191867,
            -1.2328868
          ],
          [
            36.8192125,
            -1.2328848
          ]
        ]
      }
    },
    {
      "type": "Feature",
      "id": "way/364279550",
      "properties": {
        "way_id": 364279550,
        "highway": "service",
        "service": "parking_aisle",
        "surface": "paved"
      },
      "geometry": {
        "type": "LineString",
        "coordinates": [
          [
            36.8192125,
            -1.2328848
          ],
          [
            36.8192303,
            -1.2328828
          ],
          [
            36.8195139,
            -1.2330229
          ],
          [
            36.8195282,
            -1.2330216
          ],
          [
            36.8195348,
            -1.2330152
          ],
          [
            36.8195391,
            -1.2330048
          ],
          [
            36.819584,
            -1.2328825
          ],
          [
            36.8196314,
            -1.2327385
          ],
          [
            36.819689,
            -1.2325912
          ],
          [
            36.819738,
            -1.232455
          ],
          [
            36.8197869,
            -1.2323217
          ],
          [
            36.8193961,
            -1.2321789
          ]
        ]
      }
    },
    {
      "type": "Feature",
      "id": "way/692748279",
      "properties": {
        "way_id": 692748279,
        "highway": "path",
        "surface": "dirt"
      },
      "geometry": {
        "type": "LineString",
        "coordinates": [
          [
            36.8242907,
            -1.2331621
          ],
          [
            36.8243311,
            -1.2333951
          ],
          [
            36.8243761,
            -1.2336645
          ]
        ]
      }
    },
    {
      "type": "Feature",
      "id": "way/692748280",
      "properties": {
        "way_id": 692748280,
        "bridge": "yes",
        "highway": "path",
        "layer": "1",
        "surface": "dirt"
      },
      "geometry": {
        "type": "LineString",
        "coordinates": [
          [
            36.8243849,
            -1.232944
          ],
          [
            36.8242907,
            -1.2331621
          ]
        ]
      }
    },
    {
      "type": "Feature",
      "id": "way/692748293",
      "properties": {
        "way_id": 692748293,
        "highway": "path",
        "surface": "dirt"
      },
      "geometry": {
        "type": "LineString",
        "coordinates": [
          [
            36.8296896,
            -1.2393893
          ],
          [
            36.829631,
            -1.239201
          ],
          [
            36.829556,
            -1.239034
          ],
          [
            36.829491,
            -1.238749
          ],
          [
            36.829387,
            -1.238557
          ],
          [
            36.829177,
            -1.238305
          ],
          [
            36.828986,
            -1.237874
          ],
          [
            36.828782,
            -1.237666
          ],
          [
            36.828684,
            -1.237618
          ],
          [
            36.828674,
            -1.237595
          ],
          [
            36.828734,
            -1.237505
          ],
          [
            36.828757,
            -1.237324
          ],
          [
            36.82873,
            -1.23707
          ],
          [
            36.828672,
            -1.236859
          ],
          [
            36.828673,
            -1.236668
          ]
        ]
      }
    },
    {
      "type": "Feature",
      "id": "way/787027819",
      "properties": {
        "way_id": 787027819,
        "highway": "service",
        "service": "parking_aisle",
        "surface": "paved"
      },
      "geometry": {
        "type": "LineString",
        "coordinates": [
          [
            36.8190859,
            -1.2330411
          ],
          [
            36.819465,
            -1.2332234
          ]
        ]
      }
    },
    {
      "type": "Feature",
      "id": "way/787027820",
      "properties": {
        "way_id": 787027820,
        "highway": "service",
        "service": "parking_aisle",
        "surface": "paved"
      },
      "geometry": {
        "type": "LineString",
        "coordinates": [
          [
            36.8190859,
            -1.2330411
          ],
          [
            36.8187616,
            -1.2328546
          ],
          [
            36.8187194,
            -1.2328386
          ],
          [
            36.8187033,
            -1.2328386
          ],
          [
            36.8186777,
            -1.2328553
          ],
          [
            36.8186382,
            -1.2329016
          ],
          [
            36.8186074,
            -1.2329579
          ],
          [
            36.8186073,
            -1.2329934
          ],
          [
            36.8186335,
            -1.2330229
          ],
          [
            36.8187758,
            -1.233106
          ]
        ]
      }
    },
    {
      "type": "Feature",
      "id": "way/787027821",
      "properties": {
        "way_id": 787027821,
        "highway": "service",
        "service": "parking_aisle",
        "surface": "paved"
      },
      "geometry": {
        "type": "LineString",
        "coordinates": [
          [
            36.819168,
            -1.2328922
          ],
          [
            36.8188106,
            -1.2326897
          ]
        ]
      }
    },
    {
      "type": "Feature",
      "id": "way/787027822",
      "properties": {
        "way_id": 787027822,
        "highway": "service",
        "service": "parking_aisle",
        "surface": "paved"
      },
      "geometry": {
        "type": "LineString",
        "coordinates": [
          [
            36.819738,
            -1.232455
          ],
          [
            36.8193905,
            -1.2323243
          ],
          [
            36.8193543,
            -1.2323358
          ],
          [
            36.8193202,
            -1.232384
          ],
          [
            36.8192883,
            -1.232445
          ],
          [
            36.8192251,
            -1.232566
          ],
          [
            36.8191633,
            -1.2326844
          ],
          [
            36.819174,
            -1.2327085
          ],
          [
            36.8192102,
            -1.2327273
          ],
          [
            36.819584,
            -1.2328825
          ]
        ]
      }
    },
    {
      "type": "Feature",
      "id": "way/863548211",
      "properties": {
        "way_id": 863548211,
        "highway": "footway"
      },
      "geometry": {
        "type": "LineString",
        "coordinates": [
          [
            36.8183435,
            -1.2341402
          ],
          [
            36.8183716,
            -1.2342096
          ],
          [
            36.8184184,
            -1.2343233
          ],
          [
            36.8184233,
            -1.2343677
          ],
          [
            36.8184119,
            -1.2344213
          ],
          [
            36.8183957,
            -1.2344483
          ],
          [
            36.8183769,
            -1.2344617
          ],
          [
            36.8183179,
            -1.2344724
          ],
          [
            36.8182376,
            -1.2344982
          ]
        ]
      }
    },
    {
      "type": "Feature",
      "id": "way/863548212",
      "properties": {
        "way_id": 863548212,
        "highway": "footway"
      },
      "geometry": {
        "type": "LineString",
        "coordinates": [
          [
            36.816739,
            -1.2332367
          ],
          [
            36.8168555,
            -1.2332635
          ],
          [
            36.8169124,
            -1.2332657
          ],
          [
            36.8172443,
            -1.2333489
          ],
          [
            36.8174247,
            -1.2333944
          ],
          [
            36.8175672,
            -1.2334274
          ],
          [
            36.817967,
            -1.23351
          ],
          [
            36.8180622,
            -1.233505
          ],
          [
            36.818233,
            -1.2335549
          ],
          [
            36.8184967,
            -1.2336503
          ]
        ]
      }
    },
    {
      "type": "Feature",
      "id": "way/885197356",
      "properties": {
        "way_id": 885197356,
        "highway": "service",
        "source": "maxar"
      },
      "geometry": {
        "type": "LineString",
        "coordinates": [
          [
            36.8194954,
            -1.2354506
          ],
          [
            36.819484,
            -1.235415
          ],
          [
            36.8194674,
            -1.2353819
          ],
          [
            36.8194398,
            -1.2353553
          ],
          [
            36.8194045,
            -1.2353325
          ],
          [
            36.8193566,
            -1.2353123
          ],
          [
            36.8193219,
            -1.235304
          ],
          [
            36.8192932,
            -1.2353076
          ],
          [
            36.8192483,
            -1.2353208
          ],
          [
            36.8192246,
            -1.2353381
          ],
          [
            36.8191982,
            -1.235345
          ]
        ]
      }
    },
    {
      "type": "Feature",
      "id": "way/885197357",
      "properties": {
        "way_id": 885197357,
        "highway": "service",
        "source": "maxar"
      },
      "geometry": {
        "type": "LineString",
        "coordinates": [
          [
            36.8188368,
            -1.2359104
          ],
          [
            36.819111,
            -1.2359352
          ],
          [
            36.8192751,
            -1.2359669
          ],
          [
            36.8194276,
            -1.2360102
          ],
          [
            36.8195275,
            -1.2360481
          ],
          [
            36.8196854,
            -1.2360724
          ]
        ]
      }
    },
    {
      "type": "Feature",
      "id": "way/885197358",
      "properties": {
        "way_id": 885197358,
        "highway": "service"
      },
      "geometry": {
        "type": "LineString",
        "coordinates": [
          [
            36.8196854,
            -1.2360724
          ],
          [
            36.8197172,
            -1.2360774
          ],
          [
            36.8197477,
            -1.2360754
          ],
          [
            36.8197737,
            -1.2360711
          ],
          [
            36.8197941,
            -1.2360599
          ],
          [
            36.8198128,
            -1.2360407
          ],
          [
            36.8198231,
            -1.2360174
          ],
          [
            36.8198202,
            -1.2359814
          ],
          [
            36.8198062,
            -1.2359454
          ],
          [
            36.8197822,
            -1.2359315
          ],
          [
            36.8197526,
            -1.235921
          ],
          [
            36.8197306,
            -1.2359181
          ],
          [
            36.8196975,
            -1.2359228
          ],
          [
            36.8196722,
            -1.2359303
          ],
          [
            36.8196483,
            -1.2359419
          ],
          [
            36.8196326,
            -1.2359532
          ],
          [
            36.8196102,
            -1.2359761
          ],
          [
            36.8195826,
            -1.236001
          ],
          [
            36.8195564,
            -1.2360232
          ],
          [
            36.8195275,
            -1.2360481
          ]
        ]
      }
    },
    {
      "type": "Feature",
      "id": "way/885201522",
      "properties": {
        "way_id": 885201522,
        "highway": "service",
        "source": "maxar"
      },
      "geometry": {
        "type": "LineString",
        "coordinates": [
          [
            36.8191982,
            -1.235345
          ],
          [
            36.8191696,
            -1.2353405
          ],
          [
            36.8190836,
            -1.2352954
          ]
        ]
      }
    },
    {
      "type": "Feature",
      "id": "way/885201525",
      "properties": {
        "way_id": 885201525,
        "highway": "service"
      },
      "geometry": {
        "type": "LineString",
        "coordinates": [
          [
            36.8193569,
            -1.2364336
          ],
          [
            36.8194001,
            -1.2364429
          ],
          [
            36.8194495,
            -1.2364637
          ],
          [
            36.8195002,
            -1.2364754
          ],
          [
            36.8195508,
            -1.2364845
          ],
          [
            36.8195872,
            -1.2364819
          ],
          [
            36.8196262,
            -1.2364728
          ],
          [
            36.8196704,
            -1.236452
          ],
          [
            36.8196964,
            -1.2364117
          ],
          [
            36.819699,
            -1.2363676
          ],
          [
            36.8196704,
            -1.2363338
          ],
          [
            36.8196184,
            -1.2363169
          ],
          [
            36.819543,
            -1.2363078
          ],
          [
            36.8194742,
            -1.2363
          ],
          [
            36.8194105,
            -1.2362857
          ],
          [
            36.819381,
            -1.2362768
          ]
        ]
      }
    },
    {
      "type": "Feature",
      "id": "way/995112827",
      "properties": {
        "way_id": 995112827,
        "highway": "path",
        "surface": "dirt"
      },
      "geometry": {
        "type": "LineString",
        "coordinates": [
          [
            36.821757,
            -1.2315153
          ],
          [
            36.8214565,
            -1.2313242
          ],
          [
            36.8211841,
            -1.2312429
          ],
          [
            36.821155,
            -1.2312375
          ],
          [
            36.8208522,
            -1.2311815
          ]
        ]
      }
    },
    {
      "type": "Feature",
      "id": "way/995320395",
      "properties": {
        "way_id": 995320395,
        "highway": "service",
        "name": "Unmarked Road",
        "source": "maxar"
      },
      "geometry": {
        "type": "LineString",
        "coordinates": [
          [
            36.8192483,
            -1.2353208
          ],
          [
            36.819016,
            -1.2352123
          ]
        ]
      }
    },
    {
      "type": "Feature",
      "id": "way/1082822652",
      "properties": {
        "way_id": 1082822652,
        "highway": "path"
      },
      "geometry": {
        "type": "LineString",
        "coordinates": [
          [
            36.8195703,
            -1.230029
          ],
          [
            36.8195494,
            -1.2300341
          ],
          [
            36.8195622,
            -1.2300685
          ],
          [
            36.8196515,
            -1.230154
          ],
          [
            36.819774,
            -1.2302267
          ],
          [
            36.8199066,
            -1.2303555
          ],
          [
            36.8202001,
            -1.2306145
          ],
          [
            36.8203481,
            -1.2307574
          ],
          [
            36.8204146,
            -1.2307614
          ],
          [
            36.8205512,
            -1.2306916
          ],
          [
            36.8206407,
            -1.2306218
          ],
          [
            36.8207555,
            -1.23056
          ],
          [
            36.8208547,
            -1.2305691
          ],
          [
            36.8209666,
            -1.2306502
          ],
          [
            36.8209955,
            -1.2307386
          ],
          [
            36.8209594,
            -1.2308288
          ],
          [
            36.8208836,
            -1.2308956
          ],
          [
            36.8208391,
            -1.2309285
          ],
          [
            36.820806,
            -1.2310291
          ],
          [
            36.820815,
            -1.2311211
          ],
          [
            36.8208522,
            -1.2311815
          ]
        ]
      }
    },
    {
      "type": "Feature",
      "id": "way/1082822653",
      "properties": {
        "way_id": 1082822653,
        "highway": "path"
      },
      "geometry": {
        "type": "LineString",
        "coordinates": [
          [
            36.8208757,
            -1.2358348
          ],
          [
            36.8208278,
            -1.235752
          ],
          [
            36.8207767,
            -1.2355989
          ],
          [
            36.8207308,
            -1.2355097
          ],
          [
            36.820667,
            -1.2354918
          ],
          [
            36.8205879,
            -1.2354918
          ],
          [
            36.8204603,
            -1.2354076
          ],
          [
            36.8203149,
            -1.2352086
          ],
          [
            36.8202281,
            -1.2351372
          ],
          [
            36.8201133,
            -1.2350275
          ],
          [
            36.8200418,
            -1.2349765
          ],
          [
            36.819927,
            -1.2349892
          ],
          [
            36.8198428,
            -1.2350096
          ],
          [
            36.8196846,
            -1.2349714
          ],
          [
            36.8195672,
            -1.2348846
          ],
          [
            36.8194702,
            -1.2348055
          ],
          [
            36.8193988,
            -1.2346933
          ],
          [
            36.8193758,
            -1.2345708
          ],
          [
            36.8193911,
            -1.2344254
          ],
          [
            36.8194422,
            -1.2342443
          ],
          [
            36.8194881,
            -1.2341218
          ],
          [
            36.8195851,
            -1.2340223
          ],
          [
            36.8197407,
            -1.2338718
          ],
          [
            36.8197637,
            -1.2337519
          ],
          [
            36.8197407,
            -1.2336371
          ],
          [
            36.8197867,
            -1.2335172
          ],
          [
            36.8198249,
            -1.2334509
          ],
          [
            36.819802,
            -1.2333437
          ],
          [
            36.8198632,
            -1.2332672
          ],
          [
            36.8198783,
            -1.2331964
          ],
          [
            36.8199734,
            -1.2330931
          ],
          [
            36.8200908,
            -1.2329754
          ],
          [
            36.8201282,
            -1.232723
          ],
          [
            36.8201632,
            -1.2326265
          ],
          [
            36.8202367,
            -1.2324699
          ],
          [
            36.8202603,
            -1.2323358
          ],
          [
            36.8202931,
            -1.2322293
          ],
          [
            36.8203796,
            -1.2321759
          ],
          [
            36.8203459,
            -1.2321091
          ],
          [
            36.8203692,
            -1.2320646
          ],
          [
            36.8203655,
            -1.231995
          ],
          [
            36.8203666,
            -1.2319354
          ],
          [
            36.8203508,
            -1.2318693
          ],
          [
            36.820343,
            -1.2318107
          ],
          [
            36.8203691,
            -1.2317351
          ],
          [
            36.8204018,
            -1.2316741
          ],
          [
            36.8204413,
            -1.2316513
          ],
          [
            36.8204829,
            -1.2316339
          ],
          [
            36.820664,
            -1.2316131
          ],
          [
            36.8207122,
            -1.2316077
          ],
          [
            36.8208155,
            -1.2316198
          ],
          [
            36.8208534,
            -1.2316503
          ],
          [
            36.8209529,
            -1.2315591
          ],
          [
            36.8210397,
            -1.2314979
          ],
          [
            36.8211137,
            -1.2314469
          ],
          [
            36.8211937,
            -1.2314039
          ],
          [
            36.8212286,
            -1.2313369
          ],
          [
            36.8212097,
            -1.231304
          ],
          [
            36.8211669,
            -1.2312846
          ],
          [
            36.8211038,
            -1.2312712
          ],
          [
            36.8210059,
            -1.2312658
          ],
          [
            36.8208933,
            -1.231239
          ],
          [
            36.8208522,
            -1.2311815
          ]
        ]
      }
    },
    {
      "type": "Feature",
      "id": "way/1136914475",
      "properties": {
        "way_id": 1136914475,
        "highway": "service",
        "service": "parking_aisle",
        "surface": "paved"
      },
      "geometry": {
        "type": "LineString",
        "coordinates": [
          [
            36.8192883,
            -1.232445
          ],
          [
            36.819689,
            -1.2325912
          ]
        ]
      }
    },
    {
      "type": "Feature",
      "id": "way/1136914476",
      "properties": {
        "way_id": 1136914476,
        "highway": "service",
        "service": "parking_aisle",
        "surface": "paved"
      },
      "geometry": {
        "type": "LineString",
        "coordinates": [
          [
            36.8192251,
            -1.232566
          ],
          [
            36.8196314,
            -1.2327385
          ]
        ]
      }
    },
    {
      "type": "Feature",
      "id": "way/1332841839",
      "properties": {
        "way_id": 1332841839,
        "highway": "path",
        "name": "Tara Path",
        "surface": "dirt"
      },
      "geometry": {
        "type": "LineString",
        "coordinates": [
          [
            36.8265215,
            -1.2342925
          ],
          [
            36.82637,
            -1.23432
          ],
          [
            36.826262,
            -1.234231
          ],
          [
            36.826262,
            -1.233726
          ],
          [
            36.826303,
            -1.23344
          ],
          [
            36.826296,
            -1.233406
          ],
          [
            36.826219,
            -1.233285
          ],
          [
            36.8263355,
            -1.2331894
          ],
          [
            36.8264041,
            -1.233024
          ],
          [
            36.8264884,
            -1.2327648
          ],
          [
            36.826527,
            -1.232496
          ],
          [
            36.826647,
            -1.232239
          ],
          [
            36.826688,
            -1.232026
          ],
          [
            36.826806,
            -1.231572
          ],
          [
            36.826865,
            -1.231254
          ],
          [
            36.826967,
            -1.23095
          ],
          [
            36.827097,
            -1.23039
          ],
          [
            36.827138,
            -1.230178
          ],
          [
            36.827176,
            -1.229857
          ],
          [
            36.8271996,
            -1.2298171
          ],
          [
            36.827353,
            -1.229751
          ],
          [
            36.827452,
            -1.229649
          ],
          [
            36.8278207,
            -1.2295249
          ],
          [
            36.827921,
            -1.229479
          ],
          [
            36.8280529,
            -1.2294138
          ],
          [
            36.8282727,
            -1.2291957
          ],
          [
            36.8283172,
            -1.2291411
          ],
          [
            36.8283671,
            -1.2290602
          ],
          [
            36.8283857,
            -1.2289647
          ],
          [
            36.8283336,
            -1.2288667
          ],
          [
            36.8283058,
            -1.2288142
          ]
        ]
      }
    }
  ]
}
