{
  "type": "FeatureCollection",
  "features": [
    {
      "type": "Feature",
      "id": "way/24951183",
      "properties": {
        "way_id": 24951183,
        "way_version": 8,
        "node_ids": [
          5106129024,
          6164247340,
          5106129023,
          6164247339,
          6164247338,
          6164247341,
          6164247343,
          271139406
        ],
        "access": "private",
        "highway": "residential"
      },
      "geometry": {
        "type": "LineString",
        "coordinates": [
          [
            36.8341318,
            -1.2482335
          ],
          [
            36.8342426,
            -1.2483662
          ],
          [
            36.8342618,
            -1.2484031
          ],
          [
            36.8342701,
            -1.2484433
          ],
          [
            36.8342742,
            -1.2486237
          ],
          [
            36.8342681,
            -1.2487987
          ],
          [
            36.834252,
            -1.249217
          ],
          [
            36.8342628,
            -1.2492636
          ]
        ]
      }
    },
    {
      "type": "Feature",
      "id": "way/60200205",
      "properties": {
        "way_id": 60200205,
        "way_version": 7,
        "node_ids": [
          9810272375,
          2847945631,
          2847945632,
          747730111,
          2847945633,
          2847945634,
          2847945637,
          2847945638,
          2847945639,
          2847945640,
          2847945641,
          9521536668,
          2847945642,
          2847945643,
          2847945644,
          2847945645,
          2847945646,
          747730057
        ],
        "highway": "path"
      },
      "geometry": {
        "type": "LineString",
        "coordinates": [
          [
            36.8398371,
            -1.250795
          ],
          [
            36.839471,
            -1.25029
          ],
          [
            36.839201,
            -1.249907
          ],
          [
            36.838896,
            -1.249601
          ],
          [
            36.838755,
            -1.249488
          ],
          [
            36.838667,
            -1.249426
          ],
          [
            36.838515,
            -1.2493
          ],
          [
            36.837633,
            -1.248804
          ],
          [
            36.837206,
            -1.248606
          ],
          [
            36.836937,
            -1.248501
          ],
          [
            36.836679,
            -1.24837
          ],
          [
            36.8361045,
            -1.2480256
          ],
          [
            36.83581,
            -1.247849
          ],
          [
            36.835222,
            -1.24743
          ],
          [
            36.834883,
            -1.247222
          ],
          [
            36.834677,
            -1.247078
          ],
          [
            36.83461,
            -1.247051
          ],
          [
            36.834155,
            -1.246945
          ]
        ]
      }
    },
    {
      "type": "Feature",
      "id": "way/60200210",
      "properties": {
        "way_id": 60200210,
        "way_version": 9,
        "node_ids": [
          748782349,
          747730068,
          11952165190,
          11952165188,
          747730105,
          747730086,
          11952184360,
          11952184361,
          11952184362,
          11952184363,
          11952184364,
          747730032,
          11952184365,
          11952184366,
          11952184367,
          11952184368,
          11952184369,
          747730109,
          2847945484,
          11952184371,
          11952184372,
          11952184373,
          11952184374,
          748782536
        ],
        "highway": "residential",
        "surface": "dirt"
      },
      "geometry": {
        "type": "LineString",
        "coordinates": [
          [
            36.8325244,
            -1.2420622
          ],
          [
            36.8322949,
            -1.2423438
          ],
          [
            36.8322194,
            -1.2424117
          ],
          [
            36.832467,
            -1.2431975
          ],
          [
            36.8327141,
            -1.2437442
          ],
          [
            36.832964,
            -1.2440494
          ],
          [
            36.8330424,
            -1.2440992
          ],
          [
            36.83299,
            -1.2441642
          ],
          [
            36.8328942,
            -1.2442306
          ],
          [
            36.8328191,
            -1.2443258
          ],
          [
            36.832687,
            -1.2446174
          ],
          [
            36.8327721,
            -1.2446832
          ],
          [
            36.8329874,
            -1.2446617
          ],
          [
            36.8330779,
            -1.2446409
          ],
          [
            36.8332174,
            -1.2445899
          ],
          [
            36.8333146,
            -1.2445236
          ],
          [
            36.8334534,
            -1.2444545
          ],
          [
            36.8335908,
            -1.2444458
          ],
          [
            36.8337163,
            -1.2443982
          ],
          [
            36.8339677,
            -1.2442849
          ],
          [
            36.8342292,
            -1.2442098
          ],
          [
            36.8345135,
            -1.2441656
          ],
          [
            36.8350151,
            -1.2439859
          ],
          [
            36.8350879,
            -1.2436536
          ]
        ]
      }
    },
    {
      "type": "Feature",
      "id": "way/60257635",
      "properties": {
        "way_id": 60257635,
        "way_version": 7,
        "node_ids": [
          748782536,
          2847824180,
          747730078,
          1562480533,
          1562480531,
          1562480534,
          1562480523,
          1562480535,
          1562480536,
          1562475927
        ],
        "highway": "path",
        "surface": "dirt"
      },
      "geometry": {
        "type": "LineString",
        "coordinates": [
          [
            36.8350879,
            -1.2436536
          ],
          [
            36.8352874,
            -1.2437539
          ],
          [
            36.836001,
            -1.2440719
          ],
          [
            36.8367093,
            -1.2439485
          ],
          [
            36.8368729,
            -1.2440303
          ],
          [
            36.8371613,
            -1.2441563
          ],
          [
            36.8371478,
            -1.2443521
          ],
          [
            36.8373302,
            -1.2447812
          ],
          [
            36.8375421,
            -1.2451753
          ],
          [
            36.838289,
            -1.245925
          ]
        ]
      }
    },
    {
      "type": "Feature",
      "id": "way/142776095",
      "properties": {
        "way_id": 142776095,
        "way_version": 4,
        "node_ids": [
          1554849708,
          2847824253,
          2847824254,
          1562475961,
          2847824255,
          1562475965,
          1562475970,
          1562475924,
          1562475927
        ],
        "highway": "path",
        "surface": "dirt"
      },
      "geometry": {
        "type": "LineString",
        "coordinates": [
          [
            36.839299,
            -1.243434
          ],
          [
            36.839183,
            -1.243655
          ],
          [
            36.839096,
            -1.243858
          ],
          [
            36.839015,
            -1.244099
          ],
          [
            36.838849,
            -1.244467
          ],
          [
            36.838743,
            -1.244738
          ],
          [
            36.8385273,
            -1.2452705
          ],
          [
            36.838385,
            -1.245736
          ],
          [
            36.838289,
            -1.245925
          ]
        ]
      }
    },
    {
      "type": "Feature",
      "id": "way/142776101",
      "properties": {
        "way_id": 142776101,
        "way_version": 5,
        "node_ids": [
          1562475927,
          9810272408,
          748782301,
          747730058,
          6503768700,
          2847945649,
          745351464
        ],
        "highway": "track",
        "surface": "dirt"
      },
      "geometry": {
        "type": "LineString",
        "coordinates": [
          [
            36.838289,
            -1.245925
          ],
          [
            36.8383053,
            -1.2459464
          ],
          [
            36.8386526,
            -1.2464035
          ],
          [
            36.8395742,
            -1.2474303
          ],
          [
            36.8399934,
            -1.2479522
          ],
          [
            36.8403629,
            -1.2484467
          ],
          [
            36.8407463,
            -1.249038
          ]
        ]
      }
    },
    {
      "type": "Feature",
      "id": "way/280720866",
      "properties": {
        "way_id": 280720866,
        "way_version": 5,
        "node_ids": [
          2847824092,
          2847824093,
          2847824094,
          2847824095,
          2847824096,
          2847824097,
          2847824098,
          2847824086,
          2847824099,
          2847824100,
          2847824101,
          2847824102,
          2847824087,
          2847824103,
          2847824104,
          2847824105,
          2847824106,
          2847824107,
          2847824108,
          2847824109,
          2847824088,
          2847824110,
          2847824111,
          2847824112,
          2847824113,
          2847824117,
          2847824118,
          2847824119,
          2847824120,
          2847824121,
          2847824122,
          2847824123,
          2847824125,
          2847824126,
          2847824127,
          2847824128,
          2847824129,
          2847824130,
          2847824131,
          2847824132,
          2847824089,
          2847824133,
          2847824134,
          2847824135,
          2847824136,
          2847824137,
          2847824138,
          747730037
        ],
        "highway": "path",
        "name": "Turaco Path",
        "surface": "unpaved",
        "width": "2.5"
      },
      "geometry": {
        "type": "LineString",
        "coordinates": [
          [
            36.8316199,
            -1.2469278
          ],
          [
            36.831433,
            -1.246662
          ],
          [
            36.831348,
            -1.246595
          ],
          [
            36.831119,
            -1.246487
          ],
          [
            36.831074,
            -1.246432
          ],
          [
            36.830987,
            -1.246369
          ],
          [
            36.830946,
            -1.246311
          ],
          [
            36.830953,
            -1.246203
          ],
          [
            36.831015,
            -1.245996
          ],
          [
            36.830995,
            -1.24593
          ],
          [
            36.83086,
            -1.24581
          ],
          [
            36.830774,
            -1.245697
          ],
          [
            36.830591,
            -1.245581
          ],
          [
            36.830429,
            -1.24544
          ],
          [
            36.830389,
            -1.245379
          ],
          [
            36.830234,
            -1.245228
          ],
          [
            36.830064,
            -1.244995
          ],
          [
            36.829956,
            -1.2449
          ],
          [
            36.82988,
            -1.244777
          ],
          [
            36.82978,
            -1.244674
          ],
          [
            36.829464,
            -1.244436
          ],
          [
            36.829336,
            -1.244369
          ],
          [
            36.82923,
            -1.244341
          ],
          [
            36.829169,
            -1.244305
          ],
          [
            36.8290344,
            -1.2442689
          ],
          [
            36.8288654,
            -1.2442003
          ],
          [
            36.828793,
            -1.244124
          ],
          [
            36.828757,
            -1.244118
          ],
          [
            36.828661,
            -1.244067
          ],
          [
            36.828578,
            -1.243998
          ],
          [
            36.828558,
            -1.243969
          ],
          [
            36.8284618,
            -1.2439121
          ],
          [
            36.8283362,
            -1.2437932
          ],
          [
            36.828227,
            -1.243717
          ],
          [
            36.828134,
            -1.243662
          ],
          [
            36.82792,
            -1.243467
          ],
          [
            36.827685,
            -1.243299
          ],
          [
            36.827553,
            -1.243176
          ],
          [
            36.827354,
            -1.243025
          ],
          [
            36.827287,
            -1.242943
          ],
          [
            36.8272,
            -1.242878
          ],
          [
            36.827136,
            -1.242791
          ],
          [
            36.827031,
            -1.242692
          ],
          [
            36.827016,
            -1.242624
          ],
          [
            36.82691,
            -1.242527
          ],
          [
            36.826827,
            -1.242409
          ],
          [
            36.826653,
            -1.24228
          ],
          [
            36.8265597,
            -1.2421472
          ]
        ]
      }
    },
    {
      "type": "Feature",
      "id": "way/280720869",
      "properties": {
        "way_id": 280720869,
        "way_version": 6,
        "node_ids": [
          747730057,
          2847824167,
          2847824168,
          5927778335,
          2847824170,
          2847824166,
          13519277170,
          2847824171,
          2847824172,
          2847824173,
          2847824092,
          6503768715,
          2068421893,
          2068421890,
          2068421886,
          2068421894,
          2068421900,
          2068421896,
          2068421858,
          2068421883,
          2068421873,
          2068421864,
          2068421853,
          2068421889,
          2068421876,
          2068421857,
          2068421881,
          2068421902,
          12760595288,
          2068421899,
          12760595287,
          2068421874,
          2068421870,
          2068421855,
          2068421862,
          2068421877,
          12760595286,
          2068421860,
          2068421871,
          12760595284,
          2068421867,
          2068421891,
          2068421869,
          2068421861,
          12760595285,
          2068421866,
          2068421901,
          2068421897,
          2068421863,
          12760595283,
          2068421880,
          12760595282,
          12760595281,
          2068421884,
          2068421875,
          12760595280,
          2068421854,
          2068421888,
          2068421856,
          2068421892,
          2068421859,
          12760595279,
          6503767358,
          13075347358,
          2026570585
        ],
        "highway": "footway",
        "name": "Family Trail",
        "surface": "unpaved",
        "width": "2.5"
      },
      "geometry": {
        "type": "LineString",
        "coordinates": [
          [
            36.834155,
            -1.246945
          ],
          [
            36.834018,
            -1.246985
          ],
          [
            36.833687,
            -1.247014
          ],
          [
            36.833544,
            -1.247045
          ],
          [
            36.833248,
            -1.247052
          ],
          [
            36.833101,
            -1.247032
          ],
          [
            36.8329536,
            -1.2470287
          ],
          [
            36.83288,
            -1.247027
          ],
          [
            36.832109,
            -1.246947
          ],
          [
            36.831702,
            -1.24694
          ],
          [
            36.8316199,
            -1.2469278
          ],
          [
            36.8314042,
            -1.247011
          ],
          [
            36.8311603,
            -1.2472275
          ],
          [
            36.8308921,
            -1.2475922
          ],
          [
            36.8306989,
            -1.2478389
          ],
          [
            36.8303449,
            -1.2479998
          ],
          [
            36.8300123,
            -1.248107
          ],
          [
            36.829508,
            -1.2483323
          ],
          [
            36.8288643,
            -1.2484825
          ],
          [
            36.8284137,
            -1.2485683
          ],
          [
            36.828156,
            -1.248654
          ],
          [
            36.8277083,
            -1.2487613
          ],
          [
            36.8272514,
            -1.2487803
          ],
          [
            36.8269707,
            -1.2488874
          ],
          [
            36.8267105,
            -1.2490027
          ],
          [
            36.8263741,
            -1.2490768
          ],
          [
            36.8261472,
            -1.2490563
          ],
          [
            36.8258119,
            -1.2489786
          ],
          [
            36.8256564,
            -1.2489203
          ],
          [
            36.8254971,
            -1.2488202
          ],
          [
            36.8252317,
            -1.2486383
          ],
          [
            36.8250501,
            -1.2485592
          ],
          [
            36.8248561,
            -1.2484569
          ],
          [
            36.8244594,
            -1.2483401
          ],
          [
            36.8240427,
            -1.2482493
          ],
          [
            36.8237283,
            -1.2481318
          ],
          [
            36.8235686,
            -1.2480897
          ],
          [
            36.8234052,
            -1.2480247
          ],
          [
            36.8231156,
            -1.2478872
          ],
          [
            36.8229269,
            -1.2477996
          ],
          [
            36.8227724,
            -1.247672
          ],
          [
            36.822496,
            -1.2474365
          ],
          [
            36.8222263,
            -1.2472454
          ],
          [
            36.8219663,
            -1.2471135
          ],
          [
            36.8217798,
            -1.2470362
          ],
          [
            36.8216009,
            -1.2469379
          ],
          [
            36.8212543,
            -1.2467689
          ],
          [
            36.820788,
            -1.2466409
          ],
          [
            36.8205514,
            -1.2466452
          ],
          [
            36.8204082,
            -1.2466548
          ],
          [
            36.820275,
            -1.2466662
          ],
          [
            36.820091,
            -1.24665
          ],
          [
            36.819957,
            -1.2466289
          ],
          [
            36.8196992,
            -1.2465999
          ],
          [
            36.8194149,
            -1.2466349
          ],
          [
            36.8192914,
            -1.2467004
          ],
          [
            36.8191578,
            -1.2467292
          ],
          [
            36.8187309,
            -1.2468547
          ],
          [
            36.8184004,
            -1.2469946
          ],
          [
            36.8180935,
            -1.2471248
          ],
          [
            36.8178658,
            -1.2472276
          ],
          [
            36.8178039,
            -1.2472385
          ],
          [
            36.817732,
            -1.2472261
          ],
          [
            36.8177062,
            -1.2472386
          ],
          [
            36.8176685,
            -1.2472568
          ]
        ]
      }
    },
    {
      "type": "Feature",
      "id": "way/280720870",
      "properties": {
        "way_id": 280720870,
        "way_version": 3,
        "node_ids": [
          5927778335,
          5927778336,
          2847824184,
          2847824186,
          2847824175,
          2847824188,
          2847824189,
          2847824199,
          2847824200,
          2847824176,
          2847824201,
          2847824202,
          2847824203,
          2847824204,
          2847824177,
          2847824208,
          2847824209,
          2847824210,
          2847824211,
          2847824212,
          2847824213,
          2847824214,
          2847824178,
          2847824215,
          2847824216,
          2847824217,
          2847824218,
          2847824219,
          2847824179,
          2847824220,
          2847824221,
          2847824222,
          2847824223,
          2847824224,
          2847824225,
          2847824226,
          2847824227,
          2847824228,
          2847824229,
          2847824230,
          2847824180
        ],
        "highway": "path"
      },
      "geometry": {
        "type": "LineString",
        "coordinates": [
          [
            36.833544,
            -1.247045
          ],
          [
            36.833711,
            -1.2468702
          ],
          [
            36.833965,
            -1.24664
          ],
          [
            36.834196,
            -1.246481
          ],
          [
            36.834324,
            -1.24643
          ],
          [
            36.834534,
            -1.246478
          ],
          [
            36.835262,
            -1.246781
          ],
          [
            36.836742,
            -1.247585
          ],
          [
            36.836883,
            -1.247618
          ],
          [
            36.836991,
            -1.247625
          ],
          [
            36.837271,
            -1.247552
          ],
          [
            36.837337,
            -1.247522
          ],
          [
            36.837453,
            -1.247439
          ],
          [
            36.837479,
            -1.247416
          ],
          [
            36.837529,
            -1.24732
          ],
          [
            36.837529,
            -1.247224
          ],
          [
            36.837451,
            -1.247062
          ],
          [
            36.83735,
            -1.246962
          ],
          [
            36.837299,
            -1.246866
          ],
          [
            36.83717,
            -1.24674
          ],
          [
            36.83711,
            -1.24665
          ],
          [
            36.837076,
            -1.246638
          ],
          [
            36.837003,
            -1.246561
          ],
          [
            36.836864,
            -1.246396
          ],
          [
            36.836753,
            -1.246307
          ],
          [
            36.836563,
            -1.24621
          ],
          [
            36.836294,
            -1.246031
          ],
          [
            36.836233,
            -1.245943
          ],
          [
            36.836061,
            -1.245812
          ],
          [
            36.836017,
            -1.245755
          ],
          [
            36.835969,
            -1.245659
          ],
          [
            36.835957,
            -1.245589
          ],
          [
            36.835844,
            -1.245286
          ],
          [
            36.835808,
            -1.245147
          ],
          [
            36.835696,
            -1.245011
          ],
          [
            36.835598,
            -1.24478
          ],
          [
            36.835476,
            -1.244558
          ],
          [
            36.835371,
            -1.244138
          ],
          [
            36.835358,
            -1.243887
          ],
          [
            36.8353574,
            -1.2438651
          ],
          [
            36.8352874,
            -1.2437539
          ]
        ]
      }
    },
    {
      "type": "Feature",
      "id": "way/280734416",
      "properties": {
        "way_id": 280734416,
        "way_version": 2,
        "node_ids": [
          2847945648,
          2847945663,
          2847945664,
          2847945665,
          2847945666,
          2847945658,
          2847945667,
          2847945668,
          2847945659,
          2847945669,
          2847945660,
          2847945670,
          2847945671,
          2847945661,
          2847945672,
          2847945673,
          2847945674,
          2847945662,
          2847945675,
          6503768711,
          2847945676,
          2847824208
        ],
        "highway": "path"
      },
      "geometry": {
        "type": "LineString",
        "coordinates": [
          [
            36.8400468,
            -1.2489762
          ],
          [
            36.8400244,
            -1.2489661
          ],
          [
            36.840002,
            -1.248966
          ],
          [
            36.839986,
            -1.248933
          ],
          [
            36.839844,
            -1.248722
          ],
          [
            36.839726,
            -1.248637
          ],
          [
            36.839576,
            -1.248479
          ],
          [
            36.839339,
            -1.24831
          ],
          [
            36.839234,
            -1.248208
          ],
          [
            36.839123,
            -1.248065
          ],
          [
            36.839009,
            -1.247976
          ],
          [
            36.83891,
            -1.247931
          ],
          [
            36.838695,
            -1.247965
          ],
          [
            36.838514,
            -1.247941
          ],
          [
            36.838424,
            -1.247884
          ],
          [
            36.83833,
            -1.247773
          ],
          [
            36.83824,
            -1.247712
          ],
          [
            36.838034,
            -1.247507
          ],
          [
            36.837883,
            -1.247405
          ],
          [
            36.8377431,
            -1.2473475
          ],
          [
            36.837681,
            -1.247322
          ],
          [
            36.837529,
            -1.247224
          ]
        ]
      }
    },
    {
      "type": "Feature",
      "id": "way/280734426",
      "properties": {
        "way_id": 280734426,
        "way_version": 1,
        "node_ids": [
          2847824221,
          2847945485,
          2847945486,
          2847945487,
          2847945488,
          2847945489,
          2847945490,
          2847945491,
          2847945482,
          2847945492,
          2847945493,
          2847945494,
          2847945495,
          2847945496,
          2847945483,
          2847945497,
          2847945498,
          2847945499,
          2847945500,
          2847946201,
          2847945484
        ],
        "highway": "path"
      },
      "geometry": {
        "type": "LineString",
        "coordinates": [
          [
            36.835969,
            -1.245659
          ],
          [
            36.835825,
            -1.245592
          ],
          [
            36.835706,
            -1.245677
          ],
          [
            36.835599,
            -1.245686
          ],
          [
            36.835427,
            -1.245629
          ],
          [
            36.835296,
            -1.245561
          ],
          [
            36.835188,
            -1.24554
          ],
          [
            36.83509,
            -1.245491
          ],
          [
            36.835016,
            -1.245487
          ],
          [
            36.834839,
            -1.245444
          ],
          [
            36.834635,
            -1.245364
          ],
          [
            36.834581,
            -1.24527
          ],
          [
            36.83451,
            -1.245252
          ],
          [
            36.834417,
            -1.245196
          ],
          [
            36.834308,
            -1.245006
          ],
          [
            36.834114,
            -1.244912
          ],
          [
            36.834017,
            -1.244759
          ],
          [
            36.833901,
            -1.244671
          ],
          [
            36.833865,
            -1.244607
          ],
          [
            36.83379,
            -1.244526
          ],
          [
            36.8337163,
            -1.2443982
          ]
        ]
      }
    },
    {
      "type": "Feature",
      "id": "way/658474429",
      "properties": {
        "way_id": 658474429,
        "way_version": 2,
        "node_ids": [
          6166228088,
          6166228087,
          6166228086,
          6166228085,
          6166227282,
          6166227284,
          6166227283,
          12357919361,
          12357919362
        ],
        "highway": "residential"
      },
      "geometry": {
        "type": "LineString",
        "coordinates": [
          [
            36.8342962,
            -1.2506777
          ],
          [
            36.8335023,
            -1.2499149
          ],
          [
            36.8334554,
            -1.2498331
          ],
          [
            36.833434,
            -1.2497499
          ],
          [
            36.8334219,
            -1.2496648
          ],
          [
            36.8334179,
            -1.2494764
          ],
          [
            36.8334608,
            -1.2488476
          ],
          [
            36.8335159,
            -1.2484834
          ],
          [
            36.8335976,
            -1.2479439
          ]
        ]
      }
    },
    {
      "type": "Feature",
      "id": "way/692748288",
      "properties": {
        "way_id": 692748288,
        "way_version": 1,
        "node_ids": [
          1562475927,
          6503768711
        ],
        "highway": "footway",
        "surface": "dirt"
      },
      "geometry": {
        "type": "LineString",
        "coordinates": [
          [
            36.838289,
            -1.245925
          ],
          [
            36.8377431,
            -1.2473475
          ]
        ]
      }
    },
    {
      "type": "Feature",
      "id": "way/692748289",
      "properties": {
        "way_id": 692748289,
        "way_version": 5,
        "node_ids": [
          11952184360,
          11952184359,
          11952184370,
          11952165171,
          9385562612,
          6503768713,
          11950508029,
          6503768714
        ],
        "highway": "footway",
        "surface": "dirt"
      },
      "geometry": {
        "type": "LineString",
        "coordinates": [
          [
            36.8330424,
            -1.2440992
          ],
          [
            36.8331832,
            -1.2440114
          ],
          [
            36.8332616,
            -1.2439987
          ],
          [
            36.833501,
            -1.2438947
          ],
          [
            36.8337545,
            -1.2437512
          ],
          [
            36.8342477,
            -1.2434874
          ],
          [
            36.8345216,
            -1.243471
          ],
          [
            36.8347637,
            -1.2434983
          ]
        ]
      }
    },
    {
      "type": "Feature",
      "id": "way/692748290",
      "properties": {
        "way_id": 692748290,
        "way_version": 1,
        "node_ids": [
          2068421886,
          6503768716,
          6503768717,
          6503768718,
          6503768719,
          6503768720,
          5927778335
        ],
        "highway": "footway",
        "surface": "dirt"
      },
      "geometry": {
        "type": "LineString",
        "coordinates": [
          [
            36.8306989,
            -1.2478389
          ],
          [
            36.8312503,
            -1.2477662
          ],
          [
            36.8319491,
            -1.2474194
          ],
          [
            36.8323418,
            -1.2472512
          ],
          [
            36.8329131,
            -1.2472563
          ],
          [
            36.8333976,
            -1.2472155
          ],
          [
            36.833544,
            -1.247045
          ]
        ]
      }
    },
    {
      "type": "Feature",
      "id": "way/1018299788",
      "properties": {
        "way_id": 1018299788,
        "way_version": 1,
        "node_ids": [
          271139392,
          9392386713,
          9392386714,
          9392386715,
          9392386716,
          9392390417
        ],
        "highway": "residential",
        "name": "Tchui Close"
      },
      "geometry": {
        "type": "LineString",
        "coordinates": [
          [
            36.8314431,
            -1.249557
          ],
          [
            36.8317443,
            -1.2492617
          ],
          [
            36.831632,
            -1.2490272
          ],
          [
            36.8317664,
            -1.2487183
          ],
          [
            36.8318979,
            -1.2485947
          ],
          [
            36.832114,
            -1.2485648
          ]
        ]
      }
    },
    {
      "type": "Feature",
      "id": "way/1033465745",
      "properties": {
        "way_id": 1033465745,
        "way_version": 2,
        "node_ids": [
          9521536668,
          2847824199
        ],
        "highway": "footway"
      },
      "geometry": {
        "type": "LineString",
        "coordinates": [
          [
            36.8361045,
            -1.2480256
          ],
          [
            36.836742,
            -1.247585
          ]
        ]
      }
    },
    {
      "type": "Feature",
      "id": "way/1473592038",
      "properties": {
        "way_id": 1473592038,
        "way_version": 1,
        "node_ids": [
          2847824100,
          13519277165,
          13519277166,
          13519277167,
          13519277168,
          13519277169,
          13519277170
        ],
        "highway": "path"
      },
      "geometry": {
        "type": "LineString",
        "coordinates": [
          [
            36.830995,
            -1.24593
          ],
          [
            36.8311513,
            -1.2459483
          ],
          [
            36.8314007,
            -1.2460636
          ],
          [
            36.8318326,
            -1.2463532
          ],
          [
            36.8323636,
            -1.2467232
          ],
          [
            36.8326614,
            -1.2468761
          ],
          [
            36.8329536,
            -1.2470287
          ]
        ]
      }
    },
    {
      "type": "Feature",
      "id": "way/1504647712",
      "properties": {
        "way_id": 1504647712,
        "way_version": 2,
        "node_ids": [
          5927778336,
          13768230795,
          13768230796,
          13768230797,
          13768230798,
          13768230799,
          2847945496
        ],
        "bicycle": "yes",
        "foot": "yes",
        "highway": "footway",
        "mtb:scale": "2",
        "source": "Strava Global Heatmap"
      },
      "geometry": {
        "type": "LineString",
        "coordinates": [
          [
            36.833711,
            -1.2468702
          ],
          [
            36.8335143,
            -1.2466464
          ],
          [
            36.8334703,
            -1.2463138
          ],
          [
            36.8336267,
            -1.2460057
          ],
          [
            36.8338905,
            -1.2458297
          ],
          [
            36.8341396,
            -1.2456145
          ],
          [
            36.834417,
            -1.245196
          ]
        ]
      }
    },
    {
      "type": "Feature",
      "id": "way/1504647728",
      "properties": {
        "way_id": 1504647728,
        "way_version": 2,
        "node_ids": [
          6503768719,
          13768276735,
          13768276736,
          13768276737,
          13768276738,
          13768276739,
          13768276740,
          13768276741,
          13768276742,
          13768276743,
          9521536668
        ],
        "bicycle": "permissive",
        "foot": "yes",
        "highway": "footway",
        "mtb:scale": "2",
        "source": "Strava Global Heatmap"
      },
      "geometry": {
        "type": "LineString",
        "coordinates": [
          [
            36.8329131,
            -1.2472563
          ],
          [
            36.833263,
            -1.2473965
          ],
          [
            36.8336031,
            -1.2473367
          ],
          [
            36.8340685,
            -1.247265
          ],
          [
            36.8344324,
            -1.2472412
          ],
          [
            36.8346115,
            -1.2473248
          ],
          [
            36.8349575,
            -1.2475637
          ],
          [
            36.8353573,
            -1.2478265
          ],
          [
            36.8356139,
            -1.2479818
          ],
          [
            36.8357988,
            -1.2480475
          ],
          [
            36.8361045,
            -1.2480256
          ]
        ]
      }
    }
  ]
}
