{
  "type": "FeatureCollection",
  "features": [
    {
      "type": "Feature",
      "id": "way/196510851",
      "properties": {
        "way_id": 196510851,
        "highway": "path",
        "name": "Lake Trail",
        "surface": "dirt"
      },
      "geometry": {
        "type": "LineString",
        "coordinates": [
          [
            36.818676,
            -1.2437565
          ],
          [
            36.818882,
            -1.243876
          ],
          [
            36.8189246,
            -1.2439333
          ],
          [
            36.8191308,
            -1.2441207
          ],
          [
            36.8192781,
            -1.2442247
          ],
          [
            36.8194793,
            -1.2443405
          ],
          [
            36.8197949,
            -1.2444319
          ],
          [
            36.820038,
            -1.2444325
          ],
          [
            36.8204619,
            -1.2444387
          ],
          [
            36.8206563,
            -1.2444421
          ],
          [
            36.8210461,
            -1.244449
          ],
          [
            36.8216375,
            -1.2446633
          ],
          [
            36.8220196,
            -1.2447912
          ],
          [
            36.8224192,
            -1.2449126
          ],
          [
            36.8233095,
            -1.2450072
          ]
        ]
      }
    },
    {
      "type": "Feature",
      "id": "way/280720863",
      "properties": {
        "way_id": 280720863,
        "highway": "path"
      },
      "geometry": {
        "type": "LineString",
        "coordinates": [
          [
            36.8204619,
            -1.2444387
          ],
          [
            36.8202699,
            -1.2434549
          ],
          [
            36.820191,
            -1.2433157
          ],
          [
            36.81982,
            -1.2432975
          ],
          [
            36.8196782,
            -1.2430715
          ],
          [
            36.8195805,
            -1.2429803
          ],
          [
            36.8194409,
            -1.242814
          ],
          [
            36.819292,
            -1.2424882
          ],
          [
            36.8190734,
            -1.2422442
          ],
          [
            36.8188121,
            -1.2419117
          ],
          [
            36.8187872,
            -1.2418581
          ],
          [
            36.8181182,
            -1.2414359
          ],
          [
            36.8180797,
            -1.2413982
          ]
        ]
      }
    },
    {
      "type": "Feature",
      "id": "way/280720865",
      "properties": {
        "way_id": 280720865,
        "highway": "path",
        "name": "Pipeline Path",
        "surface": "unpaved",
        "width": "2.5"
      },
      "geometry": {
        "type": "LineString",
        "coordinates": [
          [
            36.8233095,
            -1.2450072
          ],
          [
            36.8234028,
            -1.2450378
          ],
          [
            36.823447,
            -1.245054
          ],
          [
            36.823634,
            -1.245163
          ],
          [
            36.823939,
            -1.245276
          ],
          [
            36.824217,
            -1.245357
          ],
          [
            36.824304,
            -1.245422
          ],
          [
            36.824462,
            -1.245507
          ],
          [
            36.824637,
            -1.245635
          ],
          [
            36.825117,
            -1.246068
          ],
          [
            36.825282,
            -1.246139
          ],
          [
            36.825404,
            -1.246215
          ],
          [
            36.82545,
            -1.246271
          ],
          [
            36.825499,
            -1.246366
          ],
          [
            36.825596,
            -1.246469
          ],
          [
            36.825917,
            -1.246703
          ],
          [
            36.825986,
            -1.246786
          ],
          [
            36.826149,
            -1.246928
          ],
          [
            36.826468,
            -1.247098
          ],
          [
            36.826526,
            -1.247141
          ],
          [
            36.826668,
            -1.247253
          ],
          [
            36.826708,
            -1.247312
          ],
          [
            36.82683,
            -1.247389
          ],
          [
            36.827653,
            -1.248095
          ],
          [
            36.827854,
            -1.248246
          ],
          [
            36.828147,
            -1.248516
          ],
          [
            36.828156,
            -1.248654
          ]
        ]
      }
    },
    {
      "type": "Feature",
      "id": "way/280720866",
      "properties": {
        "way_id": 280720866,
        "highway": "path",
        "name": "Turaco Path",
        "surface": "unpaved",
        "width": "2.5"
      },
      "geometry": {
        "type": "LineString",
        "coordinates": [
          [
            36.8316199,
            -1.2469278
          ],
          [
            36.831433,
            -1.246662
          ],
          [
            36.831348,
            -1.246595
          ],
          [
            36.831119,
            -1.246487
          ],
          [
            36.831074,
            -1.246432
          ],
          [
            36.830987,
            -1.246369
          ],
          [
            36.830946,
            -1.246311
          ],
          [
            36.830953,
            -1.246203
          ],
          [
            36.831015,
            -1.245996
          ],
          [
            36.830995,
            -1.24593
          ],
          [
            36.83086,
            -1.24581
          ],
          [
            36.830774,
            -1.245697
          ],
          [
            36.830591,
            -1.245581
          ],
          [
            36.830429,
            -1.24544
          ],
          [
            36.830389,
            -1.245379
          ],
          [
            36.830234,
            -1.245228
          ],
          [
            36.830064,
            -1.244995
          ],
          [
            36.829956,
            -1.2449
          ],
          [
            36.82988,
            -1.244777
          ],
          [
            36.82978,
            -1.244674
          ],
          [
            36.829464,
            -1.244436
          ],
          [
            36.829336,
            -1.244369
          ],
          [
            36.82923,
            -1.244341
          ],
          [
            36.829169,
            -1.244305
          ],
          [
            36.8290344,
            -1.2442689
          ],
          [
            36.8288654,
            -1.2442003
          ],
          [
            36.828793,
            -1.244124
          ],
          [
            36.828757,
            -1.244118
          ],
          [
            36.828661,
            -1.244067
          ],
          [
            36.828578,
            -1.243998
          ],
          [
            36.828558,
            -1.243969
          ],
          [
            36.8284618,
            -1.2439121
          ],
          [
            36.8283362,
            -1.2437932
          ],
          [
            36.828227,
            -1.243717
          ],
          [
            36.828134,
            -1.243662
          ],
          [
            36.82792,
            -1.243467
          ],
          [
            36.827685,
            -1.243299
          ],
          [
            36.827553,
            -1.243176
          ],
          [
            36.827354,
            -1.243025
          ],
          [
            36.827287,
            -1.242943
          ],
          [
            36.8272,
            -1.242878
          ],
          [
            36.827136,
            -1.242791
          ],
          [
            36.827031,
            -1.242692
          ],
          [
            36.827016,
            -1.242624
          ],
          [
            36.82691,
            -1.242527
          ],
          [
            36.826827,
            -1.242409
          ],
          [
            36.826653,
            -1.24228
          ],
          [
            36.8265597,
            -1.2421472
          ]
        ]
      }
    },
    {
      "type": "Feature",
      "id": "way/280720869",
      "properties": {
        "way_id": 280720869,
        "highway": "footway",
        "name": "Family Trail",
        "surface": "unpaved",
        "width": "2.5"
      },
      "geometry": {
        "type": "LineString",
        "coordinates": [
          [
            36.834155,
            -1.246945
          ],
          [
            36.834018,
            -1.246985
          ],
          [
            36.833687,
            -1.247014
          ],
          [
            36.833544,
            -1.247045
          ],
          [
            36.833248,
            -1.247052
          ],
          [
            36.833101,
            -1.247032
          ],
          [
            36.8329536,
            -1.2470287
          ],
          [
            36.83288,
            -1.247027
          ],
          [
            36.832109,
            -1.246947
          ],
          [
            36.831702,
            -1.24694
          ],
          [
            36.8316199,
            -1.2469278
          ],
          [
            36.8314042,
            -1.247011
          ],
          [
            36.8311603,
            -1.2472275
          ],
          [
            36.8308921,
            -1.2475922
          ],
          [
            36.8306989,
            -1.2478389
          ],
          [
            36.8303449,
            -1.2479998
          ],
          [
            36.8300123,
            -1.248107
          ],
          [
            36.829508,
            -1.2483323
          ],
          [
            36.8288643,
            -1.2484825
          ],
          [
            36.8284137,
            -1.2485683
          ],
          [
            36.828156,
            -1.248654
          ],
          [
            36.8277083,
            -1.2487613
          ],
          [
            36.8272514,
            -1.2487803
          ],
          [
            36.8269707,
            -1.2488874
          ],
          [
            36.8267105,
            -1.2490027
          ],
          [
            36.8263741,
            -1.2490768
          ],
          [
            36.8261472,
            -1.2490563
          ],
          [
            36.8258119,
            -1.2489786
          ],
          [
            36.8256564,
            -1.2489203
          ],
          [
            36.8254971,
            -1.2488202
          ],
          [
            36.8252317,
            -1.2486383
          ],
          [
            36.8250501,
            -1.2485592
          ],
          [
            36.8248561,
            -1.2484569
          ],
          [
            36.8244594,
            -1.2483401
          ],
          [
            36.8240427,
            -1.2482493
          ],
          [
            36.8237283,
            -1.2481318
          ],
          [
            36.8235686,
            -1.2480897
          ],
          [
            36.8234052,
            -1.2480247
          ],
          [
            36.8231156,
            -1.2478872
          ],
          [
            36.8229269,
            -1.2477996
          ],
          [
            36.8227724,
            -1.247672
          ],
          [
            36.822496,
            -1.2474365
          ],
          [
            36.8222263,
            -1.2472454
          ],
          [
            36.8219663,
            -1.2471135
          ],
          [
            36.8217798,
            -1.2470362
          ],
          [
            36.8216009,
            -1.2469379
          ],
          [
            36.8212543,
            -1.2467689
          ],
          [
            36.820788,
            -1.2466409
          ],
          [
            36.8205514,
            -1.2466452
          ],
          [
            36.8204082,
            -1.2466548
          ],
          [
            36.820275,
            -1.2466662
          ],
          [
            36.820091,
            -1.24665
          ],
          [
            36.819957,
            -1.2466289
          ],
          [
            36.8196992,
            -1.2465999
          ],
          [
            36.8194149,
            -1.2466349
          ],
          [
            36.8192914,
            -1.2467004
          ],
          [
            36.8191578,
            -1.2467292
          ],
          [
            36.8187309,
            -1.2468547
          ],
          [
            36.8184004,
            -1.2469946
          ],
          [
            36.8180935,
            -1.2471248
          ],
          [
            36.8178658,
            -1.2472276
          ],
          [
            36.8178039,
            -1.2472385
          ],
          [
            36.817732,
            -1.2472261
          ],
          [
            36.8177062,
            -1.2472386
          ],
          [
            36.8176685,
            -1.2472568
          ]
        ]
      }
    },
    {
      "type": "Feature",
      "id": "way/692748291",
      "properties": {
        "way_id": 692748291,
        "highway": "footway",
        "surface": "dirt"
      },
      "geometry": {
        "type": "LineString",
        "coordinates": [
          [
            36.8242877,
            -1.2413712
          ],
          [
            36.8235245,
            -1.2445228
          ],
          [
            36.8234028,
            -1.2450378
          ]
        ]
      }
    },
    {
      "type": "Feature",
      "id": "way/692748292",
      "properties": {
        "way_id": 692748292,
        "highway": "footway",
        "surface": "dirt"
      },
      "geometry": {
        "type": "LineString",
        "coordinates": [
          [
            36.8235245,
            -1.2445228
          ],
          [
            36.824217,
            -1.245357
          ]
        ]
      }
    },
    {
      "type": "Feature",
      "id": "way/823368190",
      "properties": {
        "way_id": 823368190,
        "highway": "path",
        "surface": "dirt"
      },
      "geometry": {
        "type": "LineString",
        "coordinates": [
          [
            36.8189246,
            -1.2439333
          ],
          [
            36.8190878,
            -1.2438606
          ],
          [
            36.8192514,
            -1.2437963
          ],
          [
            36.8194177,
            -1.243689
          ],
          [
            36.819576,
            -1.2436005
          ],
          [
            36.8197235,
            -1.2434718
          ],
          [
            36.8198013,
            -1.243335
          ],
          [
            36.81982,
            -1.2432975
          ]
        ]
      }
    },
    {
      "type": "Feature",
      "id": "way/828109007",
      "properties": {
        "way_id": 828109007,
        "highway": "service",
        "source": "digitalglobe",
        "surface": "asphalt"
      },
      "geometry": {
        "type": "LineString",
        "coordinates": [
          [
            36.8210655,
            -1.2496299
          ],
          [
            36.821077,
            -1.2495287
          ],
          [
            36.821081,
            -1.2494456
          ],
          [
            36.821022,
            -1.2485875
          ],
          [
            36.821022,
            -1.2485312
          ],
          [
            36.8210462,
            -1.2484561
          ],
          [
            36.8210971,
            -1.2483676
          ],
          [
            36.8211374,
            -1.2483247
          ],
          [
            36.8212286,
            -1.2482845
          ],
          [
            36.8213573,
            -1.2482416
          ]
        ]
      }
    },
    {
      "type": "Feature",
      "id": "way/1422774608",
      "properties": {
        "way_id": 1422774608,
        "highway": "path",
        "surface": "unpaved"
      },
      "geometry": {
        "type": "LineString",
        "coordinates": [
          [
            36.818452,
            -1.24435
          ],
          [
            36.8185116,
            -1.2443523
          ],
          [
            36.8185898,
            -1.2443353
          ],
          [
            36.8186526,
            -1.2442978
          ],
          [
            36.8187025,
            -1.2442726
          ],
          [
            36.8188116,
            -1.2442962
          ],
          [
            36.8189701,
            -1.2443518
          ],
          [
            36.8191383,
            -1.2444079
          ],
          [
            36.8194635,
            -1.2446214
          ],
          [
            36.8197502,
            -1.2446121
          ],
          [
            36.8198196,
            -1.244644
          ],
          [
            36.8200291,
            -1.2446368
          ],
          [
            36.8202097,
            -1.2445817
          ],
          [
            36.8202884,
            -1.244574
          ],
          [
            36.8203784,
            -1.2445622
          ],
          [
            36.8204196,
            -1.244521
          ],
          [
            36.8204531,
            -1.2444845
          ],
          [
            36.8205349,
            -1.2444639
          ],
          [
            36.8205848,
            -1.244449
          ],
          [
            36.8206563,
            -1.2444421
          ]
        ]
      }
    }
  ]
}
