{
  "type": "FeatureCollection",
  "features": [
    {
      "type": "Feature",
      "id": "way/24951175",
      "properties": {
        "way_id": 24951175,
        "way_version": 13,
        "node_ids": [
          271139361,
          6164247345,
          6166228088,
          6164247347,
          12301125434,
          6164247346,
          271139379,
          6164247349,
          1204282351,
          9033526765,
          6164247350,
          6247128102,
          5106128501,
          6247128097,
          6164247351,
          271139362
        ],
        "highway": "residential",
        "name": "Naivasha Avenue"
      },
      "geometry": {
        "type": "LineString",
        "coordinates": [
          [
            36.8349298,
            -1.2500185
          ],
          [
            36.8346523,
            -1.2503137
          ],
          [
            36.8342962,
            -1.2506777
          ],
          [
            36.8342279,
            -1.2507475
          ],
          [
            36.8342127,
            -1.2507637
          ],
          [
            36.8338329,
            -1.2511665
          ],
          [
            36.8335143,
            -1.2515163
          ],
          [
            36.8330692,
            -1.2519569
          ],
          [
            36.8325902,
            -1.2524406
          ],
          [
            36.8321316,
            -1.2529306
          ],
          [
            36.8320942,
            -1.2529705
          ],
          [
            36.8319013,
            -1.253171
          ],
          [
            36.83158,
            -1.2535049
          ],
          [
            36.8315079,
            -1.2535803
          ],
          [
            36.8312064,
            -1.2538956
          ],
          [
            36.8308429,
            -1.2542121
          ]
        ]
      }
    },
    {
      "type": "Feature",
      "id": "way/24951187",
      "properties": {
        "way_id": 24951187,
        "way_version": 12,
        "node_ids": [
          271139438,
          9857430033,
          6164247355,
          9857430038,
          8552581699,
          6164247354,
          1204282355,
          12353332261,
          10880169291,
          6164247353,
          5349010473,
          271139439,
          6164247352,
          271139440,
          271139441,
          271139361
        ],
        "highway": "residential",
        "name": "Mutundu Road"
      },
      "geometry": {
        "type": "LineString",
        "coordinates": [
          [
            36.8383833,
            -1.254537
          ],
          [
            36.8382624,
            -1.2543712
          ],
          [
            36.8381318,
            -1.254192
          ],
          [
            36.8376474,
            -1.2535269
          ],
          [
            36.8375891,
            -1.2534469
          ],
          [
            36.8373876,
            -1.2531703
          ],
          [
            36.8365692,
            -1.2520065
          ],
          [
            36.8364269,
            -1.251821
          ],
          [
            36.8361716,
            -1.2514882
          ],
          [
            36.8360075,
            -1.2512744
          ],
          [
            36.8357804,
            -1.2509333
          ],
          [
            36.8353052,
            -1.2502706
          ],
          [
            36.8352216,
            -1.2501797
          ],
          [
            36.8351349,
            -1.2501047
          ],
          [
            36.8350265,
            -1.250051
          ],
          [
            36.8349298,
            -1.2500185
          ]
        ]
      }
    },
    {
      "type": "Feature",
      "id": "way/60200205",
      "properties": {
        "way_id": 60200205,
        "way_version": 7,
        "node_ids": [
          9810272375,
          2847945631,
          2847945632,
          747730111,
          2847945633,
          2847945634,
          2847945637,
          2847945638,
          2847945639,
          2847945640,
          2847945641,
          9521536668,
          2847945642,
          2847945643,
          2847945644,
          2847945645,
          2847945646,
          747730057
        ],
        "highway": "path"
      },
      "geometry": {
        "type": "LineString",
        "coordinates": [
          [
            36.8398371,
            -1.250795
          ],
          [
            36.839471,
            -1.25029
          ],
          [
            36.839201,
            -1.249907
          ],
          [
            36.838896,
            -1.249601
          ],
          [
            36.838755,
            -1.249488
          ],
          [
            36.838667,
            -1.249426
          ],
          [
            36.838515,
            -1.2493
          ],
          [
            36.837633,
            -1.248804
          ],
          [
            36.837206,
            -1.248606
          ],
          [
            36.836937,
            -1.248501
          ],
          [
            36.836679,
            -1.24837
          ],
          [
            36.8361045,
            -1.2480256
          ],
          [
            36.83581,
            -1.247849
          ],
          [
            36.835222,
            -1.24743
          ],
          [
            36.834883,
            -1.247222
          ],
          [
            36.834677,
            -1.247078
          ],
          [
            36.83461,
            -1.247051
          ],
          [
            36.834155,
            -1.246945
          ]
        ]
      }
    },
    {
      "type": "Feature",
      "id": "way/60200211",
      "properties": {
        "way_id": 60200211,
        "way_version": 12,
        "node_ids": [
          9761022838,
          745351391,
          745351400,
          745351404,
          745351411,
          745351422,
          745351425,
          745351446,
          745351458,
          745351461,
          745351464,
          745351466,
          745351473,
          745351481,
          745351487,
          745351489,
          745351492,
          12357920439,
          745351532,
          745351534,
          8527118134,
          8527118120,
          745351537,
          745351540,
          745351542,
          745351544,
          745351546,
          745351548,
          745351551,
          745351562,
          745351563,
          745351567,
          745351583,
          745351585,
          745351588,
          745351590,
          745351594,
          745351592,
          745351601,
          745351603,
          745351606,
          745351609,
          745351613
        ],
        "access": "private",
        "bicycle": "yes",
        "foot": "yes",
        "highway": "service"
      },
      "geometry": {
        "type": "LineString",
        "coordinates": [
          [
            36.8406602,
            -1.2505873
          ],
          [
            36.8406345,
            -1.2504428
          ],
          [
            36.84061,
            -1.2502202
          ],
          [
            36.8406147,
            -1.2500244
          ],
          [
            36.84061,
            -1.2498704
          ],
          [
            36.8406189,
            -1.2497291
          ],
          [
            36.8406402,
            -1.2495968
          ],
          [
            36.8406732,
            -1.2494314
          ],
          [
            36.8406963,
            -1.2492627
          ],
          [
            36.8407043,
            -1.2491539
          ],
          [
            36.8407463,
            -1.249038
          ],
          [
            36.8408094,
            -1.2489336
          ],
          [
            36.8408784,
            -1.2488258
          ],
          [
            36.8409774,
            -1.2486922
          ],
          [
            36.8410989,
            -1.2485949
          ],
          [
            36.8411444,
            -1.2485409
          ],
          [
            36.841208,
            -1.2484553
          ],
          [
            36.8412991,
            -1.2483226
          ],
          [
            36.8413308,
            -1.2482765
          ],
          [
            36.8413687,
            -1.2482142
          ],
          [
            36.841429,
            -1.2481345
          ],
          [
            36.8414859,
            -1.2480592
          ],
          [
            36.8416087,
            -1.2478969
          ],
          [
            36.8417935,
            -1.2476255
          ],
          [
            36.8418551,
            -1.2473813
          ],
          [
            36.8418641,
            -1.2471385
          ],
          [
            36.8418561,
            -1.2468764
          ],
          [
            36.8418536,
            -1.2467122
          ],
          [
            36.8418464,
            -1.2465275
          ],
          [
            36.8418348,
            -1.2464004
          ],
          [
            36.8417921,
            -1.2462003
          ],
          [
            36.8417858,
            -1.2459911
          ],
          [
            36.8418745,
            -1.2457533
          ],
          [
            36.8418777,
            -1.2456709
          ],
          [
            36.8419633,
            -1.2456582
          ],
          [
            36.842087,
            -1.2455853
          ],
          [
            36.8423628,
            -1.2455536
          ],
          [
            36.8425182,
            -1.2455853
          ],
          [
            36.8427179,
            -1.2456678
          ],
          [
            36.8428352,
            -1.245541
          ],
          [
            36.8429494,
            -1.2456107
          ],
          [
            36.8436002,
            -1.2448501
          ],
          [
            36.8438132,
            -1.2445431
          ]
        ]
      }
    },
    {
      "type": "Feature",
      "id": "way/104382287",
      "properties": {
        "way_id": 104382287,
        "way_version": 2,
        "node_ids": [
          1204282352,
          6165722156,
          6165722155,
          6165722154,
          6165722153,
          1204282353,
          6165722152,
          1204282355
        ],
        "highway": "residential",
        "name": "Orpheus Close"
      },
      "geometry": {
        "type": "LineString",
        "coordinates": [
          [
            36.8374518,
            -1.2508157
          ],
          [
            36.837468,
            -1.2510358
          ],
          [
            36.8374841,
            -1.2512369
          ],
          [
            36.8374861,
            -1.2513153
          ],
          [
            36.8374784,
            -1.2513659
          ],
          [
            36.837453,
            -1.2514417
          ],
          [
            36.837012,
            -1.2517236
          ],
          [
            36.8365692,
            -1.2520065
          ]
        ]
      }
    },
    {
      "type": "Feature",
      "id": "way/142776101",
      "properties": {
        "way_id": 142776101,
        "way_version": 5,
        "node_ids": [
          1562475927,
          9810272408,
          748782301,
          747730058,
          6503768700,
          2847945649,
          745351464
        ],
        "highway": "track",
        "surface": "dirt"
      },
      "geometry": {
        "type": "LineString",
        "coordinates": [
          [
            36.838289,
            -1.245925
          ],
          [
            36.8383053,
            -1.2459464
          ],
          [
            36.8386526,
            -1.2464035
          ],
          [
            36.8395742,
            -1.2474303
          ],
          [
            36.8399934,
            -1.2479522
          ],
          [
            36.8403629,
            -1.2484467
          ],
          [
            36.8407463,
            -1.249038
          ]
        ]
      }
    },
    {
      "type": "Feature",
      "id": "way/142777587",
      "properties": {
        "way_id": 142777587,
        "way_version": 10,
        "node_ids": [
          747730080,
          13556268407,
          13556268408,
          13556268406,
          10597364829,
          9521586419,
          13075357895,
          10597364827,
          10597364828,
          1562490578,
          747730117,
          1554849683,
          2847824259,
          10597364831,
          1554849717,
          1554849705,
          10597364830,
          1554849691,
          1554849693,
          1554849696,
          2847824268,
          1554849682,
          2847824269,
          1554849701,
          2847824270,
          2847934474,
          1554849703,
          2847824271,
          1554849681,
          1554849708,
          1554849714,
          2847934475,
          2847934476,
          1554849718,
          9810358818,
          1554849712,
          6503768699,
          6503768700
        ],
        "highway": "footway",
        "name": "Middle Track",
        "surface": "dirt"
      },
      "geometry": {
        "type": "LineString",
        "coordinates": [
          [
            36.819383,
            -1.238357
          ],
          [
            36.8202575,
            -1.2383025
          ],
          [
            36.821155,
            -1.2385236
          ],
          [
            36.8217089,
            -1.2385673
          ],
          [
            36.8232911,
            -1.2385826
          ],
          [
            36.8250104,
            -1.2387985
          ],
          [
            36.8267992,
            -1.2389588
          ],
          [
            36.8275042,
            -1.2390219
          ],
          [
            36.8285316,
            -1.2391186
          ],
          [
            36.8296896,
            -1.2393893
          ],
          [
            36.831305,
            -1.2398736
          ],
          [
            36.832441,
            -1.240147
          ],
          [
            36.8327423,
            -1.2402307
          ],
          [
            36.8333101,
            -1.2403091
          ],
          [
            36.8338343,
            -1.240306
          ],
          [
            36.835679,
            -1.240536
          ],
          [
            36.836384,
            -1.2407136
          ],
          [
            36.836988,
            -1.241021
          ],
          [
            36.837299,
            -1.241259
          ],
          [
            36.837763,
            -1.241535
          ],
          [
            36.838106,
            -1.241794
          ],
          [
            36.838434,
            -1.24207
          ],
          [
            36.838492,
            -1.24216
          ],
          [
            36.838645,
            -1.242255
          ],
          [
            36.83875,
            -1.242354
          ],
          [
            36.838865,
            -1.242492
          ],
          [
            36.838967,
            -1.242639
          ],
          [
            36.839069,
            -1.24283
          ],
          [
            36.839231,
            -1.243192
          ],
          [
            36.839299,
            -1.243434
          ],
          [
            36.839382,
            -1.243634
          ],
          [
            36.839676,
            -1.244251
          ],
          [
            36.839771,
            -1.244484
          ],
          [
            36.8399153,
            -1.2448482
          ],
          [
            36.8399304,
            -1.2448868
          ],
          [
            36.8405662,
            -1.2464909
          ],
          [
            36.8405875,
            -1.2468271
          ],
          [
            36.8399934,
            -1.2479522
          ]
        ]
      }
    },
    {
      "type": "Feature",
      "id": "way/280720870",
      "properties": {
        "way_id": 280720870,
        "way_version": 3,
        "node_ids": [
          5927778335,
          5927778336,
          2847824184,
          2847824186,
          2847824175,
          2847824188,
          2847824189,
          2847824199,
          2847824200,
          2847824176,
          2847824201,
          2847824202,
          2847824203,
          2847824204,
          2847824177,
          2847824208,
          2847824209,
          2847824210,
          2847824211,
          2847824212,
          2847824213,
          2847824214,
          2847824178,
          2847824215,
          2847824216,
          2847824217,
          2847824218,
          2847824219,
          2847824179,
          2847824220,
          2847824221,
          2847824222,
          2847824223,
          2847824224,
          2847824225,
          2847824226,
          2847824227,
          2847824228,
          2847824229,
          2847824230,
          2847824180
        ],
        "highway": "path"
      },
      "geometry": {
        "type": "LineString",
        "coordinates": [
          [
            36.833544,
            -1.247045
          ],
          [
            36.833711,
            -1.2468702
          ],
          [
            36.833965,
            -1.24664
          ],
          [
            36.834196,
            -1.246481
          ],
          [
            36.834324,
            -1.24643
          ],
          [
            36.834534,
            -1.246478
          ],
          [
            36.835262,
            -1.246781
          ],
          [
            36.836742,
            -1.247585
          ],
          [
            36.836883,
            -1.247618
          ],
          [
            36.836991,
            -1.247625
          ],
          [
            36.837271,
            -1.247552
          ],
          [
            36.837337,
            -1.247522
          ],
          [
            36.837453,
            -1.247439
          ],
          [
            36.837479,
            -1.247416
          ],
          [
            36.837529,
            -1.24732
          ],
          [
            36.837529,
            -1.247224
          ],
          [
            36.837451,
            -1.247062
          ],
          [
            36.83735,
            -1.246962
          ],
          [
            36.837299,
            -1.246866
          ],
          [
            36.83717,
            -1.24674
          ],
          [
            36.83711,
            -1.24665
          ],
          [
            36.837076,
            -1.246638
          ],
          [
            36.837003,
            -1.246561
          ],
          [
            36.836864,
            -1.246396
          ],
          [
            36.836753,
            -1.246307
          ],
          [
            36.836563,
            -1.24621
          ],
          [
            36.836294,
            -1.246031
          ],
          [
            36.836233,
            -1.245943
          ],
          [
            36.836061,
            -1.245812
          ],
          [
            36.836017,
            -1.245755
          ],
          [
            36.835969,
            -1.245659
          ],
          [
            36.835957,
            -1.245589
          ],
          [
            36.835844,
            -1.245286
          ],
          [
            36.835808,
            -1.245147
          ],
          [
            36.835696,
            -1.245011
          ],
          [
            36.835598,
            -1.24478
          ],
          [
            36.835476,
            -1.244558
          ],
          [
            36.835371,
            -1.244138
          ],
          [
            36.835358,
            -1.243887
          ],
          [
            36.8353574,
            -1.2438651
          ],
          [
            36.8352874,
            -1.2437539
          ]
        ]
      }
    },
    {
      "type": "Feature",
      "id": "way/280734413",
      "properties": {
        "way_id": 280734413,
        "way_version": 4,
        "node_ids": [
          2847940694,
          2847940686,
          2847940695,
          2847940696,
          2847940697,
          2847940698,
          2847940699,
          2847940700,
          2847945601,
          2847945602,
          2847945603,
          2847940687,
          2847945615,
          2847945604,
          2847940688,
          2847945605,
          2847945606,
          2847940689,
          2847945607,
          2847945608,
          2847940690,
          2847945609,
          2847945610,
          2847940691
        ],
        "highway": "path"
      },
      "geometry": {
        "type": "LineString",
        "coordinates": [
          [
            36.843568,
            -1.252845
          ],
          [
            36.84346,
            -1.252703
          ],
          [
            36.843402,
            -1.252659
          ],
          [
            36.843234,
            -1.252593
          ],
          [
            36.843147,
            -1.252528
          ],
          [
            36.843043,
            -1.252501
          ],
          [
            36.842848,
            -1.252405
          ],
          [
            36.842791,
            -1.252361
          ],
          [
            36.842723,
            -1.252337
          ],
          [
            36.842651,
            -1.252344
          ],
          [
            36.84251,
            -1.252317
          ],
          [
            36.84238,
            -1.252254
          ],
          [
            36.8420879,
            -1.2521633
          ],
          [
            36.842003,
            -1.252137
          ],
          [
            36.841965,
            -1.252076
          ],
          [
            36.841838,
            -1.251949
          ],
          [
            36.841802,
            -1.251887
          ],
          [
            36.841778,
            -1.251745
          ],
          [
            36.841801,
            -1.25164
          ],
          [
            36.841841,
            -1.25158
          ],
          [
            36.842066,
            -1.251345
          ],
          [
            36.84219,
            -1.251124
          ],
          [
            36.842257,
            -1.250881
          ],
          [
            36.8423503,
            -1.2508098
          ]
        ]
      }
    },
    {
      "type": "Feature",
      "id": "way/280734414",
      "properties": {
        "way_id": 280734414,
        "way_version": 4,
        "node_ids": [
          2847945615,
          2847945616,
          2847945617,
          2847945618,
          2847945611,
          2847945619,
          2847945620,
          2847945621,
          2847945612,
          2847945622,
          2847945623,
          2847945613,
          2847945624,
          2847945625,
          2847945614,
          2847945626,
          2847945627,
          747730073
        ],
        "highway": "track"
      },
      "geometry": {
        "type": "LineString",
        "coordinates": [
          [
            36.8420879,
            -1.2521633
          ],
          [
            36.842015,
            -1.252163
          ],
          [
            36.841949,
            -1.252196
          ],
          [
            36.841913,
            -1.252198
          ],
          [
            36.841697,
            -1.252166
          ],
          [
            36.841593,
            -1.252204
          ],
          [
            36.841411,
            -1.252215
          ],
          [
            36.84134,
            -1.252234
          ],
          [
            36.840867,
            -1.25221
          ],
          [
            36.840652,
            -1.252162
          ],
          [
            36.840469,
            -1.252053
          ],
          [
            36.8403388,
            -1.2519147
          ],
          [
            36.840277,
            -1.251837
          ],
          [
            36.840191,
            -1.251678
          ],
          [
            36.840097,
            -1.251363
          ],
          [
            36.8400231,
            -1.2512121
          ],
          [
            36.839952,
            -1.251034
          ],
          [
            36.8398535,
            -1.2508209
          ]
        ]
      }
    },
    {
      "type": "Feature",
      "id": "way/280734415",
      "properties": {
        "way_id": 280734415,
        "way_version": 2,
        "node_ids": [
          747730088,
          2847945650,
          2847945651,
          2847945652,
          2847945647,
          2847945653,
          2847945654,
          2847945655,
          2847945656,
          2847945648,
          2847945657,
          2847945649
        ],
        "highway": "track"
      },
      "geometry": {
        "type": "LineString",
        "coordinates": [
          [
            36.8399047,
            -1.2505541
          ],
          [
            36.8399067,
            -1.2504163
          ],
          [
            36.839915,
            -1.250167
          ],
          [
            36.839932,
            -1.25002
          ],
          [
            36.8399333,
            -1.2499296
          ],
          [
            36.839957,
            -1.249621
          ],
          [
            36.83996,
            -1.249251
          ],
          [
            36.8399905,
            -1.2491087
          ],
          [
            36.8400082,
            -1.2490533
          ],
          [
            36.8400468,
            -1.2489762
          ],
          [
            36.84019,
            -1.24873
          ],
          [
            36.8403629,
            -1.2484467
          ]
        ]
      }
    },
    {
      "type": "Feature",
      "id": "way/280734416",
      "properties": {
        "way_id": 280734416,
        "way_version": 2,
        "node_ids": [
          2847945648,
          2847945663,
          2847945664,
          2847945665,
          2847945666,
          2847945658,
          2847945667,
          2847945668,
          2847945659,
          2847945669,
          2847945660,
          2847945670,
          2847945671,
          2847945661,
          2847945672,
          2847945673,
          2847945674,
          2847945662,
          2847945675,
          6503768711,
          2847945676,
          2847824208
        ],
        "highway": "path"
      },
      "geometry": {
        "type": "LineString",
        "coordinates": [
          [
            36.8400468,
            -1.2489762
          ],
          [
            36.8400244,
            -1.2489661
          ],
          [
            36.840002,
            -1.248966
          ],
          [
            36.839986,
            -1.248933
          ],
          [
            36.839844,
            -1.248722
          ],
          [
            36.839726,
            -1.248637
          ],
          [
            36.839576,
            -1.248479
          ],
          [
            36.839339,
            -1.24831
          ],
          [
            36.839234,
            -1.248208
          ],
          [
            36.839123,
            -1.248065
          ],
          [
            36.839009,
            -1.247976
          ],
          [
            36.83891,
            -1.247931
          ],
          [
            36.838695,
            -1.247965
          ],
          [
            36.838514,
            -1.247941
          ],
          [
            36.838424,
            -1.247884
          ],
          [
            36.83833,
            -1.247773
          ],
          [
            36.83824,
            -1.247712
          ],
          [
            36.838034,
            -1.247507
          ],
          [
            36.837883,
            -1.247405
          ],
          [
            36.8377431,
            -1.2473475
          ],
          [
            36.837681,
            -1.247322
          ],
          [
            36.837529,
            -1.247224
          ]
        ]
      }
    },
    {
      "type": "Feature",
      "id": "way/524758051",
      "properties": {
        "way_id": 524758051,
        "way_version": 2,
        "node_ids": [
          5106128470,
          8527118165,
          5106128471,
          5106128472
        ],
        "highway": "service",
        "service": "parking_aisle"
      },
      "geometry": {
        "type": "LineString",
        "coordinates": [
          [
            36.8432887,
            -1.2510396
          ],
          [
            36.8433328,
            -1.2508669
          ],
          [
            36.843397,
            -1.2506743
          ],
          [
            36.8434142,
            -1.2501857
          ]
        ]
      }
    },
    {
      "type": "Feature",
      "id": "way/554246047",
      "properties": {
        "way_id": 554246047,
        "way_version": 2,
        "node_ids": [
          5349010473,
          5349010474,
          6165722157,
          5349010475
        ],
        "highway": "residential",
        "name": "Mutundu"
      },
      "geometry": {
        "type": "LineString",
        "coordinates": [
          [
            36.8357804,
            -1.2509333
          ],
          [
            36.8359225,
            -1.2507765
          ],
          [
            36.8360518,
            -1.2505879
          ],
          [
            36.8362469,
            -1.2502829
          ]
        ]
      }
    },
    {
      "type": "Feature",
      "id": "way/680252126",
      "properties": {
        "way_id": 680252126,
        "way_version": 2,
        "node_ids": [
          6369379425,
          6369379416,
          6369379424,
          6369379417,
          6369379423,
          6369379418,
          6369379421,
          6369379422,
          6369379419,
          6369379420,
          6369379433
        ],
        "highway": "residential",
        "name": "Family Trail"
      },
      "geometry": {
        "type": "LineString",
        "coordinates": [
          [
            36.8416536,
            -1.2486384
          ],
          [
            36.8417287,
            -1.2483408
          ],
          [
            36.8417743,
            -1.2482724
          ],
          [
            36.8418212,
            -1.2482161
          ],
          [
            36.8420452,
            -1.2480311
          ],
          [
            36.8421672,
            -1.2479197
          ],
          [
            36.8422611,
            -1.2478527
          ],
          [
            36.842465,
            -1.2477133
          ],
          [
            36.8426085,
            -1.2476637
          ],
          [
            36.8427171,
            -1.2476435
          ],
          [
            36.8428687,
            -1.2476382
          ]
        ]
      }
    },
    {
      "type": "Feature",
      "id": "way/680252127",
      "properties": {
        "way_id": 680252127,
        "way_version": 4,
        "node_ids": [
          6369379433,
          6369379431,
          6369379434,
          6369379435,
          6369379429,
          6369379436,
          6369379428,
          6369379437,
          8527118164,
          6369379438,
          6369379439,
          6369379440,
          6369379427,
          6369379445,
          6369379444,
          6369379441,
          6369379426,
          6369379442,
          6369379443
        ],
        "highway": "residential",
        "name": "Family Trail"
      },
      "geometry": {
        "type": "LineString",
        "coordinates": [
          [
            36.8428687,
            -1.2476382
          ],
          [
            36.842925,
            -1.2476449
          ],
          [
            36.8430242,
            -1.2477213
          ],
          [
            36.8432227,
            -1.2478688
          ],
          [
            36.8433917,
            -1.2479452
          ],
          [
            36.8434104,
            -1.2479573
          ],
          [
            36.843448,
            -1.2479961
          ],
          [
            36.8435687,
            -1.248145
          ],
          [
            36.8438036,
            -1.2484208
          ],
          [
            36.8441199,
            -1.2487833
          ],
          [
            36.8445772,
            -1.2493169
          ],
          [
            36.8450654,
            -1.2497888
          ],
          [
            36.845111,
            -1.2498371
          ],
          [
            36.8454328,
            -1.2503412
          ],
          [
            36.8455884,
            -1.2505075
          ],
          [
            36.8456554,
            -1.2505772
          ],
          [
            36.8458298,
            -1.2507006
          ],
          [
            36.8459773,
            -1.2507703
          ],
          [
            36.8462793,
            -1.2508873
          ]
        ]
      }
    },
    {
      "type": "Feature",
      "id": "way/692748288",
      "properties": {
        "way_id": 692748288,
        "way_version": 1,
        "node_ids": [
          1562475927,
          6503768711
        ],
        "highway": "footway",
        "surface": "dirt"
      },
      "geometry": {
        "type": "LineString",
        "coordinates": [
          [
            36.838289,
            -1.245925
          ],
          [
            36.8377431,
            -1.2473475
          ]
        ]
      }
    },
    {
      "type": "Feature",
      "id": "way/831803358",
      "properties": {
        "way_id": 831803358,
        "way_version": 3,
        "node_ids": [
          6369379425,
          7765770107,
          10635492260,
          7765770108,
          7765770109,
          7765770110,
          747730103
        ],
        "highway": "residential",
        "name": "Family Trail",
        "source": "digitalglobe"
      },
      "geometry": {
        "type": "LineString",
        "coordinates": [
          [
            36.8416536,
            -1.2486384
          ],
          [
            36.841646,
            -1.2486972
          ],
          [
            36.8416522,
            -1.2487925
          ],
          [
            36.8416648,
            -1.2489842
          ],
          [
            36.8418124,
            -1.249239
          ],
          [
            36.8419009,
            -1.2494885
          ],
          [
            36.841896,
            -1.2502158
          ]
        ]
      }
    },
    {
      "type": "Feature",
      "id": "way/918118548",
      "properties": {
        "way_id": 918118548,
        "way_version": 1,
        "node_ids": [
          8527118120,
          8527118119,
          8527118118,
          8527118117,
          8527097816
        ],
        "highway": "service"
      },
      "geometry": {
        "type": "LineString",
        "coordinates": [
          [
            36.8414859,
            -1.2480592
          ],
          [
            36.8411802,
            -1.2477079
          ],
          [
            36.841156,
            -1.2476892
          ],
          [
            36.8411332,
            -1.2476677
          ],
          [
            36.8410031,
            -1.2475926
          ]
        ]
      }
    },
    {
      "type": "Feature",
      "id": "way/918118549",
      "properties": {
        "way_id": 918118549,
        "way_version": 4,
        "node_ids": [
          745351446,
          9869913420,
          9359941781,
          12114574687,
          8527118121
        ],
        "highway": "service"
      },
      "geometry": {
        "type": "LineString",
        "coordinates": [
          [
            36.8406732,
            -1.2494314
          ],
          [
            36.8408945,
            -1.2494442
          ],
          [
            36.8409003,
            -1.2493783
          ],
          [
            36.8410736,
            -1.2494007
          ],
          [
            36.8412774,
            -1.2494361
          ]
        ]
      }
    },
    {
      "type": "Feature",
      "id": "way/918118550",
      "properties": {
        "way_id": 918118550,
        "way_version": 1,
        "node_ids": [
          7765770107,
          8527118125,
          8527118124,
          8527118123,
          8527118122
        ],
        "highway": "service"
      },
      "geometry": {
        "type": "LineString",
        "coordinates": [
          [
            36.841646,
            -1.2486972
          ],
          [
            36.8418078,
            -1.2487564
          ],
          [
            36.8418279,
            -1.2487537
          ],
          [
            36.841848,
            -1.2487403
          ],
          [
            36.8419245,
            -1.2485526
          ]
        ]
      }
    },
    {
      "type": "Feature",
      "id": "way/918118551",
      "properties": {
        "way_id": 918118551,
        "way_version": 1,
        "node_ids": [
          7765770109,
          8527118129,
          8527118128,
          8527118127,
          8527118126
        ],
        "highway": "service"
      },
      "geometry": {
        "type": "LineString",
        "coordinates": [
          [
            36.8418124,
            -1.249239
          ],
          [
            36.8419459,
            -1.2490836
          ],
          [
            36.841962,
            -1.2490661
          ],
          [
            36.8419822,
            -1.2490554
          ],
          [
            36.8420251,
            -1.2490554
          ]
        ]
      }
    },
    {
      "type": "Feature",
      "id": "way/918118552",
      "properties": {
        "way_id": 918118552,
        "way_version": 1,
        "node_ids": [
          8527118134,
          8527118133,
          8527118132,
          8527118131,
          8527118130
        ],
        "highway": "service"
      },
      "geometry": {
        "type": "LineString",
        "coordinates": [
          [
            36.841429,
            -1.2481345
          ],
          [
            36.8411064,
            -1.2480096
          ],
          [
            36.8410581,
            -1.2479855
          ],
          [
            36.8410192,
            -1.2479613
          ],
          [
            36.8409254,
            -1.2478997
          ]
        ]
      }
    },
    {
      "type": "Feature",
      "id": "way/918118553",
      "properties": {
        "way_id": 918118553,
        "way_version": 1,
        "node_ids": [
          745351540,
          8527118138,
          8527118137,
          8527118136,
          8527118135
        ],
        "highway": "service"
      },
      "geometry": {
        "type": "LineString",
        "coordinates": [
          [
            36.8417935,
            -1.2476255
          ],
          [
            36.8411896,
            -1.2472199
          ],
          [
            36.8411708,
            -1.2471998
          ],
          [
            36.8411627,
            -1.2471756
          ],
          [
            36.8411373,
            -1.2470563
          ]
        ]
      }
    },
    {
      "type": "Feature",
      "id": "way/918118554",
      "properties": {
        "way_id": 918118554,
        "way_version": 3,
        "node_ids": [
          6369379433,
          8527118147,
          8527118146,
          8527118145,
          8527118144,
          8527118143,
          8527118142,
          8527118141,
          8527118140,
          12114574756,
          12114574755,
          12114574754,
          12114574753,
          12114574752,
          745351544
        ],
        "highway": "service"
      },
      "geometry": {
        "type": "LineString",
        "coordinates": [
          [
            36.8428687,
            -1.2476382
          ],
          [
            36.8428384,
            -1.2474878
          ],
          [
            36.8427956,
            -1.247429
          ],
          [
            36.8427718,
            -1.2473942
          ],
          [
            36.8427341,
            -1.2473586
          ],
          [
            36.8426487,
            -1.2473154
          ],
          [
            36.842586,
            -1.2473138
          ],
          [
            36.8425418,
            -1.2473201
          ],
          [
            36.8425111,
            -1.2473622
          ],
          [
            36.8424435,
            -1.2473902
          ],
          [
            36.8423724,
            -1.2474036
          ],
          [
            36.8423161,
            -1.2473794
          ],
          [
            36.8422544,
            -1.2472976
          ],
          [
            36.8421511,
            -1.2472346
          ],
          [
            36.8418641,
            -1.2471385
          ]
        ]
      }
    },
    {
      "type": "Feature",
      "id": "way/918118555",
      "properties": {
        "way_id": 918118555,
        "way_version": 1,
        "node_ids": [
          6369379428,
          8527118151,
          8527118150,
          8527118149,
          8527118148
        ],
        "highway": "residential"
      },
      "geometry": {
        "type": "LineString",
        "coordinates": [
          [
            36.843448,
            -1.2479961
          ],
          [
            36.8436237,
            -1.2478152
          ],
          [
            36.8436304,
            -1.247791
          ],
          [
            36.8436263,
            -1.2477656
          ],
          [
            36.8435445,
            -1.2476516
          ]
        ]
      }
    },
    {
      "type": "Feature",
      "id": "way/918118557",
      "properties": {
        "way_id": 918118557,
        "way_version": 1,
        "node_ids": [
          8527118166,
          8527118165
        ],
        "highway": "service"
      },
      "geometry": {
        "type": "LineString",
        "coordinates": [
          [
            36.8427399,
            -1.2507837
          ],
          [
            36.8433328,
            -1.2508669
          ]
        ]
      }
    },
    {
      "type": "Feature",
      "id": "way/918118558",
      "properties": {
        "way_id": 918118558,
        "way_version": 1,
        "node_ids": [
          8527118168,
          8527118167
        ],
        "highway": "service"
      },
      "geometry": {
        "type": "LineString",
        "coordinates": [
          [
            36.8429504,
            -1.2511645
          ],
          [
            36.8432924,
            -1.2512463
          ]
        ]
      }
    },
    {
      "type": "Feature",
      "id": "way/918118559",
      "properties": {
        "way_id": 918118559,
        "way_version": 1,
        "node_ids": [
          8527118173,
          8527118168,
          8527118172,
          8527118171,
          8527118170,
          8527118169
        ],
        "highway": "service"
      },
      "geometry": {
        "type": "LineString",
        "coordinates": [
          [
            36.8429939,
            -1.2509854
          ],
          [
            36.8429504,
            -1.2511645
          ],
          [
            36.8428566,
            -1.2515546
          ],
          [
            36.8428619,
            -1.2515801
          ],
          [
            36.842882,
            -1.2515922
          ],
          [
            36.8429491,
            -1.2516083
          ]
        ]
      }
    },
    {
      "type": "Feature",
      "id": "way/918118560",
      "properties": {
        "way_id": 918118560,
        "way_version": 2,
        "node_ids": [
          747730046,
          8527118177,
          8527118176,
          8527118175,
          8527118174,
          12339849324,
          12339849323
        ],
        "highway": "service"
      },
      "geometry": {
        "type": "LineString",
        "coordinates": [
          [
            36.8433853,
            -1.2510797
          ],
          [
            36.8434131,
            -1.2511698
          ],
          [
            36.8434238,
            -1.2511966
          ],
          [
            36.843444,
            -1.2512208
          ],
          [
            36.8438356,
            -1.2514742
          ],
          [
            36.8441266,
            -1.2517142
          ],
          [
            36.8442446,
            -1.251792
          ]
        ]
      }
    },
    {
      "type": "Feature",
      "id": "way/918119799",
      "properties": {
        "way_id": 918119799,
        "way_version": 2,
        "node_ids": [
          1204282353,
          8527107981
        ],
        "highway": "residential",
        "name": "Orpheus Close"
      },
      "geometry": {
        "type": "LineString",
        "coordinates": [
          [
            36.837453,
            -1.2514417
          ],
          [
            36.8381815,
            -1.2507207
          ]
        ]
      }
    },
    {
      "type": "Feature",
      "id": "way/1018295411",
      "properties": {
        "way_id": 1018295411,
        "way_version": 1,
        "node_ids": [
          271139406,
          6164247342,
          6164247344,
          271139361
        ],
        "highway": "residential",
        "name": "Naivasha"
      },
      "geometry": {
        "type": "LineString",
        "coordinates": [
          [
            36.8342628,
            -1.2492636
          ],
          [
            36.8342839,
            -1.2493014
          ],
          [
            36.834586,
            -1.2496319
          ],
          [
            36.8349298,
            -1.2500185
          ]
        ]
      }
    },
    {
      "type": "Feature",
      "id": "way/1033465745",
      "properties": {
        "way_id": 1033465745,
        "way_version": 2,
        "node_ids": [
          9521536668,
          2847824199
        ],
        "highway": "footway"
      },
      "geometry": {
        "type": "LineString",
        "coordinates": [
          [
            36.8361045,
            -1.2480256
          ],
          [
            36.836742,
            -1.247585
          ]
        ]
      }
    },
    {
      "type": "Feature",
      "id": "way/1047012809",
      "properties": {
        "way_id": 1047012809,
        "way_version": 1,
        "node_ids": [
          6164247353,
          9627936429
        ],
        "highway": "service"
      },
      "geometry": {
        "type": "LineString",
        "coordinates": [
          [
            36.8360075,
            -1.2512744
          ],
          [
            36.8364045,
            -1.2508762
          ]
        ]
      }
    },
    {
      "type": "Feature",
      "id": "way/1062504945",
      "properties": {
        "way_id": 1062504945,
        "way_version": 3,
        "node_ids": [
          747730075,
          6369379446,
          6369379447,
          747730113,
          7765770106,
          12339849326,
          747730038,
          5106250738,
          747730119,
          747730060,
          5106250739,
          747730046,
          5106128470,
          8527118173,
          12339849325,
          2847940691,
          747730081,
          747730067,
          6369568070,
          6369568071,
          747730103,
          747730031,
          745351365,
          745351375,
          745351379,
          12114597286,
          745351381,
          745351385,
          9359941780,
          12114617880,
          9761022838
        ],
        "access": "private",
        "bicycle": "yes",
        "foot": "yes",
        "highway": "service"
      },
      "geometry": {
        "type": "LineString",
        "coordinates": [
          [
            36.8462241,
            -1.2509805
          ],
          [
            36.8461382,
            -1.2509473
          ],
          [
            36.8460605,
            -1.2509365
          ],
          [
            36.8459029,
            -1.2509428
          ],
          [
            36.8457467,
            -1.2509569
          ],
          [
            36.8453202,
            -1.2510492
          ],
          [
            36.8448919,
            -1.2510338
          ],
          [
            36.8445629,
            -1.2511961
          ],
          [
            36.8442164,
            -1.2512712
          ],
          [
            36.8437841,
            -1.2512334
          ],
          [
            36.8435314,
            -1.2511276
          ],
          [
            36.8433853,
            -1.2510797
          ],
          [
            36.8432887,
            -1.2510396
          ],
          [
            36.8429939,
            -1.2509854
          ],
          [
            36.842654,
            -1.2509097
          ],
          [
            36.8423503,
            -1.2508098
          ],
          [
            36.8422842,
            -1.250729
          ],
          [
            36.8421683,
            -1.2503409
          ],
          [
            36.8420641,
            -1.250264
          ],
          [
            36.8419768,
            -1.2502119
          ],
          [
            36.841896,
            -1.2502158
          ],
          [
            36.8417944,
            -1.2502731
          ],
          [
            36.8416681,
            -1.2504112
          ],
          [
            36.8414713,
            -1.2506444
          ],
          [
            36.8412843,
            -1.2508468
          ],
          [
            36.8411782,
            -1.2508541
          ],
          [
            36.8411112,
            -1.2508051
          ],
          [
            36.840945,
            -1.2507251
          ],
          [
            36.8407556,
            -1.2506763
          ],
          [
            36.8406954,
            -1.2506436
          ],
          [
            36.8406602,
            -1.2505873
          ]
        ]
      }
    },
    {
      "type": "Feature",
      "id": "way/1068716473",
      "properties": {
        "way_id": 1068716473,
        "way_version": 1,
        "node_ids": [
          9810272375,
          9810272376,
          9810272377,
          9810272378,
          9810272379,
          9810272380,
          9810272381,
          9810272382,
          9810272383,
          9810272384,
          9810272385,
          9810272386,
          2847945664
        ],
        "highway": "path"
      },
      "geometry": {
        "type": "LineString",
        "coordinates": [
          [
            36.8398371,
            -1.250795
          ],
          [
            36.8398935,
            -1.2506564
          ],
          [
            36.8398872,
            -1.2505599
          ],
          [
            36.8398908,
            -1.2503642
          ],
          [
            36.8398962,
            -1.2501486
          ],
          [
            36.8398962,
            -1.2499853
          ],
          [
            36.8399052,
            -1.2498221
          ],
          [
            36.8399233,
            -1.2496507
          ],
          [
            36.8399341,
            -1.2494892
          ],
          [
            36.8399422,
            -1.2492093
          ],
          [
            36.8399601,
            -1.2490855
          ],
          [
            36.8399805,
            -1.2490179
          ],
          [
            36.840002,
            -1.248966
          ]
        ]
      }
    },
    {
      "type": "Feature",
      "id": "way/1068716500",
      "properties": {
        "way_id": 1068716500,
        "way_version": 1,
        "node_ids": [
          747730088,
          2847945628,
          2847945629,
          747730073,
          9810272387,
          9810272388,
          9810272375
        ],
        "highway": "track"
      },
      "geometry": {
        "type": "LineString",
        "coordinates": [
          [
            36.8399047,
            -1.2505541
          ],
          [
            36.839915,
            -1.250656
          ],
          [
            36.839874,
            -1.250757
          ],
          [
            36.8398535,
            -1.2508209
          ],
          [
            36.8398453,
            -1.250808
          ],
          [
            36.8398434,
            -1.2508049
          ],
          [
            36.8398371,
            -1.250795
          ]
        ]
      }
    },
    {
      "type": "Feature",
      "id": "way/1076285794",
      "properties": {
        "way_id": 1076285794,
        "way_version": 1,
        "node_ids": [
          9869913420,
          9869881015,
          9869881014,
          9869881013,
          9869881012
        ],
        "highway": "service"
      },
      "geometry": {
        "type": "LineString",
        "coordinates": [
          [
            36.8408945,
            -1.2494442
          ],
          [
            36.840861,
            -1.2497406
          ],
          [
            36.8408878,
            -1.2497714
          ],
          [
            36.8409294,
            -1.2497915
          ],
          [
            36.8410742,
            -1.2498103
          ]
        ]
      }
    },
    {
      "type": "Feature",
      "id": "way/1076285795",
      "properties": {
        "way_id": 1076285795,
        "way_version": 1,
        "node_ids": [
          9359941781,
          9869913419,
          9869913418,
          9869913417,
          9869881016
        ],
        "highway": "service"
      },
      "geometry": {
        "type": "LineString",
        "coordinates": [
          [
            36.8409003,
            -1.2493783
          ],
          [
            36.8409669,
            -1.2489066
          ],
          [
            36.8409924,
            -1.2488731
          ],
          [
            36.8410233,
            -1.248865
          ],
          [
            36.8412244,
            -1.2489039
          ]
        ]
      }
    },
    {
      "type": "Feature",
      "id": "way/1141868569",
      "properties": {
        "way_id": 1141868569,
        "way_version": 1,
        "node_ids": [
          745351492,
          10635492262,
          10635492261,
          10635492260
        ],
        "highway": "service"
      },
      "geometry": {
        "type": "LineString",
        "coordinates": [
          [
            36.841208,
            -1.2484553
          ],
          [
            36.8413436,
            -1.248632
          ],
          [
            36.8414375,
            -1.2487049
          ],
          [
            36.8416522,
            -1.2487925
          ]
        ]
      }
    },
    {
      "type": "Feature",
      "id": "way/1170463893",
      "properties": {
        "way_id": 1170463893,
        "way_version": 2,
        "node_ids": [
          10880169291,
          10880169290,
          10880169289,
          10880169288,
          10880169287,
          10880169286,
          12350665961,
          12350665960,
          12350665962,
          12350665959,
          10880169285
        ],
        "highway": "residential"
      },
      "geometry": {
        "type": "LineString",
        "coordinates": [
          [
            36.8361716,
            -1.2514882
          ],
          [
            36.8357805,
            -1.251858
          ],
          [
            36.8356603,
            -1.2519634
          ],
          [
            36.8356055,
            -1.2520265
          ],
          [
            36.8355865,
            -1.2520758
          ],
          [
            36.8355934,
            -1.2521382
          ],
          [
            36.8358184,
            -1.2523698
          ],
          [
            36.8358278,
            -1.2524074
          ],
          [
            36.8357836,
            -1.2524677
          ],
          [
            36.8357447,
            -1.2525053
          ],
          [
            36.8357034,
            -1.2525415
          ]
        ]
      }
    },
    {
      "type": "Feature",
      "id": "way/1329574240",
      "properties": {
        "way_id": 1329574240,
        "way_version": 1,
        "node_ids": [
          12301125434,
          12301125435,
          12301125436,
          12301125437,
          12301125438
        ],
        "highway": "residential"
      },
      "geometry": {
        "type": "LineString",
        "coordinates": [
          [
            36.8342127,
            -1.2507637
          ],
          [
            36.8342719,
            -1.250795
          ],
          [
            36.8343303,
            -1.2508219
          ],
          [
            36.8344213,
            -1.2508592
          ],
          [
            36.8344844,
            -1.250837
          ]
        ]
      }
    },
    {
      "type": "Feature",
      "id": "way/1335288560",
      "properties": {
        "way_id": 1335288560,
        "way_version": 3,
        "node_ids": [
          12353332270,
          12353332269,
          12353332268,
          12353332267,
          12353332266,
          12353332265,
          12353332264,
          12353332263,
          12353332262,
          12353332261
        ],
        "highway": "service",
        "service": "driveway"
      },
      "geometry": {
        "type": "LineString",
        "coordinates": [
          [
            36.8358828,
            -1.2523242
          ],
          [
            36.8357688,
            -1.2522049
          ],
          [
            36.8357313,
            -1.2521392
          ],
          [
            36.8357326,
            -1.2520963
          ],
          [
            36.8357648,
            -1.2520574
          ],
          [
            36.835907,
            -1.2519488
          ],
          [
            36.836025,
            -1.2518912
          ],
          [
            36.8361416,
            -1.2518617
          ],
          [
            36.8362275,
            -1.2518509
          ],
          [
            36.8364269,
            -1.251821
          ]
        ]
      }
    },
    {
      "type": "Feature",
      "id": "way/1335930980",
      "properties": {
        "way_id": 1335930980,
        "way_version": 1,
        "node_ids": [
          12357920439,
          12357920438,
          12357920437,
          12357920436,
          12357920435
        ],
        "access": "private",
        "highway": "service"
      },
      "geometry": {
        "type": "LineString",
        "coordinates": [
          [
            36.8412991,
            -1.2483226
          ],
          [
            36.8405405,
            -1.2481946
          ],
          [
            36.840515,
            -1.2481531
          ],
          [
            36.840515,
            -1.2481276
          ],
          [
            36.840637,
            -1.2477803
          ]
        ]
      }
    },
    {
      "type": "Feature",
      "id": "way/1504647728",
      "properties": {
        "way_id": 1504647728,
        "way_version": 2,
        "node_ids": [
          6503768719,
          13768276735,
          13768276736,
          13768276737,
          13768276738,
          13768276739,
          13768276740,
          13768276741,
          13768276742,
          13768276743,
          9521536668
        ],
        "bicycle": "permissive",
        "foot": "yes",
        "highway": "footway",
        "mtb:scale": "2",
        "source": "Strava Global Heatmap"
      },
      "geometry": {
        "type": "LineString",
        "coordinates": [
          [
            36.8329131,
            -1.2472563
          ],
          [
            36.833263,
            -1.2473965
          ],
          [
            36.8336031,
            -1.2473367
          ],
          [
            36.8340685,
            -1.247265
          ],
          [
            36.8344324,
            -1.2472412
          ],
          [
            36.8346115,
            -1.2473248
          ],
          [
            36.8349575,
            -1.2475637
          ],
          [
            36.8353573,
            -1.2478265
          ],
          [
            36.8356139,
            -1.2479818
          ],
          [
            36.8357988,
            -1.2480475
          ],
          [
            36.8361045,
            -1.2480256
          ]
        ]
      }
    },
    {
      "type": "Feature",
      "id": "way/1504824091",
      "properties": {
        "way_id": 1504824091,
        "way_version": 1,
        "node_ids": [
          2847945632,
          13769335634,
          13769335635,
          13769335636,
          13769335637,
          13769335638,
          13769335639,
          13769335640,
          9810272384
        ],
        "bicycle": "designated",
        "foot": "designated",
        "highway": "path",
        "mtb:scale": "1+",
        "source": "Strava Global Heatmap"
      },
      "geometry": {
        "type": "LineString",
        "coordinates": [
          [
            36.839201,
            -1.249907
          ],
          [
            36.8394374,
            -1.2499798
          ],
          [
            36.8395619,
            -1.2499963
          ],
          [
            36.8396373,
            -1.249868
          ],
          [
            36.8394604,
            -1.2496477
          ],
          [
            36.8393653,
            -1.2494734
          ],
          [
            36.8393588,
            -1.2492432
          ],
          [
            36.8395914,
            -1.2491314
          ],
          [
            36.8399422,
            -1.2492093
          ]
        ]
      }
    }
  ]
}
